{
"type": "FeatureCollection",
"name": "48th-r-target__tue_2000",
"crs": { "type": "name", "properties": { "name": "urn:ogc:def:crs:OGC:1.3:CRS84" } },
"features": [
{"type":"Feature","properties":{"band":15},"geometry":{"type":"MultiPolygon","coordinates":[[[[-96.661789559988947,40.816337425536091],[-96.661742127281272,40.817687576853025],[-96.661694691356018,40.819037727807441],[-96.659917474706404,40.81900167588973],[-96.659869999587642,40.8203518247755],[-96.659822521248358,40.821701973298666],[-96.659775039688299,40.823052121459213],[-96.65799771832539,40.823016037069671],[-96.656220400185916,40.822979925326969],[-96.654443085272348,40.822943786231249],[-96.652665773587088,40.82290761978264],[-96.650888465132596,40.822871425981297],[-96.650936126591645,40.821521286371329],[-96.649158857349391,40.82148506693138],[-96.649206551552112,40.820134928672381],[-96.649254242519689,40.818784790050351],[-96.647477048463116,40.818748546689598],[-96.645699857643862,40.818712275980438],[-96.64574761731933,40.817362140426837],[-96.643970465710822,40.817325844087051],[-96.644018258115338,40.815975709887901],[-96.644066047278159,40.814625575325557],[-96.645843126951974,40.814661868230218],[-96.645795373755263,40.8160120045101],[-96.647572492634453,40.816048271786585],[-96.647620209864769,40.814698133790486],[-96.649397296014158,40.8147343720062],[-96.649444974043718,40.813384231932147],[-96.651222027462794,40.813420441089569],[-96.651269666296443,40.81207029893902],[-96.653046686984723,40.812106479040679],[-96.653094286627351,40.810756334815061],[-96.654871274584323,40.810792485863466],[-96.654823710901766,40.812142631799958],[-96.656600738045128,40.812178757216678],[-96.658377768412407,40.812214855290712],[-96.660154802001145,40.812250926021925],[-96.660107342981249,40.813601076720651],[-96.660059880742068,40.814951227056802],[-96.660012415283376,40.816301377030371],[-96.661789559988947,40.816337425536091]]],[[[-96.656695790265957,40.809478461561888],[-96.656648265767373,40.810828609570635],[-96.654871274584323,40.810792485863466],[-96.654918835040803,40.809442339564228],[-96.656695790265957,40.809478461561888]]]]}},
{"type":"Feature","properties":{"band":30},"geometry":{"type":"MultiPolygon","coordinates":[[[[-96.660202257802013,40.810900774960615],[-96.661979258648714,40.810936816643164],[-96.661931838808911,40.812286969410152],[-96.66370887883329,40.812322985455275],[-96.663661491740626,40.813673139564237],[-96.66188441575251,40.813637121814651],[-96.661836989479283,40.81498727385663],[-96.660059880742068,40.814951227056802],[-96.660107342981249,40.813601076720651],[-96.660154802001145,40.812250926021925],[-96.658377768412407,40.812214855290712],[-96.656600738045128,40.812178757216678],[-96.654823710901766,40.812142631799958],[-96.654871274584323,40.810792485863466],[-96.656648265767373,40.810828609570635],[-96.658425260174084,40.810864705936403],[-96.658472748714544,40.809514556219447],[-96.660249710384093,40.809550623536758],[-96.660202257802013,40.810900774960615]]],[[[-96.647715634615949,40.811997856709063],[-96.649492648839384,40.8120340914951],[-96.649444974043718,40.813384231932147],[-96.649397296014158,40.8147343720062],[-96.647620209864769,40.814698133790486],[-96.645843126951974,40.814661868230218],[-96.645890876909661,40.813311731587206],[-96.647667923858521,40.8133479954313],[-96.647715634615949,40.811997856709063]]],[[[-96.644018258115338,40.815975709887901],[-96.643970465710822,40.817325844087051],[-96.64574761731933,40.817362140426837],[-96.645699857643862,40.818712275980438],[-96.64392267006437,40.818675977922986],[-96.642145485727056,40.818639652517398],[-96.642193317344265,40.817289520400415],[-96.642241145717094,40.815939387920153],[-96.644018258115338,40.815975709887901]]],[[[-96.649206551552112,40.820134928672381],[-96.649158857349391,40.82148506693138],[-96.647381591342523,40.821448820140276],[-96.645604328573469,40.821412545998157],[-96.645652094728675,40.820062411170881],[-96.645699857643862,40.818712275980438],[-96.647477048463116,40.818748546689598],[-96.647429321521599,40.820098683596484],[-96.649206551552112,40.820134928672381]]]]}},
{"type":"Feature","properties":{"band":45},"geometry":{"type":"MultiPolygon","coordinates":[[[[-96.686857607111648,40.811438529242267],[-96.688634655947993,40.811474160782467],[-96.688587775553728,40.812824338979759],[-96.690364863534882,40.81285994486101],[-96.690411707964159,40.811509764978702],[-96.690458549216018,40.81015958473499],[-96.692235568446762,40.810195159903472],[-96.694012590852225,40.810230707729012],[-96.695789616429991,40.810266228211425],[-96.695742883067297,40.811616413502243],[-96.697519947778446,40.811651908321231],[-96.697566645177588,40.810301721350633],[-96.699343677092614,40.810337187146473],[-96.699297015657237,40.811687375795536],[-96.701074086701269,40.811722815925044],[-96.702851160908097,40.811758228709607],[-96.704628238275262,40.811793614149074],[-96.704581681574808,40.813143807464982],[-96.70280456824068,40.813108420350837],[-96.702757972412655,40.814458611631132],[-96.700980826269998,40.81442319549457],[-96.699203683290605,40.814387752010461],[-96.699157012358839,40.815737939576294],[-96.697379836574058,40.815702467066124],[-96.697333126502812,40.817052652592096],[-96.69555591791314,40.817017151053328],[-96.693778712494549,40.81698162216486],[-96.69200151024944,40.816946065926849],[-96.691954689083133,40.818296246047431],[-96.690177454038988,40.818260660776005],[-96.690224311180287,40.816910482339409],[-96.688447115289506,40.816874871402703],[-96.68840022217347,40.818225048154005],[-96.68662299348901,40.818189408181603],[-96.686576061214978,40.819539582884765],[-96.684798799737322,40.819503913874129],[-96.683021541445839,40.819468217512068],[-96.68124428634296,40.819432493798715],[-96.681291326546315,40.81808232416325],[-96.679514110610427,40.818046574790571],[-96.679467034431113,40.81939674273422],[-96.677689785712772,40.819360964318712],[-96.677736897867774,40.818010798068173],[-96.675959688320788,40.817974993996202],[-96.675912540190311,40.819325158552346],[-96.674135297866229,40.819289325435257],[-96.674182481971911,40.81793916257481],[-96.672405278823561,40.817903303804123],[-96.67235805874293,40.819253464967588],[-96.670580822822856,40.81921757714948],[-96.668803590108411,40.819181661981098],[-96.667026360602094,40.819145719462547],[-96.667073688606152,40.817795563397787],[-96.66529649828432,40.817759595231394],[-96.665343859049656,40.816409440506405],[-96.663566707911855,40.816373446694804],[-96.663614101433566,40.815023293310752],[-96.661836989479283,40.81498727385663],[-96.66188441575251,40.813637121814651],[-96.663661491740626,40.813673139564237],[-96.66370887883329,40.812322985455275],[-96.661931838808911,40.812286969410152],[-96.661979258648714,40.810936816643164],[-96.660202257802013,40.810900774960615],[-96.660249710384093,40.809550623536758],[-96.658472748714544,40.809514556219447],[-96.658425260174084,40.810864705936403],[-96.656648265767373,40.810828609570635],[-96.656695790265957,40.809478461561888],[-96.656743311541163,40.808128313190444],[-96.658520234034029,40.808164406139866],[-96.660297159747628,40.808200471750325],[-96.662074088679518,40.8082365100217],[-96.662026675272159,40.809586663513684],[-96.66380364337634,40.809622676150077],[-96.663756262711772,40.810972830983886],[-96.665533269988742,40.811008817982639],[-96.665580614694193,40.809658661445781],[-96.665627956188416,40.808308504546567],[-96.667404894760551,40.808344460799781],[-96.669181836541256,40.808380389713335],[-96.670958781528071,40.808416291287074],[-96.672735729718568,40.808452165520862],[-96.672688532053584,40.809802329219039],[-96.674465519403256,40.809838177809233],[-96.674512681110329,40.808488012414543],[-96.676289635700883,40.808523831967982],[-96.678066593487841,40.808559624181051],[-96.67811368008438,40.807209455035348],[-96.679890605109051,40.807245218215328],[-96.681667533324998,40.807280954055919],[-96.68344446472976,40.807316662557007],[-96.683397486002633,40.808666836776531],[-96.685174456550783,40.808702519626642],[-96.686951430283131,40.808738175135666],[-96.686904520288408,40.810088352369732],[-96.686857607111648,40.811438529242267]]],[[[-96.651317301898914,40.810720156425546],[-96.653094286627351,40.810756334815061],[-96.653046686984723,40.812106479040679],[-96.651269666296443,40.81207029893902],[-96.651317301898914,40.810720156425546]]],[[[-96.647715634615949,40.811997856709063],[-96.64776334213731,40.81064771762378],[-96.649540320401414,40.810683950695072],[-96.649492648839384,40.8120340914951],[-96.647715634615949,40.811997856709063]]],[[[-96.649492648839384,40.8120340914951],[-96.651269666296443,40.81207029893902],[-96.651222027462794,40.813420441089569],[-96.649444974043718,40.813384231932147],[-96.649492648839384,40.8120340914951]]],[[[-96.645843126951974,40.814661868230218],[-96.647620209864769,40.814698133790486],[-96.647572492634453,40.816048271786585],[-96.645795373755263,40.8160120045101],[-96.645843126951974,40.814661868230218]]],[[[-96.642432426769673,40.810538854366413],[-96.642384611371838,40.811888988299749],[-96.644161615879739,40.811925305111245],[-96.645938623628595,40.811961594581057],[-96.647715634615949,40.811997856709063],[-96.647667923858521,40.8133479954313],[-96.645890876909661,40.813311731587206],[-96.645843126951974,40.814661868230218],[-96.644066047278159,40.814625575325557],[-96.644018258115338,40.815975709887901],[-96.642241145717094,40.815939387920153],[-96.642193317344265,40.817289520400415],[-96.642145485727056,40.818639652517398],[-96.64392267006437,40.818675977922986],[-96.645699857643862,40.818712275980438],[-96.645652094728675,40.820062411170881],[-96.645604328573469,40.821412545998157],[-96.643827069044661,40.821376244505181],[-96.643779263670893,40.822726377251421],[-96.642001971406714,40.82269004668855],[-96.640224682387924,40.822653688773819],[-96.640272559717545,40.821303559467189],[-96.63849530992411,40.821267175922458],[-96.636718063380656,40.821230765027451],[-96.634940820089653,40.82119432678229],[-96.634988802096316,40.819844202281203],[-96.633211598034535,40.81980773841159],[-96.633259612758536,40.818457615272415],[-96.633307624225736,40.817107491769598],[-96.631530495361929,40.817071004004916],[-96.629753369757111,40.8170344888944],[-96.627976247413699,40.8169979464382],[-96.62619912833415,40.816961376636456],[-96.626247280410553,40.815611259684317],[-96.624470200563096,40.815574664268986],[-96.624518385336827,40.814224548684713],[-96.622741344720964,40.814187927658445],[-96.620964307375758,40.814151279289661],[-96.619187273303623,40.814114603578496],[-96.617410242507006,40.814077900525085],[-96.617361913882291,40.815428009169494],[-96.615584850401518,40.815391277035822],[-96.613807790201392,40.815354517558895],[-96.613856190750084,40.814004412392194],[-96.61207916979464,40.813967627312977],[-96.610302152124461,40.813930814892117],[-96.608525137741964,40.813893975129758],[-96.608476629309195,40.815244075070247],[-96.606699582255956,40.815207206221871],[-96.606748126649592,40.813857108026035],[-96.604971118849761,40.813820213581117],[-96.605019695908993,40.812470116766512],[-96.606796667750643,40.812507009465548],[-96.606845205559409,40.811156910540404],[-96.608622144737382,40.811193774155022],[-96.608573642884608,40.812543874824676],[-96.610350621308442,40.81258071284374],[-96.612127603019701,40.81261752352259],[-96.612176032959752,40.811267419367752],[-96.613952981999276,40.811304200965616],[-96.615729934321124,40.81134095522426],[-96.617506889922851,40.811377682143558],[-96.617458567853788,40.812727791516444],[-96.619235562690463,40.812764492833004],[-96.619283848802027,40.811414381723345],[-96.619332131638572,40.810064270249541],[-96.621109057837444,40.810100940754268],[-96.621060810956223,40.811451053963488],[-96.622837776382994,40.81148769886385],[-96.62461474507991,40.81152431642424],[-96.624662920049758,40.810174199748097],[-96.626439856058326,40.810210788236887],[-96.628216795331923,40.810247349386749],[-96.629993737868105,40.810283883197513],[-96.629945670767228,40.811634005064391],[-96.631722652520409,40.811670513263593],[-96.633499637531557,40.811706994122126],[-96.635276625798269,40.811743447639849],[-96.635324585027917,40.810393320593889],[-96.637101540590152,40.810429745046875],[-96.638878499402807,40.81046614216006],[-96.640655461463467,40.810502511933294],[-96.642432426769673,40.810538854366413]]]]}},
{"type":"Feature","properties":{"band":60},"geometry":{"type":"MultiPolygon","coordinates":[[[[-96.705186672432632,40.795591266211616],[-96.705140153611154,40.796941463857635],[-96.706916838657762,40.796976803549065],[-96.706870352621465,40.79832700250693],[-96.708647076761551,40.798362316538544],[-96.708600623515295,40.799712516807091],[-96.708554167118166,40.801062716714917],[-96.708507707569936,40.802412916262071],[-96.710284542697963,40.802448207971707],[-96.710238115949025,40.803798408828477],[-96.712014990176854,40.803833674870553],[-96.711968596232055,40.805183877035802],[-96.713745509560169,40.805219117407646],[-96.713699148424411,40.806569320880193],[-96.711922199140318,40.806534078840471],[-96.711875798901346,40.807884280284554],[-96.71182939551494,40.809234481368051],[-96.713606416718321,40.809269726743736],[-96.713560046147506,40.81061992913471],[-96.713513672431191,40.811970131165154],[-96.711736579298787,40.811934882453244],[-96.711690166468557,40.813285082454939],[-96.713467295569131,40.813320332835069],[-96.713420915561088,40.814670534144433],[-96.711643750489912,40.814635282096027],[-96.711597331362597,40.815985481376472],[-96.711550909086398,40.81733568029631],[-96.709773675215857,40.817300397560182],[-96.709727213812812,40.818650594449601],[-96.70968074925797,40.820000790978334],[-96.707903446581724,40.819965477549175],[-96.707856942892505,40.821315672045991],[-96.70607960738873,40.821280329591076],[-96.706033064560259,40.822630522054531],[-96.704255696229424,40.82259515057136],[-96.704209114256855,40.823945341000034],[-96.70416252912419,40.825295531067809],[-96.702385091977888,40.825260128878561],[-96.702338467693551,40.826610316910049],[-96.700560997718981,40.826574885686128],[-96.698783530909878,40.82653942710305],[-96.698830227176103,40.825189242426141],[-96.698876920274671,40.823839057388099],[-96.697099528612185,40.823803574804373],[-96.695322140119558,40.823768064864353],[-96.695368902021883,40.822417882824652],[-96.693591552686755,40.822382347210151],[-96.693638347399826,40.821032166490809],[-96.691861037221727,40.820996605204485],[-96.690083730220309,40.82096101656488],[-96.688306426398,40.820925400572108],[-96.688353325876378,40.819575224543819],[-96.686576061214978,40.819539582884765],[-96.68662299348901,40.818189408181603],[-96.68840022217347,40.818225048154005],[-96.688447115289506,40.816874871402703],[-96.690224311180287,40.816910482339409],[-96.690177454038988,40.818260660776005],[-96.691954689083133,40.818296246047431],[-96.69200151024944,40.816946065926849],[-96.693778712494549,40.81698162216486],[-96.69555591791314,40.817017151053328],[-96.697333126502812,40.817052652592096],[-96.697379836574058,40.815702467066124],[-96.699157012358839,40.815737939576294],[-96.699203683290605,40.814387752010461],[-96.700980826269998,40.81442319549457],[-96.702757972412655,40.814458611631132],[-96.70280456824068,40.813108420350837],[-96.704581681574808,40.813143807464982],[-96.704628238275262,40.811793614149074],[-96.702851160908097,40.811758228709607],[-96.701074086701269,40.811722815925044],[-96.699297015657237,40.811687375795536],[-96.699343677092614,40.810337187146473],[-96.697566645177588,40.810301721350633],[-96.697519947778446,40.811651908321231],[-96.695742883067297,40.811616413502243],[-96.695789616429991,40.810266228211425],[-96.694012590852225,40.810230707729012],[-96.692235568446762,40.810195159903472],[-96.690458549216018,40.81015958473499],[-96.690411707964159,40.811509764978702],[-96.690364863534882,40.81285994486101],[-96.688587775553728,40.812824338979759],[-96.688634655947993,40.811474160782467],[-96.686857607111648,40.811438529242267],[-96.686904520288408,40.810088352369732],[-96.688681533162409,40.810123982223701],[-96.68872840719726,40.808773803303446],[-96.690505387290727,40.808809404129853],[-96.692282370561102,40.808844977614754],[-96.694059357005955,40.808880523757978],[-96.694106119987609,40.807530339425711],[-96.695883073646073,40.807565856546205],[-96.695929797499957,40.806215670171788],[-96.695976518184722,40.804865483436203],[-96.696023235700608,40.80351529633942],[-96.696069950047871,40.802165108881475],[-96.696116661226739,40.800814921062347],[-96.697893438297697,40.800850402444979],[-96.697940110364357,40.799500212585457],[-96.697986779265563,40.798150022364844],[-96.699763487616025,40.798185473057316],[-96.69981011741254,40.796835280797794],[-96.699856744046528,40.795485088177266],[-96.698080107572522,40.795449640840374],[-96.698126766978788,40.794099449536517],[-96.698173423220553,40.792749257871598],[-96.699949987827821,40.792784701853222],[-96.699996604975624,40.791434508149699],[-96.701773136814751,40.791469923128339],[-96.701819714873452,40.790119727387641],[-96.70186628977325,40.788769531286029],[-96.700089829786748,40.788734119659708],[-96.700136437450567,40.787383924873239],[-96.701912861514401,40.787419334823518],[-96.701959430097133,40.786069138000094],[-96.702005995521716,40.784718940815772],[-96.702052557788349,40.783368743270579],[-96.702099116897315,40.782018545364473],[-96.702145672848829,40.780668347097517],[-96.702192225643159,40.77931814846967],[-96.70396843737899,40.779353521051085],[-96.703921920493002,40.780703721353277],[-96.703875400452233,40.782053921294683],[-96.703828877256456,40.783404120875268],[-96.703782350905428,40.784754320095026],[-96.703735821398908,40.786104518953977],[-96.703689288736641,40.787454717452093],[-96.705465719114855,40.787490072758835],[-96.705419219219777,40.788840272569601],[-96.703642752918398,40.788804915589381],[-96.703596213943939,40.79015511336582],[-96.705372716170899,40.790190472019567],[-96.705326209967993,40.791540671108763],[-96.705279700610802,40.792890869837173],[-96.707056277850739,40.792926204511062],[-96.707009801272164,40.794276404551127],[-96.706963321541238,40.795626604230463],[-96.705186672432632,40.795591266211616]]],[[[-96.685221399320938,40.807352343718428],[-96.686998337096085,40.807387997540047],[-96.686951430283131,40.808738175135666],[-96.685174456550783,40.808702519626642],[-96.683397486002633,40.808666836776531],[-96.68344446472976,40.807316662557007],[-96.685221399320938,40.807352343718428]]],[[[-96.638878499402807,40.81046614216006],[-96.637101540590152,40.810429745046875],[-96.635324585027917,40.810393320593889],[-96.635276625798269,40.811743447639849],[-96.633499637531557,40.811706994122126],[-96.631722652520409,40.811670513263593],[-96.629945670767228,40.811634005064391],[-96.629993737868105,40.810283883197513],[-96.628216795331923,40.810247349386749],[-96.626439856058326,40.810210788236887],[-96.626487991807068,40.808860669465332],[-96.628264895126776,40.808897228885023],[-96.630041801708828,40.808933760966923],[-96.631818711550778,40.808970265710876],[-96.631866736179617,40.80762014138903],[-96.633643613326839,40.807656617068673],[-96.633595624650212,40.809006743116754],[-96.635372541004699,40.809043193184408],[-96.637149460611781,40.809079615913681],[-96.638926383469041,40.809116011304447],[-96.638878499402807,40.81046614216006]]],[[[-96.679514110610427,40.818046574790571],[-96.681291326546315,40.81808232416325],[-96.68124428634296,40.819432493798715],[-96.679467034431113,40.81939674273422],[-96.679514110610427,40.818046574790571]]],[[[-96.68124428634296,40.819432493798715],[-96.683021541445839,40.819468217512068],[-96.68297453403008,40.820818388476347],[-96.681197242948556,40.8207826630724],[-96.68124428634296,40.819432493798715]]],[[[-96.649254242519689,40.818784790050351],[-96.649206551552112,40.820134928672381],[-96.647429321521599,40.820098683596484],[-96.647477048463116,40.818748546689598],[-96.649254242519689,40.818784790050351]]],[[[-96.622837776382994,40.81148769886385],[-96.621060810956223,40.811451053963488],[-96.621109057837444,40.810100940754268],[-96.622885987308649,40.810137583920508],[-96.622934194964415,40.808787468613176],[-96.624711091752147,40.808824082708],[-96.624662920049758,40.810174199748097],[-96.62461474507991,40.81152431642424],[-96.622837776382994,40.81148769886385]]],[[[-96.617555208714464,40.810027572406455],[-96.617603524228883,40.808677462305127],[-96.619380411200368,40.808714158411583],[-96.619332131638572,40.810064270249541],[-96.619283848802027,40.811414381723345],[-96.619235562690463,40.812764492833004],[-96.617458567853788,40.812727791516444],[-96.617506889922851,40.811377682143558],[-96.615729934321124,40.81134095522426],[-96.613952981999276,40.811304200965616],[-96.612176032959752,40.811267419367752],[-96.612127603019701,40.81261752352259],[-96.610350621308442,40.81258071284374],[-96.608573642884608,40.812543874824676],[-96.608622144737382,40.811193774155022],[-96.606845205559409,40.811156910540404],[-96.606796667750643,40.812507009465548],[-96.605019695908993,40.812470116766512],[-96.604971118849761,40.813820213581117],[-96.606748126649592,40.813857108026035],[-96.606699582255956,40.815207206221871],[-96.608476629309195,40.815244075070247],[-96.608525137741964,40.813893975129758],[-96.610302152124461,40.813930814892117],[-96.61207916979464,40.813967627312977],[-96.613856190750084,40.814004412392194],[-96.613807790201392,40.815354517558895],[-96.615584850401518,40.815391277035822],[-96.617361913882291,40.815428009169494],[-96.617410242507006,40.814077900525085],[-96.619187273303623,40.814114603578496],[-96.620964307375758,40.814151279289661],[-96.622741344720964,40.814187927658445],[-96.624518385336827,40.814224548684713],[-96.624470200563096,40.815574664268986],[-96.626247280410553,40.815611259684317],[-96.62619912833415,40.816961376636456],[-96.626150972991454,40.818311493224691],[-96.624373821209957,40.818274894345663],[-96.624422012520895,40.81692477948932],[-96.622644899976336,40.816888154996917],[-96.622693123984106,40.81553804150969],[-96.620916050676016,40.815501391406585],[-96.620867790702945,40.816851503159405],[-96.620819527456277,40.81820161454813],[-96.619042385488996,40.818164933629902],[-96.61726524679797,40.818128225365584],[-96.615488111385673,40.818091489755297],[-96.615439736956148,40.819441595568549],[-96.61366256885583,40.819404830872742],[-96.61371097925452,40.818054726799197],[-96.611933850406928,40.818017936497419],[-96.610156724845368,40.81798111885012],[-96.610108242509114,40.819331219440407],[-96.608331084267604,40.819294372704142],[-96.608282562671803,40.820644471186228],[-96.606505371750814,40.820607595358517],[-96.604728184123672,40.820570692183146],[-96.602950999792796,40.820533761660243],[-96.602999629299603,40.819183668416855],[-96.601222484237226,40.819146712295392],[-96.601271146412984,40.817796620435935],[-96.599494040618637,40.81775963871857],[-96.597716938127348,40.817722629656721],[-96.597668204017566,40.819072718014816],[-96.595891068865143,40.819035679856],[-96.595939838941561,40.817685593250516],[-96.594162743063677,40.817648529500119],[-96.594211545796099,40.816298444283383],[-96.59426034521843,40.814948358701479],[-96.594309141330896,40.813598272754433],[-96.596086129324263,40.813635331243518],[-96.596134886170489,40.812285243177698],[-96.596183639709821,40.810935154746801],[-96.597960559098979,40.810972182390941],[-96.598009273379645,40.809622091842783],[-96.599786160120743,40.809659090398135],[-96.599737481792374,40.811009182697205],[-96.601514407787533,40.81104615566543],[-96.601563050163378,40.809696061616734],[-96.603339943505105,40.809733005498458],[-96.605116840143495,40.809769922043124],[-96.605165407319262,40.808419824134376],[-96.605213971201053,40.80706972586092],[-96.606990799234381,40.80710661157714],[-96.606942271301023,40.8084567115962],[-96.606893740076117,40.80980681125061],[-96.608670643300542,40.80984367312076],[-96.610447549814324,40.809880507653446],[-96.612224459615049,40.809917314848505],[-96.612272882985849,40.808567209964821],[-96.614049760119201,40.808603988081593],[-96.615826640534351,40.808640738861754],[-96.615778289067549,40.809990847225151],[-96.617555208714464,40.810027572406455]]],[[[-96.631530495361929,40.817071004004916],[-96.631482447925478,40.818421125781022],[-96.629705286351665,40.818384608942516],[-96.629753369757111,40.8170344888944],[-96.631530495361929,40.817071004004916]]]]}}
]
}
