{
"type": "FeatureCollection",
"name": "48th-r-target__sat_1700",
"crs": { "type": "name", "properties": { "name": "urn:ogc:def:crs:OGC:1.3:CRS84" } },
"features": [
{"type":"Feature","properties":{"band":15},"geometry":{"type":"MultiPolygon","coordinates":[[[[-96.661789559988947,40.816337425536091],[-96.661742127281272,40.817687576853025],[-96.661694691356018,40.819037727807441],[-96.659917474706404,40.81900167588973],[-96.659869999587642,40.8203518247755],[-96.659822521248358,40.821701973298666],[-96.659775039688299,40.823052121459213],[-96.65799771832539,40.823016037069671],[-96.656220400185916,40.822979925326969],[-96.654443085272348,40.822943786231249],[-96.652665773587088,40.82290761978264],[-96.650888465132596,40.822871425981297],[-96.650936126591645,40.821521286371329],[-96.649158857349391,40.82148506693138],[-96.649206551552112,40.820134928672381],[-96.649254242519689,40.818784790050351],[-96.647477048463116,40.818748546689598],[-96.645699857643862,40.818712275980438],[-96.64574761731933,40.817362140426837],[-96.643970465710822,40.817325844087051],[-96.644018258115338,40.815975709887901],[-96.644066047278159,40.814625575325557],[-96.645843126951974,40.814661868230218],[-96.645795373755263,40.8160120045101],[-96.647572492634453,40.816048271786585],[-96.647620209864769,40.814698133790486],[-96.649397296014158,40.8147343720062],[-96.649444974043718,40.813384231932147],[-96.651222027462794,40.813420441089569],[-96.651269666296443,40.81207029893902],[-96.653046686984723,40.812106479040679],[-96.653094286627351,40.810756334815061],[-96.654871274584323,40.810792485863466],[-96.654823710901766,40.812142631799958],[-96.656600738045128,40.812178757216678],[-96.658377768412407,40.812214855290712],[-96.660154802001145,40.812250926021925],[-96.660107342981249,40.813601076720651],[-96.660059880742068,40.814951227056802],[-96.660012415283376,40.816301377030371],[-96.661789559988947,40.816337425536091]]],[[[-96.656695790265957,40.809478461561888],[-96.656648265767373,40.810828609570635],[-96.654871274584323,40.810792485863466],[-96.654918835040803,40.809442339564228],[-96.656695790265957,40.809478461561888]]]]}},
{"type":"Feature","properties":{"band":30},"geometry":{"type":"MultiPolygon","coordinates":[[[[-96.661931838808911,40.812286969410152],[-96.66370887883329,40.812322985455275],[-96.663661491740626,40.813673139564237],[-96.66188441575251,40.813637121814651],[-96.661836989479283,40.81498727385663],[-96.660059880742068,40.814951227056802],[-96.660107342981249,40.813601076720651],[-96.660154802001145,40.812250926021925],[-96.658377768412407,40.812214855290712],[-96.656600738045128,40.812178757216678],[-96.654823710901766,40.812142631799958],[-96.654871274584323,40.810792485863466],[-96.656648265767373,40.810828609570635],[-96.658425260174084,40.810864705936403],[-96.658472748714544,40.809514556219447],[-96.660249710384093,40.809550623536758],[-96.660202257802013,40.810900774960615],[-96.661979258648714,40.810936816643164],[-96.661931838808911,40.812286969410152]]],[[[-96.649397296014158,40.8147343720062],[-96.647620209864769,40.814698133790486],[-96.645843126951974,40.814661868230218],[-96.645890876909661,40.813311731587206],[-96.647667923858521,40.8133479954313],[-96.647715634615949,40.811997856709063],[-96.649492648839384,40.8120340914951],[-96.649444974043718,40.813384231932147],[-96.649397296014158,40.8147343720062]]],[[[-96.649206551552112,40.820134928672381],[-96.649158857349391,40.82148506693138],[-96.650936126591645,40.821521286371329],[-96.650888465132596,40.822871425981297],[-96.652665773587088,40.82290761978264],[-96.654443085272348,40.822943786231249],[-96.654395492543827,40.824293928902513],[-96.654347896586742,40.825644071210938],[-96.652570512935085,40.825607901339303],[-96.652618144876598,40.824257760742427],[-96.650840800440363,40.824221565228314],[-96.649063459237567,40.824185342360323],[-96.6491111599113,40.822835204827356],[-96.647333857925616,40.822798956320973],[-96.647381591342523,40.821448820140276],[-96.645604328573469,40.821412545998157],[-96.643827069044661,40.821376244505181],[-96.643779263670893,40.822726377251421],[-96.642001971406714,40.82269004668855],[-96.640224682387924,40.822653688773819],[-96.640272559717545,40.821303559467189],[-96.63849530992411,40.821267175922458],[-96.636718063380656,40.821230765027451],[-96.634940820089653,40.82119432678229],[-96.634988802096316,40.819844202281203],[-96.633211598034535,40.81980773841159],[-96.633259612758536,40.818457615272415],[-96.635036780848381,40.818494077416531],[-96.635084756346089,40.817143952188296],[-96.636861891720557,40.817180385260869],[-96.636909827996831,40.815830257945031],[-96.636957761021677,40.8144801302657],[-96.637005690795334,40.813130002222898],[-96.638782721526084,40.813166402781121],[-96.640559755505322,40.813202775996807],[-96.640511897657305,40.814552907483581],[-96.64046403656296,40.815903038606997],[-96.642241145717094,40.815939387920153],[-96.644018258115338,40.815975709887901],[-96.643970465710822,40.817325844087051],[-96.64574761731933,40.817362140426837],[-96.645699857643862,40.818712275980438],[-96.647477048463116,40.818748546689598],[-96.649254242519689,40.818784790050351],[-96.649206551552112,40.820134928672381]]]]}},
{"type":"Feature","properties":{"band":45},"geometry":{"type":"MultiPolygon","coordinates":[[[[-96.686951430283131,40.808738175135666],[-96.686904520288408,40.810088352369732],[-96.688681533162409,40.810123982223701],[-96.690458549216018,40.81015958473499],[-96.692235568446762,40.810195159903472],[-96.694012590852225,40.810230707729012],[-96.695789616429991,40.810266228211425],[-96.695742883067297,40.811616413502243],[-96.697519947778446,40.811651908321231],[-96.697566645177588,40.810301721350633],[-96.699343677092614,40.810337187146473],[-96.699297015657237,40.811687375795536],[-96.701074086701269,40.811722815925044],[-96.702851160908097,40.811758228709607],[-96.704628238275262,40.811793614149074],[-96.704581681574808,40.813143807464982],[-96.70280456824068,40.813108420350837],[-96.702757972412655,40.814458611631132],[-96.700980826269998,40.81442319549457],[-96.699203683290605,40.814387752010461],[-96.699157012358839,40.815737939576294],[-96.697379836574058,40.815702467066124],[-96.697333126502812,40.817052652592096],[-96.69555591791314,40.817017151053328],[-96.693778712494549,40.81698162216486],[-96.69200151024944,40.816946065926849],[-96.691954689083133,40.818296246047431],[-96.690177454038988,40.818260660776005],[-96.690224311180287,40.816910482339409],[-96.688447115289506,40.816874871402703],[-96.68840022217347,40.818225048154005],[-96.68662299348901,40.818189408181603],[-96.686576061214978,40.819539582884765],[-96.684798799737322,40.819503913874129],[-96.683021541445839,40.819468217512068],[-96.68297453403008,40.820818388476347],[-96.681197242948556,40.8207826630724],[-96.68124428634296,40.819432493798715],[-96.679467034431113,40.81939674273422],[-96.677689785712772,40.819360964318712],[-96.677736897867774,40.818010798068173],[-96.675959688320788,40.817974993996202],[-96.675912540190311,40.819325158552346],[-96.674135297866229,40.819289325435257],[-96.674182481971911,40.81793916257481],[-96.672405278823561,40.817903303804123],[-96.67235805874293,40.819253464967588],[-96.670580822822856,40.81921757714948],[-96.668803590108411,40.819181661981098],[-96.667026360602094,40.819145719462547],[-96.667073688606152,40.817795563397787],[-96.66529649828432,40.817759595231394],[-96.665343859049656,40.816409440506405],[-96.663566707911855,40.816373446694804],[-96.663614101433566,40.815023293310752],[-96.661836989479283,40.81498727385663],[-96.66188441575251,40.813637121814651],[-96.663661491740626,40.813673139564237],[-96.66370887883329,40.812322985455275],[-96.661931838808911,40.812286969410152],[-96.661979258648714,40.810936816643164],[-96.660202257802013,40.810900774960615],[-96.660249710384093,40.809550623536758],[-96.658472748714544,40.809514556219447],[-96.658425260174084,40.810864705936403],[-96.656648265767373,40.810828609570635],[-96.656695790265957,40.809478461561888],[-96.656743311541163,40.808128313190444],[-96.658520234034029,40.808164406139866],[-96.660297159747628,40.808200471750325],[-96.662074088679518,40.8082365100217],[-96.662026675272159,40.809586663513684],[-96.66380364337634,40.809622676150077],[-96.663756262711772,40.810972830983886],[-96.665533269988742,40.811008817982639],[-96.665580614694193,40.809658661445781],[-96.665627956188416,40.808308504546567],[-96.667404894760551,40.808344460799781],[-96.669181836541256,40.808380389713335],[-96.670958781528071,40.808416291287074],[-96.672735729718568,40.808452165520862],[-96.672688532053584,40.809802329219039],[-96.674465519403256,40.809838177809233],[-96.674512681110329,40.808488012414543],[-96.676289635700883,40.808523831967982],[-96.678066593487841,40.808559624181051],[-96.67811368008438,40.807209455035348],[-96.679890605109051,40.807245218215328],[-96.681667533324998,40.807280954055919],[-96.68344446472976,40.807316662557007],[-96.685221399320938,40.807352343718428],[-96.686998337096085,40.807387997540047],[-96.686951430283131,40.808738175135666]]],[[[-96.661457463457225,40.825788477141344],[-96.659680066904912,40.825752416692445],[-96.659632575681073,40.827102563765116],[-96.661410008221239,40.827138625920462],[-96.66136254976594,40.828488774337004],[-96.661315088091058,40.829838922390955],[-96.659537583567868,40.829802856822539],[-96.657760082266947,40.82976676389432],[-96.655982584190696,40.829730643606489],[-96.655935011311257,40.831080786174056],[-96.655887435204448,40.832430928378812],[-96.655839855870013,40.833781070220773],[-96.654062253030332,40.83374491744167],[-96.654014634466293,40.835095057210097],[-96.655792273307711,40.835131211699931],[-96.65574468751727,40.836481352816293],[-96.655697098498464,40.837831493569809],[-96.653919387646297,40.837795335658299],[-96.65387175938983,40.839145474338061],[-96.655649506251038,40.8391816339605],[-96.655601910774749,40.840531773988381],[-96.653824127902055,40.840495612654919],[-96.65204634826091,40.840459423951785],[-96.652094015759914,40.839109287347213],[-96.652141680025167,40.837759150379689],[-96.650363975637561,40.837722937734121],[-96.650411672675418,40.836372802117069],[-96.652189341056925,40.836409013049199],[-96.652236998855457,40.835058875355742],[-96.652284653420963,40.833708737299325],[-96.652332304753742,40.832358598879978],[-96.650554744375924,40.832322393087821],[-96.648777187233037,40.832286159934021],[-96.646999633327511,40.832249899418713],[-96.647047389416102,40.830899765779861],[-96.647095142265144,40.829549631777844],[-96.647142891874864,40.828199497412712],[-96.645365449188674,40.828163214687024],[-96.645413231547636,40.82681308167561],[-96.645461010665343,40.825462948301016],[-96.645508786542052,40.824112814563236],[-96.647286121270639,40.824149092138576],[-96.647333857925616,40.822798956320973],[-96.6491111599113,40.822835204827356],[-96.649063459237567,40.824185342360323],[-96.650840800440363,40.824221565228314],[-96.652618144876598,40.824257760742427],[-96.652570512935085,40.825607901339303],[-96.654347896586742,40.825644071210938],[-96.654395492543827,40.824293928902513],[-96.654443085272348,40.822943786231249],[-96.656220400185916,40.822979925326969],[-96.65799771832539,40.823016037069671],[-96.659775039688299,40.823052121459213],[-96.659727554907235,40.824402269257149],[-96.66150491547414,40.824438327999673],[-96.663282279259874,40.824474359387459],[-96.663234863228624,40.825824510234213],[-96.661457463457225,40.825788477141344]]],[[[-96.651317301898914,40.810720156425546],[-96.653094286627351,40.810756334815061],[-96.653046686984723,40.812106479040679],[-96.651269666296443,40.81207029893902],[-96.651317301898914,40.810720156425546]]],[[[-96.64776334213731,40.81064771762378],[-96.649540320401414,40.810683950695072],[-96.649492648839384,40.8120340914951],[-96.647715634615949,40.811997856709063],[-96.64776334213731,40.81064771762378]]],[[[-96.649492648839384,40.8120340914951],[-96.651269666296443,40.81207029893902],[-96.651222027462794,40.813420441089569],[-96.649444974043718,40.813384231932147],[-96.649492648839384,40.8120340914951]]],[[[-96.653681214048405,40.844546025428052],[-96.651903326358948,40.844509831587615],[-96.651951003560683,40.843159696071986],[-96.651998677527928,40.841809560193383],[-96.653776493182718,40.841845750608883],[-96.655554312069341,40.841881913653417],[-96.65550671013456,40.843232052955599],[-96.655459104970177,40.844582191894943],[-96.653681214048405,40.844546025428052]]],[[[-96.638926383469041,40.809116011304447],[-96.638878499402807,40.81046614216006],[-96.640655461463467,40.810502511933294],[-96.642432426769673,40.810538854366413],[-96.642384611371838,40.811888988299749],[-96.644161615879739,40.811925305111245],[-96.645938623628595,40.811961594581057],[-96.647715634615949,40.811997856709063],[-96.647667923858521,40.8133479954313],[-96.645890876909661,40.813311731587206],[-96.645843126951974,40.814661868230218],[-96.644066047278159,40.814625575325557],[-96.644018258115338,40.815975709887901],[-96.642241145717094,40.815939387920153],[-96.64046403656296,40.815903038606997],[-96.640511897657305,40.814552907483581],[-96.640559755505322,40.813202775996807],[-96.638782721526084,40.813166402781121],[-96.637005690795334,40.813130002222898],[-96.636957761021677,40.8144801302657],[-96.636909827996831,40.815830257945031],[-96.636861891720557,40.817180385260869],[-96.635084756346089,40.817143952188296],[-96.635036780848381,40.818494077416531],[-96.633259612758536,40.818457615272415],[-96.633307624225736,40.817107491769598],[-96.631530495361929,40.817071004004916],[-96.631482447925478,40.818421125781022],[-96.63143439722981,40.819771247193422],[-96.629657199684544,40.819734728626841],[-96.629705286351665,40.818384608942516],[-96.629753369757111,40.8170344888944],[-96.627976247413699,40.8169979464382],[-96.627928128039514,40.818348064757018],[-96.626150972991454,40.818311493224691],[-96.624373821209957,40.818274894345663],[-96.622596672697412,40.818238268120098],[-96.622644899976336,40.816888154996917],[-96.620867790702945,40.816851503159405],[-96.620916050676016,40.815501391406585],[-96.622693123984106,40.81553804150969],[-96.622741344720964,40.814187927658445],[-96.620964307375758,40.814151279289661],[-96.619187273303623,40.814114603578496],[-96.617410242507006,40.814077900525085],[-96.617361913882291,40.815428009169494],[-96.615584850401518,40.815391277035822],[-96.615633214988364,40.81404117012962],[-96.613856190750084,40.814004412392194],[-96.61207916979464,40.813967627312977],[-96.612127603019701,40.81261752352259],[-96.61390458801597,40.812654306861091],[-96.613952981999276,40.811304200965616],[-96.615729934321124,40.81134095522426],[-96.617506889922851,40.811377682143558],[-96.617555208714464,40.810027572406455],[-96.619332131638572,40.810064270249541],[-96.621109057837444,40.810100940754268],[-96.622885987308649,40.810137583920508],[-96.622934194964415,40.808787468613176],[-96.624711091752147,40.808824082708],[-96.624662920049758,40.810174199748097],[-96.626439856058326,40.810210788236887],[-96.626487991807068,40.808860669465332],[-96.628264895126776,40.808897228885023],[-96.630041801708828,40.808933760966923],[-96.631818711550778,40.808970265710876],[-96.631866736179617,40.80762014138903],[-96.633643613326839,40.807656617068673],[-96.633595624650212,40.809006743116754],[-96.635372541004699,40.809043193184408],[-96.637149460611781,40.809079615913681],[-96.638926383469041,40.809116011304447]],[[-96.617458567853788,40.812727791516444],[-96.619235562690463,40.812764492833004],[-96.619283848802027,40.811414381723345],[-96.617506889922851,40.811377682143558],[-96.617458567853788,40.812727791516444]]],[[[-96.645843126951974,40.814661868230218],[-96.647620209864769,40.814698133790486],[-96.647572492634453,40.816048271786585],[-96.645795373755263,40.8160120045101],[-96.645843126951974,40.814661868230218]]],[[[-96.640272559717545,40.821303559467189],[-96.640224682387924,40.822653688773819],[-96.638447396616939,40.82261730350735],[-96.636670114096191,40.822580890889292],[-96.634892834828108,40.8225444509198],[-96.633115558815149,40.822507983599024],[-96.633163580053491,40.821157861187139],[-96.633211598034535,40.81980773841159],[-96.634988802096316,40.819844202281203],[-96.634940820089653,40.82119432678229],[-96.636718063380656,40.821230765027451],[-96.63849530992411,40.821267175922458],[-96.640272559717545,40.821303559467189]]],[[[-96.641954126809537,40.824040177352344],[-96.642001971406714,40.82269004668855],[-96.643779263670893,40.822726377251421],[-96.643827069044661,40.821376244505181],[-96.645604328573469,40.821412545998157],[-96.647381591342523,40.821448820140276],[-96.647333857925616,40.822798956320973],[-96.645556559178004,40.82276268046229],[-96.645508786542052,40.824112814563236],[-96.643731455054194,40.824076509634445],[-96.641954126809537,40.824040177352344]]],[[[-96.608573642884608,40.812543874824676],[-96.610350621308442,40.81258071284374],[-96.610302152124461,40.813930814892117],[-96.608525137741964,40.813893975129758],[-96.606748126649592,40.813857108026035],[-96.604971118849761,40.813820213581117],[-96.605019695908993,40.812470116766512],[-96.606796667750643,40.812507009465548],[-96.608573642884608,40.812543874824676]]]]}},
{"type":"Feature","properties":{"band":60},"geometry":{"type":"MultiPolygon","coordinates":[[[[-96.708414779019179,40.805113314274266],[-96.710191686050919,40.805148609324633],[-96.710145253003418,40.806498809460123],[-96.711922199140318,40.806534078840471],[-96.711875798901346,40.807884280284554],[-96.71182939551494,40.809234481368051],[-96.713606416718321,40.809269726743736],[-96.713560046147506,40.81061992913471],[-96.713513672431191,40.811970131165154],[-96.713467295569131,40.813320332835069],[-96.711690166468557,40.813285082454939],[-96.709913040516398,40.813249804727718],[-96.709866588567394,40.81460000269923],[-96.709820133467289,40.815950200310049],[-96.708042938723324,40.815914891894103],[-96.707996444496885,40.817265087473224],[-96.706219216931942,40.817229750035587],[-96.704441992523471,40.817194385247404],[-96.702664771273874,40.817158993108826],[-96.702618165962619,40.81850918330624],[-96.70257155748979,40.81985937314267],[-96.700794267446184,40.819823950301291],[-96.70074761983021,40.821174138100375],[-96.69897029696979,40.821138686228622],[-96.697192977276288,40.82110320700302],[-96.697239696854169,40.819753022560555],[-96.695462416310619,40.819717517661495],[-96.693685138938648,40.819681985410135],[-96.691907864740642,40.819646425806653],[-96.69013059371909,40.819610838851162],[-96.688353325876378,40.819575224543819],[-96.686576061214978,40.819539582884765],[-96.68662299348901,40.818189408181603],[-96.68840022217347,40.818225048154005],[-96.688447115289506,40.816874871402703],[-96.690224311180287,40.816910482339409],[-96.690177454038988,40.818260660776005],[-96.691954689083133,40.818296246047431],[-96.69200151024944,40.816946065926849],[-96.693778712494549,40.81698162216486],[-96.69555591791314,40.817017151053328],[-96.697333126502812,40.817052652592096],[-96.697379836574058,40.815702467066124],[-96.699157012358839,40.815737939576294],[-96.699203683290605,40.814387752010461],[-96.700980826269998,40.81442319549457],[-96.702757972412655,40.814458611631132],[-96.70280456824068,40.813108420350837],[-96.704581681574808,40.813143807464982],[-96.704628238275262,40.811793614149074],[-96.702851160908097,40.811758228709607],[-96.701074086701269,40.811722815925044],[-96.699297015657237,40.811687375795536],[-96.699343677092614,40.810337187146473],[-96.697566645177588,40.810301721350633],[-96.697519947778446,40.811651908321231],[-96.695742883067297,40.811616413502243],[-96.695789616429991,40.810266228211425],[-96.694012590852225,40.810230707729012],[-96.692235568446762,40.810195159903472],[-96.690458549216018,40.81015958473499],[-96.688681533162409,40.810123982223701],[-96.68872840719726,40.808773803303446],[-96.690505387290727,40.808809404129853],[-96.692282370561102,40.808844977614754],[-96.694059357005955,40.808880523757978],[-96.694106119987609,40.807530339425711],[-96.695883073646073,40.807565856546205],[-96.697660030473898,40.807601346326052],[-96.697706718371535,40.806251158272062],[-96.699483642409803,40.806286619032832],[-96.701260569612316,40.806322052453972],[-96.703037499976645,40.806357458535324],[-96.703084076844718,40.805007265089444],[-96.704860974413648,40.805042642156543],[-96.704907512170251,40.803692446675463],[-96.706684376943286,40.803727794730797],[-96.706637875139279,40.805077991884851],[-96.708414779019179,40.805113314274266]]],[[[-96.666742325147951,40.827246648241918],[-96.668519770550802,40.827282600967067],[-96.670297219163203,40.827318526334317],[-96.672074670982767,40.827354424343511],[-96.67385212600702,40.827390294994508],[-96.675629584233548,40.82742613828718],[-96.677407045659891,40.827461954221377],[-96.679184510283633,40.827497742796965],[-96.680961978102346,40.827533504013772],[-96.680914915556528,40.828883671116607],[-96.679137411744819,40.828847908207507],[-96.67735991112832,40.828812117938341],[-96.675582413709449,40.828776300309279],[-96.673804919490664,40.828740455320428],[-96.673757709771792,40.830090615284249],[-96.671980182761061,40.830054741238257],[-96.672027428474379,40.828704582971959],[-96.670249940663055,40.82866868326402],[-96.670202658955517,40.830018839831489],[-96.66842513835762,40.829982911064072],[-96.666647620969783,40.829946954936176],[-96.666694974664992,40.828596801770239],[-96.664917496483127,40.828560819984688],[-96.663140021515972,40.828524810840221],[-96.66136254976594,40.828488774337004],[-96.661410008221239,40.827138625920462],[-96.659632575681073,40.827102563765116],[-96.659680066904912,40.825752416692445],[-96.661457463457225,40.825788477141344],[-96.663234863228624,40.825824510234213],[-96.663187443980732,40.82717466071847],[-96.664964882957122,40.827210668159005],[-96.666742325147951,40.827246648241918]]],[[[-96.660982766198146,40.839289948616035],[-96.660935278757776,40.840640093769167],[-96.660887788095621,40.841990238559667],[-96.662665619885061,40.842026292118824],[-96.662618162018205,40.843376438252655],[-96.660840294211397,40.843340382987513],[-96.660792797104889,40.844690527052734],[-96.660745296775843,40.846040670755293],[-96.660697793223989,40.847390814095213],[-96.658919820573558,40.84735472633502],[-96.658872277771792,40.848704867604724],[-96.658824731744318,40.85005500851171],[-96.657046690263698,40.850018889957212],[-96.656999104978752,40.851369028792476],[-96.655221030695316,40.851332881148693],[-96.655173406148023,40.852683017910806],[-96.656951516465128,40.852719167264922],[-96.658729630011166,40.852755289237422],[-96.660507746783665,40.852791383828155],[-96.660460227114129,40.854141525354684],[-96.660412704220292,40.855491666518517],[-96.662190896293012,40.855527737140463],[-96.662238383147525,40.854177594270034],[-96.662285866780209,40.852827451036987],[-96.664063989998354,40.852863490863768],[-96.665842116435655,40.852899503308365],[-96.665794704877442,40.85424964995056],[-96.667572870569074,40.854285636715453],[-96.667525491833942,40.855635784697874],[-96.669303696780389,40.855671745780406],[-96.671081904939157,40.855707679477732],[-96.671129211593438,40.854357528093786],[-96.67290738692131,40.854393432706928],[-96.672860116307831,40.855743585789696],[-96.674638330883937,40.855779464716178],[-96.674591093106486,40.857129619134334],[-96.674543852123776,40.858479773190311],[-96.674496607935566,40.859829926884125],[-96.672718285221691,40.85979404286465],[-96.670939965716002,40.859758131455806],[-96.670987282000695,40.858407981158749],[-96.669209001753501,40.858372044060992],[-96.667430724719154,40.858336079575423],[-96.667478109884044,40.856985932317876],[-96.665699872109897,40.856949942147509],[-96.665652450900055,40.858300087702226],[-96.663874180298663,40.858264068441507],[-96.662095912917422,40.858228021793416],[-96.662048416395876,40.859578163575932],[-96.662000916651493,40.860928304995802],[-96.660222580397146,40.860892227546849],[-96.660270116190603,40.859542087833837],[-96.658491819210596,40.859505984703368],[-96.656713525458315,40.859469854184667],[-96.656665917567466,40.860819990480081],[-96.656618306446219,40.862170126412636],[-96.65483994382501,40.862133965084297],[-96.654792293419888,40.863484098943104],[-96.653013897978823,40.863447908512065],[-96.653061584436912,40.862097776365431],[-96.651283228284342,40.862061560256173],[-96.651330947557142,40.860711429459933],[-96.649552630692568,40.86067518767512],[-96.649600382775219,40.859325058230446],[-96.647822105198145,40.859288790772744],[-96.646043830863448,40.859252495927691],[-96.646091651795686,40.857902369552868],[-96.646139469483373,40.856552242814779],[-96.64618728392675,40.855202115713432],[-96.646235095126073,40.853851988248842],[-96.648013225296879,40.853888276225753],[-96.648060997217527,40.852538146681063],[-96.646282903081598,40.852501860421029],[-96.646330707793553,40.851151732229958],[-96.646378509262206,40.849801603675658],[-96.6464263074878,40.848451474758136],[-96.644648324684667,40.848415166271415],[-96.644696155692316,40.847065038708564],[-96.642918212159032,40.847028704564302],[-96.64296607594386,40.845678578357273],[-96.641188171679943,40.845642218558105],[-96.641140271873169,40.846992343044732],[-96.639362334837202,40.846955954150026],[-96.637584401053545,40.846919537880311],[-96.637632372903397,40.84556941683838],[-96.635854478395657,40.845532974918093],[-96.635806470524614,40.84688309423575],[-96.63402854325291,40.846846623216486],[-96.634076587144861,40.845496505624396],[-96.632298699153452,40.845460008957424],[-96.630520814423832,40.845423484917333],[-96.628742932958502,40.845386933504251],[-96.628791081645034,40.844036820732761],[-96.627013239463849,40.844000243677527],[-96.62523540055156,40.843963639250894],[-96.62518717983032,40.84531374855974],[-96.62340930817237,40.845277115028601],[-96.623457564910581,40.843927007453026],[-96.623505818375037,40.842576899513354],[-96.621728022022111,40.842540242078861],[-96.62167973254337,40.843890348284042],[-96.619901903452345,40.843853661744099],[-96.619853574680945,40.845203765849256],[-96.618075712852345,40.845167050201347],[-96.618124077639962,40.843816947833325],[-96.616346255108652,40.843780206551905],[-96.616394652628742,40.842430105557959],[-96.616443046865569,40.841080004199632],[-96.618220797372246,40.841116742004388],[-96.618269152317424,40.839766638543473],[-96.620046870095777,40.839803347243212],[-96.62182459115202,40.839840028576013],[-96.62360231548368,40.839876682541743],[-96.62538004308837,40.839913309140243],[-96.625331832180336,40.84126341954115],[-96.625283618001475,40.842613529578031],[-96.627061420898983,40.842650132272759],[-96.627109599065477,40.84130002050405],[-96.627157773963603,40.839949908371374],[-96.628935508106963,40.839986480234977],[-96.628983643729242,40.838636366007968],[-96.63076134513031,40.838672908774811],[-96.632539049794389,40.838709424175129],[-96.63431675771902,40.838745912208793],[-96.636094468901774,40.838782372875649],[-96.636046477312931,40.840132494011343],[-96.637824227760362,40.84016892903518],[-96.637872183340221,40.83881880617556],[-96.637920135666846,40.837468682952419],[-96.639697817351745,40.837505087162654],[-96.641475502287207,40.837541464006947],[-96.641427621974415,40.838891590673931],[-96.643205346165288,40.838927941872122],[-96.643253190470787,40.83757781348514],[-96.645030881900041,40.8376141355971],[-96.645078686954733,40.836264005128186],[-96.64685634562187,40.836300298156438],[-96.646904111430644,40.834950165607012],[-96.646951873999114,40.833600032694441],[-96.646999633327511,40.832249899418713],[-96.648777187233037,40.832286159934021],[-96.650554744375924,40.832322393087821],[-96.652332304753742,40.832358598879978],[-96.652284653420963,40.833708737299325],[-96.652236998855457,40.835058875355742],[-96.652189341056925,40.836409013049199],[-96.650411672675418,40.836372802117069],[-96.650363975637561,40.837722937734121],[-96.652141680025167,40.837759150379689],[-96.652094015759914,40.839109287347213],[-96.65204634826091,40.840459423951785],[-96.653824127902055,40.840495612654919],[-96.655601910774749,40.840531773988381],[-96.655649506251038,40.8391816339605],[-96.65387175938983,40.839145474338061],[-96.653919387646297,40.837795335658299],[-96.655697098498464,40.837831493569809],[-96.65574468751727,40.836481352816293],[-96.655792273307711,40.835131211699931],[-96.654014634466293,40.835095057210097],[-96.654062253030332,40.83374491744167],[-96.655839855870013,40.833781070220773],[-96.657617461937562,40.833817195636527],[-96.657569915377223,40.835167338825123],[-96.65934756067243,40.835203438585495],[-96.659300046891076,40.836553583119567],[-96.661077731414451,40.836589657221914],[-96.661030250416943,40.837939803100284],[-96.660982766198146,40.839289948616035]],[[-96.644983073602091,40.838964265702785],[-96.646760804282408,40.839000562165765],[-96.646808576572553,40.83765043034267],[-96.645030881900041,40.8376141355971],[-96.644983073602091,40.838964265702785]],[[-96.655554312069341,40.841881913653417],[-96.653776493182718,40.841845750608883],[-96.651998677527928,40.841809560193383],[-96.651951003560683,40.843159696071986],[-96.651903326358948,40.844509831587615],[-96.653681214048405,40.844546025428052],[-96.655459104970177,40.844582191894943],[-96.65550671013456,40.843232052955599],[-96.655554312069341,40.841881913653417]],[[-96.634220699265484,40.841446150666044],[-96.634172665150899,40.842796269349172],[-96.635950484367171,40.842832735191926],[-96.635998482468139,40.84148261478343],[-96.634220699265484,40.841446150666044]]],[[[-96.67810043506887,40.858551455668973],[-96.67814760395899,40.857201298221533],[-96.678194769648741,40.855851140412085],[-96.679972993832564,40.855886937181225],[-96.679925864187027,40.857237096684393],[-96.681704127613003,40.857272867759882],[-96.681657030816453,40.858623028593591],[-96.679878731343564,40.858587255825604],[-96.67810043506887,40.858551455668973]]],[[[-96.647333857925616,40.822798956320973],[-96.647286121270639,40.824149092138576],[-96.645508786542052,40.824112814563236],[-96.645556559178004,40.82276268046229],[-96.647333857925616,40.822798956320973]]],[[[-96.647142891874864,40.828199497412712],[-96.647095142265144,40.829549631777844],[-96.647047389416102,40.830899765779861],[-96.646999633327511,40.832249899418713],[-96.645222082661817,40.832213611542066],[-96.64526987474602,40.830863479620255],[-96.645317663588216,40.829513347335244],[-96.643540188153054,40.829477035533998],[-96.643492363317932,40.830827166100732],[-96.641714855134268,40.830790825221449],[-96.639937350197471,40.830754456982532],[-96.638159848509986,40.83071806138414],[-96.638207781322379,40.829367935980002],[-96.636430318878567,40.829331514745718],[-96.636382350074257,40.830681638426391],[-96.6346048548927,40.830645188109465],[-96.63282736296776,40.830608710433488],[-96.63104987430188,40.830572205398603],[-96.62927238889749,40.830535673004967],[-96.629320501666982,40.829185556231032],[-96.627543055517194,40.829148998208694],[-96.627494906757022,40.830499113252706],[-96.625717427882932,40.830462526141993],[-96.623939952277638,40.830425911672954],[-96.623988173018375,40.829075800092646],[-96.622210736674234,40.829039159999226],[-96.622162479943583,40.830389269845739],[-96.620385010883197,40.830352600660476],[-96.620433303603505,40.829002492549058],[-96.618655873808649,40.828965797742299],[-96.618607545098911,40.830315904117349],[-96.616830082593196,40.830279180216479],[-96.616878447292066,40.828929075579097],[-96.61510102405623,40.828892326059595],[-96.615052623368442,40.830242428958002],[-96.613275167427133,40.830205650342087],[-96.611497714771659,40.830168844368878],[-96.611546187436488,40.828818744952272],[-96.609768774057471,40.82878191336475],[-96.609720265404491,40.830132011038508],[-96.607942819328045,40.830095150351134],[-96.607991363968907,40.828745054421518],[-96.606213957173253,40.828708168122709],[-96.604436553672954,40.828671254468468],[-96.604485166991068,40.827321161666205],[-96.604533777011625,40.825971068499136],[-96.604582383734922,40.824620974967303],[-96.604630987161187,40.823270881070677],[-96.602853730882828,40.823233947052515],[-96.602902366987294,40.821883854538804],[-96.60467958729069,40.821920786809279],[-96.604728184123672,40.820570692183146],[-96.602950999792796,40.820533761660243],[-96.602999629299603,40.819183668416855],[-96.601222484237226,40.819146712295392],[-96.601271146412984,40.817796620435935],[-96.599494040618637,40.81775963871857],[-96.597716938127348,40.817722629656721],[-96.597668204017566,40.819072718014816],[-96.595891068865143,40.819035679856],[-96.595939838941561,40.817685593250516],[-96.594162743063677,40.817648529500119],[-96.594211545796099,40.816298444283383],[-96.59426034521843,40.814948358701479],[-96.594309141330896,40.813598272754433],[-96.596086129324263,40.813635331243518],[-96.596134886170489,40.812285243177698],[-96.596183639709821,40.810935154746801],[-96.597960559098979,40.810972182390941],[-96.598009273379645,40.809622091842783],[-96.599786160120743,40.809659090398135],[-96.599737481792374,40.811009182697205],[-96.601514407787533,40.81104615566543],[-96.601563050163378,40.809696061616734],[-96.603339943505105,40.809733005498458],[-96.605116840143495,40.809769922043124],[-96.605165407319262,40.808419824134376],[-96.605213971201053,40.80706972586092],[-96.606990799234381,40.80710661157714],[-96.606942271301023,40.8084567115962],[-96.606893740076117,40.80980681125061],[-96.608670643300542,40.80984367312076],[-96.610447549814324,40.809880507653446],[-96.612224459615049,40.809917314848505],[-96.612272882985849,40.808567209964821],[-96.614049760119201,40.808603988081593],[-96.615826640534351,40.808640738861754],[-96.615778289067549,40.809990847225151],[-96.617555208714464,40.810027572406455],[-96.617506889922851,40.811377682143558],[-96.615729934321124,40.81134095522426],[-96.613952981999276,40.811304200965616],[-96.61390458801597,40.812654306861091],[-96.612127603019701,40.81261752352259],[-96.61207916979464,40.813967627312977],[-96.613856190750084,40.814004412392194],[-96.615633214988364,40.81404117012962],[-96.615584850401518,40.815391277035822],[-96.617361913882291,40.815428009169494],[-96.617410242507006,40.814077900525085],[-96.619187273303623,40.814114603578496],[-96.620964307375758,40.814151279289661],[-96.622741344720964,40.814187927658445],[-96.622693123984106,40.81553804150969],[-96.620916050676016,40.815501391406585],[-96.620867790702945,40.816851503159405],[-96.622644899976336,40.816888154996917],[-96.622596672697412,40.818238268120098],[-96.620819527456277,40.81820161454813],[-96.619042385488996,40.818164933629902],[-96.61726524679797,40.818128225365584],[-96.615488111385673,40.818091489755297],[-96.615439736956148,40.819441595568549],[-96.61366256885583,40.819404830872742],[-96.61371097925452,40.818054726799197],[-96.611933850406928,40.818017936497419],[-96.611885404039342,40.819368038829971],[-96.610108242509114,40.819331219440407],[-96.610059756884155,40.820681319666122],[-96.608282562671803,40.820644471186228],[-96.608234037784612,40.821994569303676],[-96.608185509605761,40.823344667056524],[-96.606408246736308,40.823307787738734],[-96.606359679287678,40.824657883381782],[-96.608136978135036,40.824694764444736],[-96.608088443372139,40.826044861468304],[-96.609865781492232,40.826081716923483],[-96.609817279419957,40.827431815326406],[-96.611594656813281,40.827468645171159],[-96.613372037494386,40.827505447661345],[-96.613420467599866,40.826155345774296],[-96.615197815582533,40.826192119169654],[-96.61697516684788,40.826228865211434],[-96.618752521393446,40.826265583899499],[-96.620529879216818,40.826302275233708],[-96.620578162110306,40.824952166029803],[-96.622355487226656,40.824988828275117],[-96.622307240315521,40.826338939213898],[-96.624084604687141,40.82637557583994],[-96.624132815615695,40.82502546316757],[-96.625910147274936,40.825062070707013],[-96.625861972329275,40.826412185111685],[-96.627639343239423,40.826448767028992],[-96.627687482201992,40.82509865089331],[-96.629464820394418,40.825135203726326],[-96.631242161849741,40.825171729205877],[-96.631290225584863,40.823821609248355],[-96.629512920110699,40.823785085497143],[-96.629561016564324,40.822434966904147],[-96.629609109755521,40.82108484794739],[-96.627831879498572,40.821048300303097],[-96.627880005401224,40.819698182711981],[-96.629657199684544,40.819734728626841],[-96.63143439722981,40.819771247193422],[-96.633211598034535,40.81980773841159],[-96.633163580053491,40.821157861187139],[-96.633115558815149,40.822507983599024],[-96.634892834828108,40.8225444509198],[-96.636670114096191,40.822580890889292],[-96.638447396616939,40.82261730350735],[-96.640224682387924,40.822653688773819],[-96.642001971406714,40.82269004668855],[-96.641954126809537,40.824040177352344],[-96.643731455054194,40.824076509634445],[-96.645508786542052,40.824112814563236],[-96.645461010665343,40.825462948301016],[-96.645413231547636,40.82681308167561],[-96.645365449188674,40.828163214687024],[-96.647142891874864,40.828199497412712]],[[-96.640176801810497,40.824003817717077],[-96.64012891798501,40.825353946296964],[-96.641906278966729,40.825390307652818],[-96.641954126809537,40.824040177352344],[-96.640176801810497,40.824003817717077]],[[-96.638351560251593,40.825317557586793],[-96.638399480059519,40.823967430728793],[-96.636622161559018,40.82393101638764],[-96.634844846311452,40.823894574693746],[-96.634796854539431,40.825244698104093],[-96.634748859511802,40.826594821150842],[-96.636526246725651,40.826631266293745],[-96.638303637192934,40.826667684081336],[-96.640081030911205,40.826704074513451],[-96.64012891798501,40.825353946296964],[-96.638351560251593,40.825317557586793]],[[-96.608573642884608,40.812543874824676],[-96.606796667750643,40.812507009465548],[-96.605019695908993,40.812470116766512],[-96.604971118849761,40.813820213581117],[-96.606748126649592,40.813857108026035],[-96.608525137741964,40.813893975129758],[-96.610302152124461,40.813930814892117],[-96.610350621308442,40.81258071284374],[-96.608573642884608,40.812543874824676]]],[[[-96.640703309574064,40.809152379356547],[-96.640655461463467,40.810502511933294],[-96.638878499402807,40.81046614216006],[-96.638926383469041,40.809116011304447],[-96.640703309574064,40.809152379356547]]],[[[-96.626439856058326,40.810210788236887],[-96.624662920049758,40.810174199748097],[-96.624711091752147,40.808824082708],[-96.622934194964415,40.808787468613176],[-96.622885987308649,40.810137583920508],[-96.621109057837444,40.810100940754268],[-96.619332131638572,40.810064270249541],[-96.617555208714464,40.810027572406455],[-96.617603524228883,40.808677462305127],[-96.619380411200368,40.808714158411583],[-96.619428687487641,40.807364046209486],[-96.619476960500648,40.80601393364325],[-96.621253778848171,40.806050598942178],[-96.623030600467274,40.806087236906478],[-96.623078798314864,40.804737120507149],[-96.624855587257031,40.80477372940414],[-96.624807425355527,40.806123847536021],[-96.626584253510472,40.806160430830637],[-96.628361084929693,40.806196986790184],[-96.628312991659271,40.807547108019499],[-96.628264895126776,40.808897228885023],[-96.626487991807068,40.808860669465332],[-96.626439856058326,40.810210788236887]]],[[[-96.629753369757111,40.8170344888944],[-96.629705286351665,40.818384608942516],[-96.627928128039514,40.818348064757018],[-96.627976247413699,40.8169979464382],[-96.629753369757111,40.8170344888944]]],[[[-96.626150972991454,40.818311493224691],[-96.626102814382236,40.819661609449007],[-96.624325626630053,40.819625008838031],[-96.624373821209957,40.818274894345663],[-96.626150972991454,40.818311493224691]]],[[[-96.619283848802027,40.811414381723345],[-96.619235562690463,40.812764492833004],[-96.617458567853788,40.812727791516444],[-96.617506889922851,40.811377682143558],[-96.619283848802027,40.811414381723345]]],[[[-96.614568435860846,40.84374343789996],[-96.612790619899002,40.843706641877631],[-96.612839089445373,40.8423565443643],[-96.614616869394212,40.842393338645664],[-96.614568435860846,40.84374343789996]]]]}}
]
}
