{
"type": "FeatureCollection",
"name": "48th-r-target__tue_0800",
"crs": { "type": "name", "properties": { "name": "urn:ogc:def:crs:OGC:1.3:CRS84" } },
"features": [
{"type":"Feature","properties":{"band":15},"geometry":{"type":"MultiPolygon","coordinates":[[[[-96.661789559988947,40.816337425536091],[-96.661742127281272,40.817687576853025],[-96.661694691356018,40.819037727807441],[-96.659917474706404,40.81900167588973],[-96.659869999587642,40.8203518247755],[-96.659822521248358,40.821701973298666],[-96.659775039688299,40.823052121459213],[-96.65799771832539,40.823016037069671],[-96.656220400185916,40.822979925326969],[-96.654443085272348,40.822943786231249],[-96.652665773587088,40.82290761978264],[-96.650888465132596,40.822871425981297],[-96.650936126591645,40.821521286371329],[-96.649158857349391,40.82148506693138],[-96.649206551552112,40.820134928672381],[-96.649254242519689,40.818784790050351],[-96.647477048463116,40.818748546689598],[-96.645699857643862,40.818712275980438],[-96.64574761731933,40.817362140426837],[-96.643970465710822,40.817325844087051],[-96.644018258115338,40.815975709887901],[-96.644066047278159,40.814625575325557],[-96.645843126951974,40.814661868230218],[-96.645795373755263,40.8160120045101],[-96.647572492634453,40.816048271786585],[-96.647620209864769,40.814698133790486],[-96.649397296014158,40.8147343720062],[-96.649444974043718,40.813384231932147],[-96.651222027462794,40.813420441089569],[-96.651269666296443,40.81207029893902],[-96.653046686984723,40.812106479040679],[-96.653094286627351,40.810756334815061],[-96.654871274584323,40.810792485863466],[-96.654823710901766,40.812142631799958],[-96.656600738045128,40.812178757216678],[-96.658377768412407,40.812214855290712],[-96.660154802001145,40.812250926021925],[-96.660107342981249,40.813601076720651],[-96.660059880742068,40.814951227056802],[-96.660012415283376,40.816301377030371],[-96.661789559988947,40.816337425536091]]],[[[-96.656695790265957,40.809478461561888],[-96.656648265767373,40.810828609570635],[-96.654871274584323,40.810792485863466],[-96.654918835040803,40.809442339564228],[-96.656695790265957,40.809478461561888]]]]}},
{"type":"Feature","properties":{"band":30},"geometry":{"type":"MultiPolygon","coordinates":[[[[-96.688587775553728,40.812824338979759],[-96.690364863534882,40.81285994486101],[-96.690411707964159,40.811509764978702],[-96.690458549216018,40.81015958473499],[-96.692235568446762,40.810195159903472],[-96.694012590852225,40.810230707729012],[-96.695789616429991,40.810266228211425],[-96.695742883067297,40.811616413502243],[-96.697519947778446,40.811651908321231],[-96.697566645177588,40.810301721350633],[-96.699343677092614,40.810337187146473],[-96.699297015657237,40.811687375795536],[-96.701074086701269,40.811722815925044],[-96.702851160908097,40.811758228709607],[-96.704628238275262,40.811793614149074],[-96.704581681574808,40.813143807464982],[-96.70280456824068,40.813108420350837],[-96.702757972412655,40.814458611631132],[-96.700980826269998,40.81442319549457],[-96.699203683290605,40.814387752010461],[-96.699157012358839,40.815737939576294],[-96.697379836574058,40.815702467066124],[-96.697333126502812,40.817052652592096],[-96.69555591791314,40.817017151053328],[-96.693778712494549,40.81698162216486],[-96.69200151024944,40.816946065926849],[-96.691954689083133,40.818296246047431],[-96.690177454038988,40.818260660776005],[-96.690224311180287,40.816910482339409],[-96.688447115289506,40.816874871402703],[-96.68840022217347,40.818225048154005],[-96.68662299348901,40.818189408181603],[-96.686576061214978,40.819539582884765],[-96.684798799737322,40.819503913874129],[-96.683021541445839,40.819468217512068],[-96.68124428634296,40.819432493798715],[-96.681291326546315,40.81808232416325],[-96.679514110610427,40.818046574790571],[-96.679467034431113,40.81939674273422],[-96.677689785712772,40.819360964318712],[-96.677736897867774,40.818010798068173],[-96.675959688320788,40.817974993996202],[-96.675912540190311,40.819325158552346],[-96.674135297866229,40.819289325435257],[-96.674182481971911,40.81793916257481],[-96.672405278823561,40.817903303804123],[-96.67235805874293,40.819253464967588],[-96.670580822822856,40.81921757714948],[-96.668803590108411,40.819181661981098],[-96.667026360602094,40.819145719462547],[-96.667073688606152,40.817795563397787],[-96.66529649828432,40.817759595231394],[-96.665343859049656,40.816409440506405],[-96.663566707911855,40.816373446694804],[-96.663614101433566,40.815023293310752],[-96.661836989479283,40.81498727385663],[-96.660059880742068,40.814951227056802],[-96.660107342981249,40.813601076720651],[-96.660154802001145,40.812250926021925],[-96.658377768412407,40.812214855290712],[-96.656600738045128,40.812178757216678],[-96.654823710901766,40.812142631799958],[-96.654871274584323,40.810792485863466],[-96.656648265767373,40.810828609570635],[-96.656695790265957,40.809478461561888],[-96.656743311541163,40.808128313190444],[-96.658520234034029,40.808164406139866],[-96.660297159747628,40.808200471750325],[-96.662074088679518,40.8082365100217],[-96.662026675272159,40.809586663513684],[-96.66380364337634,40.809622676150077],[-96.663756262711772,40.810972830983886],[-96.665533269988742,40.811008817982639],[-96.665580614694193,40.809658661445781],[-96.665627956188416,40.808308504546567],[-96.667404894760551,40.808344460799781],[-96.669181836541256,40.808380389713335],[-96.670958781528071,40.808416291287074],[-96.672735729718568,40.808452165520862],[-96.672688532053584,40.809802329219039],[-96.674465519403256,40.809838177809233],[-96.674512681110329,40.808488012414543],[-96.676289635700883,40.808523831967982],[-96.678066593487841,40.808559624181051],[-96.67811368008438,40.807209455035348],[-96.679890605109051,40.807245218215328],[-96.681667533324998,40.807280954055919],[-96.68344446472976,40.807316662557007],[-96.683397486002633,40.808666836776531],[-96.685174456550783,40.808702519626642],[-96.686951430283131,40.808738175135666],[-96.686904520288408,40.810088352369732],[-96.686857607111648,40.811438529242267],[-96.688634655947993,40.811474160782467],[-96.688587775553728,40.812824338979759]]],[[[-96.686576061214978,40.819539582884765],[-96.688353325876378,40.819575224543819],[-96.688306426398,40.820925400572108],[-96.686529125757232,40.82088975722634],[-96.686576061214978,40.819539582884765]]],[[[-96.651317301898914,40.810720156425546],[-96.653094286627351,40.810756334815061],[-96.653046686984723,40.812106479040679],[-96.651269666296443,40.81207029893902],[-96.651317301898914,40.810720156425546]]],[[[-96.651222027462794,40.813420441089569],[-96.649444974043718,40.813384231932147],[-96.649397296014158,40.8147343720062],[-96.647620209864769,40.814698133790486],[-96.647572492634453,40.816048271786585],[-96.645795373755263,40.8160120045101],[-96.645843126951974,40.814661868230218],[-96.644066047278159,40.814625575325557],[-96.644018258115338,40.815975709887901],[-96.643970465710822,40.817325844087051],[-96.64574761731933,40.817362140426837],[-96.645699857643862,40.818712275980438],[-96.647477048463116,40.818748546689598],[-96.649254242519689,40.818784790050351],[-96.649206551552112,40.820134928672381],[-96.649158857349391,40.82148506693138],[-96.650936126591645,40.821521286371329],[-96.650888465132596,40.822871425981297],[-96.652665773587088,40.82290761978264],[-96.654443085272348,40.822943786231249],[-96.654395492543827,40.824293928902513],[-96.654347896586742,40.825644071210938],[-96.652570512935085,40.825607901339303],[-96.652618144876598,40.824257760742427],[-96.650840800440363,40.824221565228314],[-96.649063459237567,40.824185342360323],[-96.6491111599113,40.822835204827356],[-96.647333857925616,40.822798956320973],[-96.645556559178004,40.82276268046229],[-96.645604328573469,40.821412545998157],[-96.643827069044661,40.821376244505181],[-96.643779263670893,40.822726377251421],[-96.642001971406714,40.82269004668855],[-96.640224682387924,40.822653688773819],[-96.640272559717545,40.821303559467189],[-96.63849530992411,40.821267175922458],[-96.636718063380656,40.821230765027451],[-96.634940820089653,40.82119432678229],[-96.634988802096316,40.819844202281203],[-96.633211598034535,40.81980773841159],[-96.633259612758536,40.818457615272415],[-96.633307624225736,40.817107491769598],[-96.631530495361929,40.817071004004916],[-96.629753369757111,40.8170344888944],[-96.627976247413699,40.8169979464382],[-96.62619912833415,40.816961376636456],[-96.626247280410553,40.815611259684317],[-96.624470200563096,40.815574664268986],[-96.624518385336827,40.814224548684713],[-96.622741344720964,40.814187927658445],[-96.620964307375758,40.814151279289661],[-96.619187273303623,40.814114603578496],[-96.617410242507006,40.814077900525085],[-96.617361913882291,40.815428009169494],[-96.615584850401518,40.815391277035822],[-96.613807790201392,40.815354517558895],[-96.613856190750084,40.814004412392194],[-96.61207916979464,40.813967627312977],[-96.610302152124461,40.813930814892117],[-96.608525137741964,40.813893975129758],[-96.608476629309195,40.815244075070247],[-96.606699582255956,40.815207206221871],[-96.606748126649592,40.813857108026035],[-96.604971118849761,40.813820213581117],[-96.605019695908993,40.812470116766512],[-96.606796667750643,40.812507009465548],[-96.606845205559409,40.811156910540404],[-96.608622144737382,40.811193774155022],[-96.608573642884608,40.812543874824676],[-96.610350621308442,40.81258071284374],[-96.612127603019701,40.81261752352259],[-96.612176032959752,40.811267419367752],[-96.613952981999276,40.811304200965616],[-96.615729934321124,40.81134095522426],[-96.617506889922851,40.811377682143558],[-96.617458567853788,40.812727791516444],[-96.619235562690463,40.812764492833004],[-96.619283848802027,40.811414381723345],[-96.619332131638572,40.810064270249541],[-96.621109057837444,40.810100940754268],[-96.621060810956223,40.811451053963488],[-96.622837776382994,40.81148769886385],[-96.62461474507991,40.81152431642424],[-96.624662920049758,40.810174199748097],[-96.626439856058326,40.810210788236887],[-96.628216795331923,40.810247349386749],[-96.629993737868105,40.810283883197513],[-96.629945670767228,40.811634005064391],[-96.631722652520409,40.811670513263593],[-96.633499637531557,40.811706994122126],[-96.635276625798269,40.811743447639849],[-96.635324585027917,40.810393320593889],[-96.637101540590152,40.810429745046875],[-96.638878499402807,40.81046614216006],[-96.640655461463467,40.810502511933294],[-96.642432426769673,40.810538854366413],[-96.642384611371838,40.811888988299749],[-96.644161615879739,40.811925305111245],[-96.645938623628595,40.811961594581057],[-96.647715634615949,40.811997856709063],[-96.64776334213731,40.81064771762378],[-96.649540320401414,40.810683950695072],[-96.649492648839384,40.8120340914951],[-96.651269666296443,40.81207029893902],[-96.651222027462794,40.813420441089569]]]]}},
{"type":"Feature","properties":{"band":45},"geometry":{"type":"MultiPolygon","coordinates":[[[[-96.725999534251969,40.810865892783326],[-96.726045653072958,40.80951567875195],[-96.72782269937025,40.809550705376935],[-96.72777661651449,40.810900921066043],[-96.727730530532725,40.812251136395147],[-96.729507651889165,40.812286138988632],[-96.729553701903043,40.810935922003019],[-96.731330790415157,40.810970895594103],[-96.733107882048444,40.81100584183914],[-96.73488497680043,40.81104076073801],[-96.734839034691717,40.812390982685422],[-96.736616168528855,40.812425875889318],[-96.738393305480088,40.812460741745475],[-96.738439175650825,40.811110516496676],[-96.740216279744359,40.811145353356189],[-96.740170445542944,40.812495580253746],[-96.741947588715036,40.812530391414008],[-96.743724734993904,40.812565175226091],[-96.743678969627553,40.813915405057905],[-96.745456154983259,40.813950163166645],[-96.745410422487268,40.815300394284044],[-96.747187646920295,40.815335126686783],[-96.74896487445325,40.815369831738366],[-96.749010534998675,40.814019597334806],[-96.750787729653524,40.81405427339395],[-96.752564927403199,40.814088922102947],[-96.752519338809307,40.815439159787481],[-96.754296575627507,40.81547378278475],[-96.75425101991955,40.816824021748808],[-96.752473747122778,40.81678939711292],[-96.750696477418899,40.816754745124165],[-96.748919210810328,40.81672006578269],[-96.748873544069639,40.81807029946777],[-96.747096244578543,40.818035591131135],[-96.747141947299511,40.816685359088602],[-96.745364686888877,40.81665062504208],[-96.745318948187872,40.818000855440758],[-96.743541654900071,40.817966092396773],[-96.741764364717554,40.817931301999316],[-96.73998707764278,40.817896484248529],[-96.738209793678195,40.81786163914456],[-96.738255676296973,40.816511415334219],[-96.736478431423819,40.816476544527511],[-96.736524346906663,40.815126322007799],[-96.734747141124487,40.815091425501009],[-96.734701189665486,40.816441646369178],[-96.732923951024375,40.816406720859362],[-96.731146715502959,40.816371767998191],[-96.731192738913578,40.815021550436995],[-96.729415542489718,40.814986571880048],[-96.727638349190158,40.814951565973324],[-96.725861159017356,40.814916532716964],[-96.725815027681108,40.81626674530802],[-96.725768893215431,40.817616957538974],[-96.723991634219914,40.817581893614467],[-96.722214378356483,40.817546802338008],[-96.720437125627598,40.817511683709746],[-96.718659876035673,40.817476537729817],[-96.71861359452339,40.818826742955196],[-96.716836312092241,40.81879156795916],[-96.716882629583154,40.817441364398377],[-96.715105386272469,40.817406163715553],[-96.715151736597505,40.816055961460187],[-96.715198083778503,40.814705758844319],[-96.713420915561088,40.814670534144433],[-96.713374532406817,40.816020735093232],[-96.713328146106079,40.817370935681481],[-96.711550909086398,40.81733568029631],[-96.711504483661031,40.818685878855511],[-96.709727213812812,40.818650594449601],[-96.70968074925797,40.820000790978334],[-96.707903446581724,40.819965477549175],[-96.707856942892505,40.821315672045991],[-96.70607960738873,40.821280329591076],[-96.706033064560259,40.822630522054531],[-96.705986518574392,40.823980714157152],[-96.704209114256855,40.823945341000034],[-96.70416252912419,40.825295531067809],[-96.702385091977888,40.825260128878561],[-96.702338467693551,40.826610316910049],[-96.700560997718981,40.826574885686128],[-96.698783530909878,40.82653942710305],[-96.698830227176103,40.825189242426141],[-96.69705279952548,40.825153758163268],[-96.695275375044943,40.825118246542793],[-96.693497953736951,40.825082707564867],[-96.691720535603949,40.825047141229646],[-96.691673695376863,40.826397319181886],[-96.689896244431651,40.826361723805086],[-96.68984936503486,40.827711899711453],[-96.68980248245775,40.829062075256353],[-96.688024962706606,40.829026449149637],[-96.687978040952245,40.830376622647151],[-96.686200488387684,40.830340967492496],[-96.686153527451197,40.831691138941181],[-96.684375942073714,40.831655454736072],[-96.684328941950241,40.833005624134508],[-96.682551323760336,40.832969910876415],[-96.680773708761507,40.832934170254106],[-96.680726633443143,40.834284335909594],[-96.67894898563506,40.834248566230656],[-96.67717134102314,40.834212769186486],[-96.67539369960987,40.834176944777234],[-96.673616061397638,40.834141093003034],[-96.673568838866245,40.835491251518405],[-96.671791167853328,40.835455370681608],[-96.670013500046565,40.835419462478875],[-96.670060794586121,40.834069307360409],[-96.66828316599171,40.834033373492247],[-96.668235835448442,40.83538352691032],[-96.668188501694118,40.836733679966066],[-96.669966202298397,40.836769617235063],[-96.669918901341362,40.838119771628989],[-96.66814116472851,40.838083832659457],[-96.666363431327184,40.838047866321673],[-96.664585701139856,40.838011872615795],[-96.66280797416897,40.837975851541948],[-96.662855419158873,40.836625703957885],[-96.66290286093016,40.835275556011275],[-96.661125209190899,40.835239510980941],[-96.661172683746528,40.833889364377335],[-96.661220155081608,40.832539217411131],[-96.65944257856566,40.832503148429339],[-96.657665005272463,40.832467052085192],[-96.657712545382168,40.831116908171111],[-96.657760082266947,40.82976676389432],[-96.655982584190696,40.829730643606489],[-96.655935011311257,40.831080786174056],[-96.655887435204448,40.832430928378812],[-96.655839855870013,40.833781070220773],[-96.654062253030332,40.83374491744167],[-96.654014634466293,40.835095057210097],[-96.655792273307711,40.835131211699931],[-96.65574468751727,40.836481352816293],[-96.65752236559122,40.836517481650972],[-96.659300046891076,40.836553583119567],[-96.661077731414451,40.836589657221914],[-96.661030250416943,40.837939803100284],[-96.659252529886231,40.837903727290936],[-96.65920500965764,40.839253871099643],[-96.659157486205046,40.840604014545647],[-96.657379696876561,40.840567907952],[-96.65733213418531,40.841918049326821],[-96.657284568267158,40.843268190338854],[-96.65550671013456,40.843232052955599],[-96.655459104970177,40.844582191894943],[-96.653681214048405,40.844546025428052],[-96.651903326358948,40.844509831587615],[-96.650125441904223,40.844473610373747],[-96.65017315512425,40.843123476571911],[-96.648395309924751,40.843087229699854],[-96.646617467964631,40.843050955455951],[-96.646665249978696,40.841700824722409],[-96.648443055923465,40.841737097249997],[-96.650220865107343,40.841773342407031],[-96.650268571853772,40.840423207879105],[-96.65031627536375,40.839073072988128],[-96.650363975637561,40.837722937734121],[-96.650411672675418,40.836372802117069],[-96.652189341056925,40.836409013049199],[-96.652236998855457,40.835058875355742],[-96.652284653420963,40.833708737299325],[-96.652332304753742,40.832358598879978],[-96.650554744375924,40.832322393087821],[-96.650602428472553,40.830972256018725],[-96.650650109334492,40.82962211858662],[-96.650697786961985,40.828271980791513],[-96.650745461355314,40.826921842633425],[-96.648968048182226,40.826885616337108],[-96.649015755327966,40.825535479530231],[-96.649063459237567,40.824185342360323],[-96.650840800440363,40.824221565228314],[-96.652618144876598,40.824257760742427],[-96.652570512935085,40.825607901339303],[-96.654347896586742,40.825644071210938],[-96.654395492543827,40.824293928902513],[-96.654443085272348,40.822943786231249],[-96.656220400185916,40.822979925326969],[-96.65799771832539,40.823016037069671],[-96.65795019756159,40.824366183160009],[-96.659727554907235,40.824402269257149],[-96.66150491547414,40.824438327999673],[-96.663282279259874,40.824474359387459],[-96.663234863228624,40.825824510234213],[-96.665012266216664,40.825860515970888],[-96.666789672418901,40.825896494351241],[-96.66683701647807,40.824546340098195],[-96.666884357325742,40.823196185482793],[-96.668661694769355,40.823232133104334],[-96.668708996424215,40.82188197642553],[-96.670486301094897,40.821917894993277],[-96.672263608971733,40.821953786208127],[-96.674040920052278,40.821989650069973],[-96.674088110559765,40.820639487933654],[-96.674135297866229,40.819289325435257],[-96.675912540190311,40.819325158552346],[-96.677689785712772,40.819360964318712],[-96.679467034431113,40.81939674273422],[-96.679514110610427,40.818046574790571],[-96.681291326546315,40.81808232416325],[-96.68124428634296,40.819432493798715],[-96.683021541445839,40.819468217512068],[-96.684798799737322,40.819503913874129],[-96.686576061214978,40.819539582884765],[-96.68662299348901,40.818189408181603],[-96.68840022217347,40.818225048154005],[-96.688447115289506,40.816874871402703],[-96.690224311180287,40.816910482339409],[-96.690177454038988,40.818260660776005],[-96.691954689083133,40.818296246047431],[-96.69200151024944,40.816946065926849],[-96.693778712494549,40.81698162216486],[-96.69555591791314,40.817017151053328],[-96.697333126502812,40.817052652592096],[-96.697379836574058,40.815702467066124],[-96.699157012358839,40.815737939576294],[-96.699203683290605,40.814387752010461],[-96.700980826269998,40.81442319549457],[-96.702757972412655,40.814458611631132],[-96.70280456824068,40.813108420350837],[-96.704581681574808,40.813143807464982],[-96.704628238275262,40.811793614149074],[-96.702851160908097,40.811758228709607],[-96.701074086701269,40.811722815925044],[-96.699297015657237,40.811687375795536],[-96.699343677092614,40.810337187146473],[-96.697566645177588,40.810301721350633],[-96.697519947778446,40.811651908321231],[-96.695742883067297,40.811616413502243],[-96.695789616429991,40.810266228211425],[-96.694012590852225,40.810230707729012],[-96.692235568446762,40.810195159903472],[-96.690458549216018,40.81015958473499],[-96.690411707964159,40.811509764978702],[-96.690364863534882,40.81285994486101],[-96.688587775553728,40.812824338979759],[-96.688634655947993,40.811474160782467],[-96.686857607111648,40.811438529242267],[-96.686904520288408,40.810088352369732],[-96.688681533162409,40.810123982223701],[-96.68872840719726,40.808773803303446],[-96.690505387290727,40.808809404129853],[-96.692282370561102,40.808844977614754],[-96.694059357005955,40.808880523757978],[-96.694106119987609,40.807530339425711],[-96.695883073646073,40.807565856546205],[-96.695929797499957,40.806215670171788],[-96.694152879797485,40.806180154732175],[-96.694199636435812,40.804829969677378],[-96.69424638990283,40.803479784261327],[-96.696023235700608,40.80351529633942],[-96.696069950047871,40.802165108881475],[-96.696116661226739,40.800814921062347],[-96.696163369237468,40.799464732882072],[-96.694386631278476,40.799429225845778],[-96.694433372062718,40.798079038984802],[-96.696210074080298,40.798114544340621],[-96.697986779265563,40.798150022364844],[-96.698033445001528,40.796799831783147],[-96.69981011741254,40.796835280797794],[-96.699856744046528,40.795485088177266],[-96.698080107572522,40.795449640840374],[-96.698126766978788,40.794099449536517],[-96.698173423220553,40.792749257871598],[-96.699949987827821,40.792784701853222],[-96.699996604975624,40.791434508149699],[-96.700043218961866,40.790084314085185],[-96.700089829786748,40.788734119659708],[-96.700136437450567,40.787383924873239],[-96.700183041953537,40.786033729725808],[-96.701959430097133,40.786069138000094],[-96.702005995521716,40.784718940815772],[-96.700229643295913,40.784683534217407],[-96.700276241477937,40.783333338348051],[-96.702052557788349,40.783368743270579],[-96.702099116897315,40.782018545364473],[-96.702145672848829,40.780668347097517],[-96.702192225643159,40.77931814846967],[-96.702238775280534,40.777967949480967],[-96.70401495111048,40.778003320388081],[-96.70396843737899,40.779353521051085],[-96.703921920493002,40.780703721353277],[-96.703875400452233,40.782053921294683],[-96.703828877256456,40.783404120875268],[-96.705605199879813,40.783439471161998],[-96.705558709444631,40.784789672055041],[-96.705512215856402,40.78613987258732],[-96.705465719114855,40.787490072758835],[-96.705419219219777,40.788840272569601],[-96.705372716170899,40.790190472019567],[-96.705326209967993,40.791540671108763],[-96.707102751277233,40.791576004110269],[-96.707149221551887,40.790225803348754],[-96.708925730084488,40.790261107353253],[-96.708879295738328,40.791611309785793],[-96.708832858242772,40.792961511857676],[-96.710609441784442,40.792996791876845],[-96.710563037072845,40.794346995257932],[-96.710516629213771,40.795697198278418],[-96.710470218206979,40.797047400938311],[-96.710423804052255,40.798397603237589],[-96.71220053449116,40.798432862603896],[-96.71215415313182,40.799783066211404],[-96.710377386749329,40.799747805176253],[-96.710330966297988,40.801098006754287],[-96.710284542697963,40.802448207971707],[-96.710238115949025,40.803798408828477],[-96.712014990176854,40.803833674870553],[-96.713791867551393,40.803868913574576],[-96.713745509560169,40.805219117407646],[-96.713699148424411,40.806569320880193],[-96.711922199140318,40.806534078840471],[-96.711875798901346,40.807884280284554],[-96.71182939551494,40.809234481368051],[-96.713606416718321,40.809269726743736],[-96.713560046147506,40.81061992913471],[-96.713513672431191,40.811970131165154],[-96.715290768709352,40.812005352531138],[-96.715337106459685,40.810655148833838],[-96.717114169914936,40.810690341188192],[-96.717160468558447,40.809340135464915],[-96.718937499190304,40.809375298810139],[-96.71898375873181,40.808025091062333],[-96.720760756539804,40.808060225400943],[-96.720714532960116,40.809410434811596],[-96.722491569865454,40.809445543469138],[-96.722445379114745,40.810795754181143],[-96.722399185230714,40.812145964532938],[-96.724176297201069,40.812181049167158],[-96.724222455117911,40.810830837154967],[-96.725999534251969,40.810865892783326]],[[-96.686529125757232,40.82088975722634],[-96.688306426398,40.820925400572108],[-96.688353325876378,40.819575224543819],[-96.686576061214978,40.819539582884765],[-96.686529125757232,40.82088975722634]],[[-96.693591552686755,40.822382347210151],[-96.691814206526132,40.822346784240928],[-96.691767372653615,40.823696962915982],[-96.69354475479922,40.823732527568175],[-96.693591552686755,40.822382347210151]]],[[[-96.759673749301584,40.814227243434765],[-96.757896539196906,40.81419270412772],[-96.75794201677661,40.812842461172515],[-96.759719190906893,40.812876998844956],[-96.759673749301584,40.814227243434765]]],[[[-96.685221399320938,40.807352343718428],[-96.686998337096085,40.807387997540047],[-96.686951430283131,40.808738175135666],[-96.685174456550783,40.808702519626642],[-96.683397486002633,40.808666836776531],[-96.68344446472976,40.807316662557007],[-96.685221399320938,40.807352343718428]]],[[[-96.638878499402807,40.81046614216006],[-96.637101540590152,40.810429745046875],[-96.635324585027917,40.810393320593889],[-96.635276625798269,40.811743447639849],[-96.633499637531557,40.811706994122126],[-96.631722652520409,40.811670513263593],[-96.629945670767228,40.811634005064391],[-96.629993737868105,40.810283883197513],[-96.628216795331923,40.810247349386749],[-96.626439856058326,40.810210788236887],[-96.626487991807068,40.808860669465332],[-96.628264895126776,40.808897228885023],[-96.630041801708828,40.808933760966923],[-96.631818711550778,40.808970265710876],[-96.631866736179617,40.80762014138903],[-96.633643613326839,40.807656617068673],[-96.633595624650212,40.809006743116754],[-96.635372541004699,40.809043193184408],[-96.637149460611781,40.809079615913681],[-96.638926383469041,40.809116011304447],[-96.638878499402807,40.81046614216006]]],[[[-96.621109057837444,40.810100940754268],[-96.622885987308649,40.810137583920508],[-96.622934194964415,40.808787468613176],[-96.624711091752147,40.808824082708],[-96.624662920049758,40.810174199748097],[-96.62461474507991,40.81152431642424],[-96.622837776382994,40.81148769886385],[-96.621060810956223,40.811451053963488],[-96.621109057837444,40.810100940754268]]],[[[-96.617506889922851,40.811377682143558],[-96.615729934321124,40.81134095522426],[-96.613952981999276,40.811304200965616],[-96.612176032959752,40.811267419367752],[-96.612127603019701,40.81261752352259],[-96.610350621308442,40.81258071284374],[-96.608573642884608,40.812543874824676],[-96.608622144737382,40.811193774155022],[-96.606845205559409,40.811156910540404],[-96.606796667750643,40.812507009465548],[-96.605019695908993,40.812470116766512],[-96.604971118849761,40.813820213581117],[-96.606748126649592,40.813857108026035],[-96.606699582255956,40.815207206221871],[-96.608476629309195,40.815244075070247],[-96.608525137741964,40.813893975129758],[-96.610302152124461,40.813930814892117],[-96.61207916979464,40.813967627312977],[-96.613856190750084,40.814004412392194],[-96.613807790201392,40.815354517558895],[-96.615584850401518,40.815391277035822],[-96.617361913882291,40.815428009169494],[-96.617410242507006,40.814077900525085],[-96.619187273303623,40.814114603578496],[-96.620964307375758,40.814151279289661],[-96.622741344720964,40.814187927658445],[-96.624518385336827,40.814224548684713],[-96.624470200563096,40.815574664268986],[-96.626247280410553,40.815611259684317],[-96.62619912833415,40.816961376636456],[-96.627976247413699,40.8169979464382],[-96.627928128039514,40.818348064757018],[-96.626150972991454,40.818311493224691],[-96.624373821209957,40.818274894345663],[-96.622596672697412,40.818238268120098],[-96.622644899976336,40.816888154996917],[-96.620867790702945,40.816851503159405],[-96.620819527456277,40.81820161454813],[-96.619042385488996,40.818164933629902],[-96.61726524679797,40.818128225365584],[-96.615488111385673,40.818091489755297],[-96.615439736956148,40.819441595568549],[-96.61366256885583,40.819404830872742],[-96.61371097925452,40.818054726799197],[-96.611933850406928,40.818017936497419],[-96.611885404039342,40.819368038829971],[-96.610108242509114,40.819331219440407],[-96.608331084267604,40.819294372704142],[-96.608282562671803,40.820644471186228],[-96.606505371750814,40.820607595358517],[-96.604728184123672,40.820570692183146],[-96.602950999792796,40.820533761660243],[-96.602999629299603,40.819183668416855],[-96.601222484237226,40.819146712295392],[-96.599445342475747,40.819109728828003],[-96.599494040618637,40.81775963871857],[-96.597716938127348,40.817722629656721],[-96.597668204017566,40.819072718014816],[-96.595891068865143,40.819035679856],[-96.595939838941561,40.817685593250516],[-96.594162743063677,40.817648529500119],[-96.594211545796099,40.816298444283383],[-96.59426034521843,40.814948358701479],[-96.594309141330896,40.813598272754433],[-96.596086129324263,40.813635331243518],[-96.596134886170489,40.812285243177698],[-96.596183639709821,40.810935154746801],[-96.597960559098979,40.810972182390941],[-96.598009273379645,40.809622091842783],[-96.599786160120743,40.809659090398135],[-96.599737481792374,40.811009182697205],[-96.601514407787533,40.81104615566543],[-96.601563050163378,40.809696061616734],[-96.603339943505105,40.809733005498458],[-96.605116840143495,40.809769922043124],[-96.605165407319262,40.808419824134376],[-96.605213971201053,40.80706972586092],[-96.606990799234381,40.80710661157714],[-96.606942271301023,40.8084567115962],[-96.606893740076117,40.80980681125061],[-96.608670643300542,40.80984367312076],[-96.610447549814324,40.809880507653446],[-96.612224459615049,40.809917314848505],[-96.612272882985849,40.808567209964821],[-96.614049760119201,40.808603988081593],[-96.615826640534351,40.808640738861754],[-96.615778289067549,40.809990847225151],[-96.617555208714464,40.810027572406455],[-96.617603524228883,40.808677462305127],[-96.619380411200368,40.808714158411583],[-96.619332131638572,40.810064270249541],[-96.619283848802027,40.811414381723345],[-96.619235562690463,40.812764492833004],[-96.617458567853788,40.812727791516444],[-96.617506889922851,40.811377682143558]]],[[[-96.634940820089653,40.82119432678229],[-96.636718063380656,40.821230765027451],[-96.63849530992411,40.821267175922458],[-96.640272559717545,40.821303559467189],[-96.640224682387924,40.822653688773819],[-96.642001971406714,40.82269004668855],[-96.643779263670893,40.822726377251421],[-96.643827069044661,40.821376244505181],[-96.645604328573469,40.821412545998157],[-96.645556559178004,40.82276268046229],[-96.647333857925616,40.822798956320973],[-96.6491111599113,40.822835204827356],[-96.649063459237567,40.824185342360323],[-96.647286121270639,40.824149092138576],[-96.647238381377377,40.825499227593077],[-96.645461010665343,40.825462948301016],[-96.645413231547636,40.82681308167561],[-96.643635828090993,40.826776773310748],[-96.643683643194308,40.825426641654211],[-96.641906278966729,40.825390307652818],[-96.641954126809537,40.824040177352344],[-96.640176801810497,40.824003817717077],[-96.638399480059519,40.823967430728793],[-96.636622161559018,40.82393101638764],[-96.634844846311452,40.823894574693746],[-96.633067534319252,40.823858105647268],[-96.631290225584863,40.823821609248355],[-96.631338286059744,40.822471488927093],[-96.629561016564324,40.822434966904147],[-96.629609109755521,40.82108484794739],[-96.629657199684544,40.819734728626841],[-96.629705286351665,40.818384608942516],[-96.629753369757111,40.8170344888944],[-96.631530495361929,40.817071004004916],[-96.631482447925478,40.818421125781022],[-96.63143439722981,40.819771247193422],[-96.633211598034535,40.81980773841159],[-96.634988802096316,40.819844202281203],[-96.634940820089653,40.82119432678229]],[[-96.633115558815149,40.822507983599024],[-96.633163580053491,40.821157861187139],[-96.631386343274642,40.82112136824211],[-96.631338286059744,40.822471488927093],[-96.633115558815149,40.822507983599024]]]]}},
{"type":"Feature","properties":{"band":60},"geometry":{"type":"MultiPolygon","coordinates":[[[[-96.795218595513703,40.814912285719494],[-96.793441324218705,40.814878293455017],[-96.793486082265531,40.813528018053276],[-96.791708849985767,40.813494000045431],[-96.791664055960069,40.814844273837103],[-96.78988679074024,40.814810226865916],[-96.789841957694634,40.816160498688532],[-96.789797121607563,40.817510770153419],[-96.789752282478773,40.818861041260568],[-96.787974912350336,40.818826962097951],[-96.786197545266305,40.818792855578437],[-96.786242456366281,40.817442587698231],[-96.784465128314309,40.817408455437366],[-96.784510072350528,40.816058188814637],[-96.782732783330147,40.816024030815093],[-96.782687803311362,40.817374295821189],[-96.780910481359854,40.817340108849805],[-96.780955497361006,40.815989845461651],[-96.779178214445523,40.815955632754438],[-96.777400934586126,40.815921392693603],[-96.7774460194927,40.814571132186991],[-96.775668778671047,40.814536866394405],[-96.77562365778526,40.815887125279261],[-96.775578533838512,40.817237383805882],[-96.775533406830561,40.818587641974233],[-96.773756061125425,40.818553343960296],[-96.771978718484178,40.818519018590528],[-96.772023917459578,40.817168763669805],[-96.770246613868025,40.817134412570141],[-96.76846931334498,40.817100034116223],[-96.768514581215925,40.815749782089782],[-96.768559846016146,40.814399529704829],[-96.766782620522534,40.814365127153295],[-96.766737319744294,40.815715377910038],[-96.764960061345789,40.815680946377633],[-96.764914721514174,40.817031195146242],[-96.764869378606718,40.818381443556198],[-96.763092051321422,40.818346981409462],[-96.763137430211287,40.816996734630443],[-96.761360141986671,40.816962246760944],[-96.759582856842755,40.816927731537895],[-96.759537405988766,40.818277975051188],[-96.761314727114623,40.818312491907754],[-96.761269309161634,40.819662736695797],[-96.759491952051377,40.819628218205658],[-96.759446495030403,40.820978461001275],[-96.757669105017172,40.820943913520196],[-96.757714598024748,40.819593672359517],[-96.755937247084148,40.819559099157523],[-96.755982772989569,40.818208859274094],[-96.756028295806757,40.816858619031692],[-96.75425101991955,40.816824021748808],[-96.754296575627507,40.81547378278475],[-96.752519338809307,40.815439159787481],[-96.752564927403199,40.814088922102947],[-96.750787729653524,40.81405427339395],[-96.749010534998675,40.814019597334806],[-96.74896487445325,40.815369831738366],[-96.747187646920295,40.815335126686783],[-96.745410422487268,40.815300394284044],[-96.745456154983259,40.813950163166645],[-96.743678969627553,40.813915405057905],[-96.743724734993904,40.812565175226091],[-96.741947588715036,40.812530391414008],[-96.740170445542944,40.812495580253746],[-96.740216279744359,40.811145353356189],[-96.738439175650825,40.811110516496676],[-96.738393305480088,40.812460741745475],[-96.736616168528855,40.812425875889318],[-96.734839034691717,40.812390982685422],[-96.73488497680043,40.81104076073801],[-96.733107882048444,40.81100584183914],[-96.731330790415157,40.810970895594103],[-96.729553701903043,40.810935922003019],[-96.729507651889165,40.812286138988632],[-96.727730530532725,40.812251136395147],[-96.72777661651449,40.810900921066043],[-96.72782269937025,40.809550705376935],[-96.729599748793319,40.809585704657465],[-96.731376801339735,40.809620676593376],[-96.731422809143396,40.808270457232815],[-96.733199828847205,40.808305400170191],[-96.734976851669259,40.808340315763978],[-96.736753877607114,40.808375204014041],[-96.73853090665834,40.808410064920238],[-96.738485042710167,40.809760290888249],[-96.740262110836795,40.809795126099083],[-96.742039182072148,40.809829933964451],[-96.742084974091142,40.808479704700481],[-96.743862012467844,40.808514483574235],[-96.743816256413808,40.809864714484256],[-96.745593333859333,40.809899467658354],[-96.74554761066905,40.811249699853796],[-96.74732472718388,40.811284427325567],[-96.747370414406291,40.809934193486598],[-96.749147498052238,40.80996889196885],[-96.750924584794745,40.810003563104978],[-96.75087896950879,40.811353800227117],[-96.752656095314009,40.811388445656632],[-96.752610512904681,40.812738684059333],[-96.754387677773082,40.812773303779565],[-96.754433224211141,40.811423063738445],[-96.754478767559718,40.810072823338309],[-96.756255863577294,40.810107412435222],[-96.756301367869995,40.808757170039087],[-96.758078431007547,40.808791730153615],[-96.758123896249231,40.807441485762901],[-96.759900926506276,40.807476016897567],[-96.761677959844775,40.807510520687863],[-96.761632566532626,40.808860768345987],[-96.761587170141212,40.810211015645351],[-96.763364278491466,40.810245495354749],[-96.763318914990521,40.811595743927271],[-96.763273548412286,40.812945992141096],[-96.765050731782523,40.812980447764524],[-96.765096062388096,40.811630197920017],[-96.766873212860531,40.811664624564123],[-96.766827918227875,40.813014876037983],[-96.768605107745898,40.813049276961372],[-96.770382300334177,40.81308365053453],[-96.770427523020302,40.811733395805796],[-96.77220468270275,40.811767740403099],[-96.772249866350123,40.810417483690514],[-96.772295046932584,40.809067226619575],[-96.774072137739779,40.80910154061948],[-96.7758492316092,40.809135827272613],[-96.775804122964928,40.810486087590405],[-96.777581255863595,40.810520348518146],[-96.777536180131207,40.81187061009927],[-96.779313352059603,40.81190484529894],[-96.779268309243946,40.813255108142208],[-96.781045520202525,40.813289317611165],[-96.781090527043389,40.811939053148862],[-96.782867705080122,40.811973233648899],[-96.784644886167385,40.812007386798932],[-96.784689818009852,40.810657118744544],[-96.784734746804475,40.809306850332256],[-96.784779672551466,40.80795658156206],[-96.786556748774913,40.807990702516861],[-96.788333828043307,40.80802479612526],[-96.788288974232941,40.809375068124062],[-96.790066092512504,40.809409135998266],[-96.791843213832379,40.809443176524496],[-96.79179842892168,40.81079345138911],[-96.793575589251006,40.810827466177081],[-96.793530837276222,40.812177742293976],[-96.795308036615438,40.812211731341037],[-96.79526331758143,40.813562008709027],[-96.795218595513703,40.814912285719494]],[[-96.775759011260647,40.811836347549978],[-96.773981845450351,40.811802057651214],[-96.773936694711722,40.813152315629637],[-96.775713896496114,40.813186607151316],[-96.775759011260647,40.811836347549978]],[[-96.759673749301584,40.814227243434765],[-96.759719190906893,40.812876998844956],[-96.75794201677661,40.812842461172515],[-96.757896539196906,40.81419270412772],[-96.759673749301584,40.814227243434765]]],[[[-96.791619258895551,40.816194547271124],[-96.791664055960069,40.814844273837103],[-96.793441324218705,40.814878293455017],[-96.793396563135488,40.816228568499142],[-96.791619258895551,40.816194547271124]]],[[[-96.794771207931518,40.828415036159114],[-96.792993576711368,40.828381027803573],[-96.792948785251582,40.829731299271437],[-96.792903990752862,40.831081570381642],[-96.7946816939873,40.831115581956162],[-96.794636932460179,40.832465854318301],[-96.792859193214952,40.832431841134188],[-96.792814392637638,40.833782111529068],[-96.792769589020665,40.835132381566261],[-96.79272478236382,40.836482651245795],[-96.792679972666875,40.837832920567628],[-96.79263515992956,40.839183189531781],[-96.790857243634321,40.839149140922054],[-96.790812391831224,40.840499407917228],[-96.790767536984887,40.841849674554638],[-96.792545525332955,40.841883726386975],[-96.792500703473181,40.843233994278016],[-96.790722679095026,40.843199940834275],[-96.788944657760595,40.843165860010103],[-96.788899760794749,40.844516124319206],[-96.788854860782479,40.845866388270458],[-96.787076770427674,40.845832276837797],[-96.785298683121951,40.845798138022381],[-96.785343655202951,40.844447877300645],[-96.783565606982762,40.844413712719309],[-96.783610612044072,40.843063453256235],[-96.783655614051895,40.841713193435133],[-96.785433590211369,40.841747354783259],[-96.785478553139228,40.840397092987615],[-96.783700613006474,40.840362933255989],[-96.781922675926708,40.840328746147065],[-96.781967707852289,40.838978487227642],[-96.782012736722663,40.83762822795012],[-96.782057762538031,40.83627796831454],[-96.780279936577784,40.83624375868532],[-96.780324995354889,40.8348935003105],[-96.782102785298648,40.834927708320869],[-96.782147805004755,40.833577447969155],[-96.783925561988752,40.833611626990042],[-96.783970542628751,40.832261364662827],[-96.784015520217139,40.83091110197762],[-96.782237835254364,40.830876926191507],[-96.782282845798321,40.829526664765609],[-96.780505199896069,40.82949246322994],[-96.780550243390735,40.828142203064516],[-96.780595283829626,40.826791942540979],[-96.782372857725761,40.826826140839678],[-96.782417859109714,40.82547587833966],[-96.784195400059303,40.825510047657041],[-96.784240362393177,40.824159783181976],[-96.786017870395781,40.824193923520525],[-96.786062793684465,40.822843657071836],[-96.787840268739586,40.822877768434076],[-96.787795381446145,40.824228036497153],[-96.789572895541824,40.824262122111705],[-96.791350412680373,40.824296180364058],[-96.791305594337643,40.825646451294304],[-96.793083150515031,40.825680483794883],[-96.793038365132432,40.827030755978051],[-96.794815960349098,40.827064762724198],[-96.794771207931518,40.828415036159114]]],[[[-96.75242815234337,40.818139634079252],[-96.752382554470842,40.819489870686468],[-96.754159899232036,40.81952449859979],[-96.754114334252023,40.820874736486708],[-96.752336953504965,40.820840106934583],[-96.750559575851497,40.820805450025709],[-96.748782201294048,40.82077076576023],[-96.748827874230969,40.819420532793607],[-96.747050538757151,40.819385822814354],[-96.747004829835092,40.820736054138273],[-96.745227461477029,40.820701315159994],[-96.745181713466707,40.822051544480537],[-96.743404312224868,40.82201677650071],[-96.743450096222304,40.820666548825507],[-96.741672734073347,40.820631755134976],[-96.739895375032631,40.820596934088535],[-96.738118019102544,40.820562085686312],[-96.736340666285557,40.820527209928443],[-96.736386591113515,40.819176988487833],[-96.734609277395535,40.819142087026215],[-96.73283196679526,40.819107158210521],[-96.731054659315134,40.819072202040886],[-96.73110068897023,40.817721985199491],[-96.732877960469779,40.817756939714847],[-96.732923951024375,40.816406720859362],[-96.734701189665486,40.816441646369178],[-96.734747141124487,40.815091425501009],[-96.736524346906663,40.815126322007799],[-96.736478431423819,40.816476544527511],[-96.738255676296973,40.816511415334219],[-96.738209793678195,40.81786163914456],[-96.73998707764278,40.817896484248529],[-96.741764364717554,40.817931301999316],[-96.743541654900071,40.817966092396773],[-96.745318948187872,40.818000855440758],[-96.745364686888877,40.81665062504208],[-96.747141947299511,40.816685359088602],[-96.747096244578543,40.818035591131135],[-96.748873544069639,40.81807029946777],[-96.748919210810328,40.81672006578269],[-96.750696477418899,40.816754745124165],[-96.752473747122778,40.81678939711292],[-96.75242815234337,40.818139634079252]]],[[[-96.778005868960662,40.851062322341875],[-96.776227652780207,40.851028040126494],[-96.774449439664394,40.850993730524003],[-96.774494640212069,40.849643480955429],[-96.776272817285275,40.8496777889345],[-96.778050997422881,40.849712069527733],[-96.778096122823143,40.848361816355336],[-96.778141245161621,40.847011562824676],[-96.779919356282392,40.847045812790441],[-96.779874269982102,40.848396067941813],[-96.7798291806225,40.849746322735008],[-96.779784088203357,40.85109657716999],[-96.779738992724432,40.85244683124678],[-96.779693894185485,40.853797084965365],[-96.777915602849305,40.853762826895355],[-96.777960737436217,40.852412574797754],[-96.778005868960662,40.851062322341875]]],[[[-96.774359029367488,40.853694228585951],[-96.77613731457582,40.853728541435501],[-96.777915602849305,40.853762826895355],[-96.777870465199697,40.85511307863468],[-96.777825324487154,40.856463330015721],[-96.776046964110904,40.856429041311138],[-96.774268606800248,40.856394725214244],[-96.77431381961776,40.855044477079304],[-96.774359029367488,40.853694228585951]]],[[[-96.706766436722347,40.749684331607682],[-96.706720025035025,40.751034541517697],[-96.704944563663375,40.750999231369406],[-96.704898112971478,40.752349439247126],[-96.706673610200681,40.752384751067098],[-96.708449110577121,40.752420035598647],[-96.708402728455766,40.75377024645789],[-96.706627192219088,40.753734960255883],[-96.706580771090003,40.755085169084062],[-96.708356343189351,40.755120456956554],[-96.708309954777633,40.756470667094689],[-96.706534346813186,40.756435377551611],[-96.704758741996727,40.756400060716231],[-96.702983140330687,40.75636471658872],[-96.702936641171576,40.75771492135047],[-96.702890138859416,40.759065125751455],[-96.70466581226195,40.75910047322548],[-96.704619342668352,40.760450678939058],[-96.704572869923609,40.761800884291894],[-96.702797124774875,40.761765533471085],[-96.702750613002024,40.763115736789722],[-96.704526394027525,40.763151089284023],[-96.7044799149798,40.764501293915423],[-96.704433432780206,40.765851498186095],[-96.704386947428546,40.767201702096017],[-96.70434045892452,40.768551905645197],[-96.70429396726793,40.76990210883362],[-96.704247472458505,40.771252311661307],[-96.706023471948498,40.771287646891615],[-96.705977009879987,40.772637851031185],[-96.707753048414858,40.772673160626397],[-96.707706619092122,40.774023366076712],[-96.7076601866207,40.775373571166377],[-96.705884076290076,40.775338258228224],[-96.705837604768206,40.77668846128568],[-96.70579113009471,40.7780386639824],[-96.707567312230793,40.778073980263791],[-96.707520870311825,40.779424184271491],[-96.709297091503942,40.779459474910219],[-96.709250682344376,40.780809680227769],[-96.711026942593008,40.780844945221176],[-96.710980566197691,40.782195151847375],[-96.71093418665707,40.783545358113017],[-96.712710521877128,40.783580599126509],[-96.712664175107804,40.784930806699712],[-96.714440549388016,40.784966022061354],[-96.714394235394863,40.786316230940933],[-96.714347918260572,40.787666439460111],[-96.714301597984871,40.789016647618851],[-96.714255274567549,40.79036685541714],[-96.714208948008348,40.791717062854993],[-96.714162618307043,40.793067269932386],[-96.714116285463376,40.794417476649329],[-96.714069949477107,40.795767683005792],[-96.714023610348008,40.797117889001804],[-96.715800311134345,40.797153092036041],[-96.715754004803784,40.79850329933776],[-96.715707695332341,40.799853506279071],[-96.715661382719759,40.801203712859945],[-96.71561506696581,40.802553919080403],[-96.713838222398323,40.802518709380998],[-96.713791867551393,40.803868913574576],[-96.712014990176854,40.803833674870553],[-96.710238115949025,40.803798408828477],[-96.710284542697963,40.802448207971707],[-96.710330966297988,40.801098006754287],[-96.710377386749329,40.799747805176253],[-96.71215415313182,40.799783066211404],[-96.71220053449116,40.798432862603896],[-96.710423804052255,40.798397603237589],[-96.710470218206979,40.797047400938311],[-96.710516629213771,40.795697198278418],[-96.710563037072845,40.794346995257932],[-96.710609441784442,40.792996791876845],[-96.708832858242772,40.792961511857676],[-96.708879295738328,40.791611309785793],[-96.708925730084488,40.790261107353253],[-96.707149221551887,40.790225803348754],[-96.707102751277233,40.791576004110269],[-96.705326209967993,40.791540671108763],[-96.705372716170899,40.790190472019567],[-96.705419219219777,40.788840272569601],[-96.705465719114855,40.787490072758835],[-96.705512215856402,40.78613987258732],[-96.705558709444631,40.784789672055041],[-96.705605199879813,40.783439471161998],[-96.703828877256456,40.783404120875268],[-96.703875400452233,40.782053921294683],[-96.703921920493002,40.780703721353277],[-96.70396843737899,40.779353521051085],[-96.70401495111048,40.778003320388081],[-96.702238775280534,40.777967949480967],[-96.702192225643159,40.77931814846967],[-96.702145672848829,40.780668347097517],[-96.702099116897315,40.782018545364473],[-96.702052557788349,40.783368743270579],[-96.700276241477937,40.783333338348051],[-96.700229643295913,40.784683534217407],[-96.702005995521716,40.784718940815772],[-96.701959430097133,40.786069138000094],[-96.700183041953537,40.786033729725808],[-96.700136437450567,40.787383924873239],[-96.700089829786748,40.788734119659708],[-96.698313372961337,40.788698680710532],[-96.696536919299447,40.788663214438643],[-96.696490236625095,40.79001340550802],[-96.698266726211585,40.790048873458609],[-96.700043218961866,40.790084314085185],[-96.699996604975624,40.791434508149699],[-96.699949987827821,40.792784701853222],[-96.698173423220553,40.792749257871598],[-96.698126766978788,40.794099449536517],[-96.698080107572522,40.795449640840374],[-96.699856744046528,40.795485088177266],[-96.69981011741254,40.796835280797794],[-96.698033445001528,40.796799831783147],[-96.697986779265563,40.798150022364844],[-96.696210074080298,40.798114544340621],[-96.694433372062718,40.798079038984802],[-96.694386631278476,40.799429225845778],[-96.696163369237468,40.799464732882072],[-96.696116661226739,40.800814921062347],[-96.696069950047871,40.802165108881475],[-96.696023235700608,40.80351529633942],[-96.69424638990283,40.803479784261327],[-96.694199636435812,40.804829969677378],[-96.694152879797485,40.806180154732175],[-96.695929797499957,40.806215670171788],[-96.695883073646073,40.807565856546205],[-96.694106119987609,40.807530339425711],[-96.694059357005955,40.808880523757978],[-96.692282370561102,40.808844977614754],[-96.690505387290727,40.808809404129853],[-96.68872840719726,40.808773803303446],[-96.688775278052745,40.807423624021737],[-96.690552222188529,40.807459223163335],[-96.690599053909651,40.806109041835406],[-96.688822145729148,40.806073444378555],[-96.688869010226682,40.804723264373919],[-96.687092141177629,40.804687641264252],[-96.685315275309605,40.804651990817227],[-96.683538412625055,40.804616313032973],[-96.681761553126407,40.804580607911646],[-96.681808558244484,40.803230434296921],[-96.680031737883354,40.803194703529748],[-96.67825492071276,40.803158945427064],[-96.678301994535971,40.801808774833923],[-96.676525216504587,40.801772991089472],[-96.676478106735132,40.803123159989028],[-96.676430993770282,40.804473328526662],[-96.674654147039618,40.804437514058463],[-96.672877303507036,40.804401672253896],[-96.671100463174952,40.804365803113122],[-96.669323626045824,40.804329906636255],[-96.669276366083352,40.805680068024145],[-96.667499496209714,40.805644142511163],[-96.667546792122081,40.804293982823452],[-96.665769961406141,40.804258031674863],[-96.663993133900448,40.804222053190621],[-96.663945766089057,40.805572209474086],[-96.662168905846897,40.805536201950289],[-96.662216309607416,40.80418604737087],[-96.660439488529519,40.80415001421575],[-96.658662670669159,40.80411395372542],[-96.658710143107243,40.802763802195386],[-96.656933364412836,40.802727716077833],[-96.656885856028779,40.804077865900005],[-96.656838344422312,40.805428015359496],[-96.655061497056195,40.805391898489916],[-96.653284652915175,40.805355754284264],[-96.651507812001682,40.805319582742683],[-96.65155543145184,40.80396943841474],[-96.651603047672296,40.8026192937239],[-96.649826281881147,40.802583098272649],[-96.649778629715712,40.803933241250448],[-96.649730974318132,40.805283383865294],[-96.647954139866982,40.805247157652246],[-96.646177308650678,40.805210904103696],[-96.644400480671607,40.805174623219784],[-96.642623655932255,40.805138315000654],[-96.64084683443501,40.805101979446455],[-96.640894669565867,40.803751845416485],[-96.640942501452429,40.802401711023244],[-96.639165755089138,40.802365351575745],[-96.639117887259104,40.803715484248208],[-96.637341108199081,40.803679095746439],[-96.635564332388228,40.803642679911306],[-96.633787559828988,40.803606236742979],[-96.633739580915986,40.804956363881786],[-96.631962775665869,40.804919891654379],[-96.630185973672496,40.804883392092762],[-96.63013791961076,40.806233515414533],[-96.628361084929693,40.806196986790184],[-96.628312991659271,40.807547108019499],[-96.628264895126776,40.808897228885023],[-96.626487991807068,40.808860669465332],[-96.626439856058326,40.810210788236887],[-96.624662920049758,40.810174199748097],[-96.624711091752147,40.808824082708],[-96.622934194964415,40.808787468613176],[-96.622885987308649,40.810137583920508],[-96.621109057837444,40.810100940754268],[-96.619332131638572,40.810064270249541],[-96.619380411200368,40.808714158411583],[-96.619428687487641,40.807364046209486],[-96.619476960500648,40.80601393364325],[-96.61952523023966,40.804663820712868],[-96.619573496704916,40.803313707418376],[-96.617796753519627,40.803277018257745],[-96.617845052651859,40.80192690633541],[-96.617893348508389,40.800576794048887],[-96.61967001981516,40.800613479737024],[-96.619718276460659,40.799263365350185],[-96.621494915104591,40.799300021974176],[-96.62154313254392,40.797949905488458],[-96.623319738524486,40.797986533050768],[-96.623367916762504,40.796636414467606],[-96.623416091733148,40.795286295520491],[-96.625192629120789,40.795322892291601],[-96.626969169773147,40.795359461738116],[-96.628745713687763,40.795396003859906],[-96.628793777610625,40.794045879356744],[-96.630570288857697,40.794082392425551],[-96.630522260862207,40.795432518656831],[-96.632298811294064,40.795469006128727],[-96.632346803361912,40.794118878170615],[-96.632394792175049,40.792768749848932],[-96.634171274008537,40.792805206544664],[-96.634123321120867,40.794155336591821],[-96.63589984213209,40.794191767688993],[-96.635851921920263,40.795541899096875],[-96.637628482109747,40.795578304592837],[-96.63940504554688,40.795614682763208],[-96.639452893901705,40.794264547910714],[-96.641229424655222,40.794300897034965],[-96.643005958651301,40.794337218834613],[-96.643053731907969,40.792987080179493],[-96.644830233217235,40.793023372936688],[-96.646606737763946,40.793059638370295],[-96.64655903636141,40.794409780459553],[-96.648335580070594,40.794446020284546],[-96.648383245545659,40.793095876480152],[-96.650159756559987,40.793132087266123],[-96.650112127012605,40.794482232784368],[-96.651888677185028,40.794518417958869],[-96.65193627080447,40.793168270728081],[-96.65371278827665,40.793204426865856],[-96.655489308974154,40.793240555679326],[-96.657265832894495,40.793276657168327],[-96.659042360035272,40.79331273133274],[-96.658994910130104,40.794662885400825],[-96.660771476418063,40.794698933946584],[-96.660818890394054,40.793348778172394],[-96.662595423968398,40.793384797687168],[-96.662642798801826,40.79203463984576],[-96.664419299662057,40.792070630332056],[-96.664371960755872,40.793420789876912],[-96.666148500754048,40.793456754741477],[-96.667925043960494,40.793492692280729],[-96.669701590372782,40.793528602494526],[-96.669654356046422,40.79487876677981],[-96.671430941592774,40.794914651366341],[-96.671383739995875,40.7962648169879],[-96.673160364676789,40.796300675944522],[-96.674936992556752,40.796336507572661],[-96.67498412228673,40.794986338558168],[-96.675031248820346,40.793636169181717],[-96.676807808031668,40.793671970092234],[-96.67676071742946,40.795022141163159],[-96.678537315766107,40.795057916440697],[-96.678584370436667,40.793707743676585],[-96.678631421915995,40.792357570550664],[-96.680407951582779,40.792393315116897],[-96.680360936032912,40.793743489934634],[-96.682137504817959,40.793779208866212],[-96.683914076789407,40.79381490047119],[-96.685690651944796,40.793850564749434],[-96.687467230281698,40.793886201700793],[-96.687514102111251,40.792536020128694],[-96.689290647696566,40.792571628067655],[-96.691067196458263,40.792607208680757],[-96.69102039649033,40.793957393622307],[-96.692796984357201,40.793992948592177],[-96.692750217148642,40.79534313485523],[-96.694526844121143,40.795378664179204],[-96.69457357539585,40.794028476234594],[-96.696350169603846,40.794063976549424],[-96.696396861777529,40.792713786563404],[-96.694620303501182,40.79267828792878],[-96.694667028437408,40.791328099261776],[-96.69471375020477,40.789977910233581],[-96.694760468803509,40.788627720844204],[-96.694807184233866,40.787277531093658],[-96.694853896496085,40.785927340981921],[-96.696630275150582,40.785962831216573],[-96.696676948327834,40.784612639063901],[-96.694900605590405,40.784577150509037],[-96.694947311517083,40.783226959674998],[-96.694994014276361,40.78187676847979],[-96.695040713868465,40.780526576923442],[-96.696816948869255,40.78056206043933],[-96.69686360938708,40.779211866842324],[-96.696910266740673,40.777861672884235],[-96.696956920930262,40.776511478565105],[-96.697003571956088,40.775161283884898],[-96.697050219818408,40.773811088843658],[-96.698826278470023,40.773846536654219],[-96.698872887273623,40.77249633957404],[-96.700648913190378,40.772531758399495],[-96.70069548294012,40.7711815592818],[-96.698919492916616,40.771146142132885],[-96.697143506053465,40.77111069767804],[-96.695367522353095,40.771075225917428],[-96.695414196616667,40.769725031472142],[-96.693638251971606,40.769689534086226],[-96.693684958957874,40.768339340960104],[-96.695460867715269,40.768374836665728],[-96.695507535649128,40.76702464149826],[-96.693731662776997,40.766989147472842],[-96.69195579307177,40.766953626145799],[-96.692002529606526,40.765603433978811],[-96.692049262972191,40.764253241450618],[-96.693825060914705,40.76428875941486],[-96.693871755233815,40.762938564844163],[-96.692095993169019,40.76290304856122],[-96.692142720197211,40.761552855310647],[-96.692189444057036,40.760202661698862],[-96.692236164748749,40.758852467725902],[-96.694011819194984,40.75888797896534],[-96.694058500850815,40.757537782950152],[-96.694105179341435,40.756187586573873],[-96.692329596628767,40.756152078696438],[-96.6905540170835,40.756116543527831],[-96.690600764135212,40.754766350153531],[-96.692376307817568,40.754801883639942],[-96.692423015839211,40.753451688222306],[-96.694198526828004,40.753487192738007],[-96.69597404098127,40.753522669965001],[-96.695927404681314,40.754872868743021],[-96.697702957857842,40.754908320359391],[-96.697749558296607,40.753558119903126],[-96.699525078771543,40.753593542552245],[-96.69957164019165,40.752243340058122],[-96.69779615557573,40.752207919085905],[-96.697842749695468,40.750857717907742],[-96.69606730409528,40.750822271325909],[-96.696113930909803,40.749472071464844],[-96.696160554563008,40.74812187124278],[-96.697935928457767,40.748157314468578],[-96.697889340656076,40.749507516368617],[-96.699664753561237,40.749542933987264],[-96.699711305511201,40.74819273041053],[-96.69975785430492,40.746842526472918],[-96.697982513100825,40.746807112207598],[-96.696207175055136,40.746771670659712],[-96.696253792386415,40.745421469715659],[-96.6963004065571,40.744071268410636],[-96.696347017567433,40.742721066744622],[-96.696393625417656,40.741370864717638],[-96.69644023010801,40.740020662329677],[-96.69466507443093,40.73998520189442],[-96.692889921915906,40.739949714183318],[-96.691114772565371,40.739914199196541],[-96.689339626381724,40.739878656934216],[-96.689292878346009,40.741228852598951],[-96.687517699495942,40.741193281377207],[-96.687564483367396,40.739843087396494],[-96.687611264067087,40.738492893054492],[-96.68765804159527,40.737142698351185],[-96.689433112945409,40.737178264521056],[-96.691208187464383,40.737213803418108],[-96.691161481598201,40.738564001487902],[-96.692936595114958,40.738599514793293],[-96.692983265149763,40.737249315042185],[-96.694758345999148,40.737284799393152],[-96.694804977040775,40.735934597601009],[-96.696580025222303,40.735970053000067],[-96.696626617275612,40.734619849168318],[-96.698401632788759,40.734655275617968],[-96.698355076562706,40.736005481127044],[-96.700130131059581,40.736040881981765],[-96.70017665145815,40.734690674796681],[-96.701951673281343,40.734726046704282],[-96.701905188710512,40.736076255564114],[-96.70368024951307,40.736111601873951],[-96.703633797620995,40.737461812046568],[-96.705408897403402,40.737497132755955],[-96.705362478194957,40.738847344240163],[-96.70358734257951,40.738812021858479],[-96.703540884388303,40.740162231309718],[-96.705316055839262,40.74019755536375],[-96.705269630336076,40.7415477661267],[-96.707044840772681,40.741583064575217],[-96.70699844796232,40.742933276648742],[-96.706952052006415,40.744283488361702],[-96.708727337272407,40.744318762872005],[-96.708680974016389,40.745668975894418],[-96.706905652904695,40.745633699714077],[-96.706859250656947,40.746983910705872],[-96.70863460761673,40.747019188556322],[-96.708588238073219,40.748369400857698],[-96.708541865385612,40.749719612798565],[-96.706766436722347,40.749684331607682]],[[-96.705083896843462,40.746948605572165],[-96.705037455599125,40.748298814531907],[-96.706812845262903,40.748334121337081],[-96.706859250656947,40.746983910705872],[-96.705083896843462,40.746948605572165]],[[-96.709157854582543,40.783510089781025],[-96.70738152565599,40.783474794130626],[-96.70733507113691,40.784824996695633],[-96.709111435979821,40.784860294016717],[-96.709157854582543,40.783510089781025]],[[-96.695647520464803,40.762974053829339],[-96.695600862023653,40.764324250080058],[-96.697376666296591,40.764359713446062],[-96.69742328885954,40.763009515516629],[-96.695647520464803,40.762974053829339]],[[-96.644687011514719,40.797073792965875],[-96.646463623850323,40.797110063548956],[-96.64651133172363,40.795759922185781],[-96.644734755320087,40.795723653319257],[-96.644687011514719,40.797073792965875]],[[-96.646415912741247,40.798460204549087],[-96.648192564247353,40.798496449519902],[-96.648240239421682,40.797146306804429],[-96.646463623850323,40.797110063548956],[-96.646415912741247,40.798460204549087]]],[[[-96.720760756539804,40.808060225400943],[-96.71898375873181,40.808025091062333],[-96.719030015135615,40.806674882954212],[-96.720806976984221,40.806710015630038],[-96.720760756539804,40.808060225400943]]],[[[-96.713699148424411,40.806569320880193],[-96.715476100853294,40.806604535579147],[-96.715429772531422,40.807954740357836],[-96.715383441066976,40.809304944776066],[-96.713606416718321,40.809269726743736],[-96.71182939551494,40.809234481368051],[-96.711875798901346,40.807884280284554],[-96.711922199140318,40.806534078840471],[-96.713699148424411,40.806569320880193]]],[[[-96.717160468558447,40.809340135464915],[-96.717206764061544,40.807989929381257],[-96.71898375873181,40.808025091062333],[-96.718937499190304,40.809375298810139],[-96.717160468558447,40.809340135464915]]],[[[-96.720714532960116,40.809410434811596],[-96.720760756539804,40.808060225400943],[-96.722537757483067,40.808095332396945],[-96.722491569865454,40.809445543469138],[-96.720714532960116,40.809410434811596]]],[[[-96.722399185230714,40.812145964532938],[-96.722445379114745,40.810795754181143],[-96.724222455117911,40.810830837154967],[-96.724176297201069,40.812181049167158],[-96.722399185230714,40.812145964532938]]],[[[-96.713513672431191,40.811970131165154],[-96.713560046147506,40.81061992913471],[-96.715337106459685,40.810655148833838],[-96.715290768709352,40.812005352531138],[-96.713513672431191,40.811970131165154]]],[[[-96.711458055086268,40.820036077054077],[-96.711411623361883,40.821386274892006],[-96.709634281551033,40.821350987146346],[-96.709587810691815,40.822701182953637],[-96.707810436048547,40.822665866182014],[-96.707763926049594,40.824016059957259],[-96.707717412895391,40.825366253371712],[-96.70593996943083,40.825330905898909],[-96.705986518574392,40.823980714157152],[-96.706033064560259,40.822630522054531],[-96.70607960738873,40.821280329591076],[-96.707856942892505,40.821315672045991],[-96.707903446581724,40.819965477549175],[-96.70968074925797,40.820000790978334],[-96.709727213812812,40.818650594449601],[-96.711504483661031,40.818685878855511],[-96.711550909086398,40.81733568029631],[-96.713328146106079,40.817370935681481],[-96.713374532406817,40.816020735093232],[-96.713420915561088,40.814670534144433],[-96.715198083778503,40.814705758844319],[-96.715151736597505,40.816055961460187],[-96.715105386272469,40.817406163715553],[-96.715059032803183,40.818756365610419],[-96.713281756658631,40.818721135909158],[-96.713235364064204,40.820071335776277],[-96.711458055086268,40.820036077054077]]],[[[-96.727638349190158,40.814951565973324],[-96.729415542489718,40.814986571880048],[-96.731192738913578,40.815021550436995],[-96.731146715502959,40.816371767998191],[-96.729369483103653,40.816336787785829],[-96.727592253828888,40.816301780222389],[-96.727638349190158,40.814951565973324]]],[[[-96.725768893215431,40.817616957538974],[-96.725815027681108,40.81626674530802],[-96.727592253828888,40.816301780222389],[-96.727546155340619,40.817651994111415],[-96.725768893215431,40.817616957538974]]],[[[-96.720437125627598,40.817511683709746],[-96.722214378356483,40.817546802338008],[-96.723991634219914,40.817581893614467],[-96.725768893215431,40.817616957538974],[-96.725722755620112,40.818967169409838],[-96.723945460644998,40.818932103825894],[-96.722168168802199,40.818897010888712],[-96.720390880094186,40.818861890598434],[-96.71861359452339,40.818826742955196],[-96.718659876035673,40.817476537729817],[-96.720437125627598,40.817511683709746]]],[[[-96.700280969583218,40.834675996232413],[-96.70032764885508,40.833325812044102],[-96.700374324960251,40.831975627494693],[-96.698596714163472,40.83194016219921],[-96.698550002055299,40.833290345070353],[-96.696772358424624,40.833254850731109],[-96.694994717965528,40.833219329026512],[-96.69494793067804,40.834569508175932],[-96.694901140216331,40.83591968696404],[-96.693123430919343,40.835884134529742],[-96.693076601273546,40.83723431127418],[-96.693029768450572,40.838584487657215],[-96.691251990309382,40.838548904487894],[-96.691298859144155,40.837198729788568],[-96.689521120194371,40.837163120934164],[-96.689474215348071,40.838513293948488],[-96.689427307319477,40.83986346660128],[-96.6876494995267,40.839827827005543],[-96.687602552299396,40.841177997610373],[-96.687555601886856,40.84252816785358],[-96.685777725244776,40.842492497511216],[-96.685730735625981,40.843842665704948],[-96.685683742819009,40.845192833536984],[-96.687461691505149,40.845228507255143],[-96.687414731535469,40.846578676413486],[-96.689192719433478,40.846614324442065],[-96.689145792305979,40.847964494925542],[-96.687367768379588,40.847928845210198],[-96.687320802037263,40.849279013645244],[-96.685542745266773,40.849243334862905],[-96.685495739704734,40.850593501248113],[-96.687273832508239,40.850629181718659],[-96.687226859792275,40.85197934943043],[-96.687179883889115,40.853329516780526],[-96.687132904798545,40.85467968376895],[-96.688911108903369,40.854715341919167],[-96.688864162668125,40.856065510233094],[-96.690642406001444,40.85610114268372],[-96.6905954926264,40.857451312322013],[-96.688817213247376,40.857415678185433],[-96.687038937054098,40.857380016660791],[-96.685260664048968,40.85734432774823],[-96.685213639346983,40.858694491963021],[-96.686991948399736,40.858730182564202],[-96.686944956556985,40.860080348105896],[-96.685166611454122,40.860044655816061],[-96.68511958037017,40.861394819307328],[-96.685072546094858,40.862744982436837],[-96.685025508627959,40.864095145204566],[-96.683247058552027,40.864059420454033],[-96.683199981833681,40.865409581169743],[-96.684978467969216,40.8654453076105],[-96.684931424118403,40.866795469654654],[-96.683152901920806,40.866759741523587],[-96.683105818813161,40.868109901515581],[-96.681327263746113,40.868074144296131],[-96.681374382917994,40.866723985995812],[-96.679595867112397,40.866688203071469],[-96.677817354506459,40.866652392750716],[-96.67603884510261,40.86661655503368],[-96.674260338903323,40.866580689920525],[-96.674307599122756,40.865230538037615],[-96.672529132191016,40.865194647226538],[-96.670750668468457,40.865158729020912],[-96.668972207957509,40.865122783420865],[-96.669019573143842,40.863772636273673],[-96.669066935116376,40.862422488764068],[-96.667288549931826,40.862386519173469],[-96.667335944743272,40.861036373003238],[-96.66911429387531,40.861072340892093],[-96.669161649420943,40.859722192657721],[-96.670939965716002,40.859758131455806],[-96.670987282000695,40.858407981158749],[-96.669209001753501,40.858372044060992],[-96.667430724719154,40.858336079575423],[-96.667478109884044,40.856985932317876],[-96.665699872109897,40.856949942147509],[-96.665652450900055,40.858300087702226],[-96.663874180298663,40.858264068441507],[-96.662095912917422,40.858228021793416],[-96.662048416395876,40.859578163575932],[-96.662000916651493,40.860928304995802],[-96.660222580397146,40.860892227546849],[-96.660270116190603,40.859542087833837],[-96.658491819210596,40.859505984703368],[-96.656713525458315,40.859469854184667],[-96.656665917567466,40.860819990480081],[-96.656618306446219,40.862170126412636],[-96.65483994382501,40.862133965084297],[-96.654792293419888,40.863484098943104],[-96.653013897978823,40.863447908512065],[-96.653061584436912,40.862097776365431],[-96.651283228284342,40.862061560256173],[-96.651330947557142,40.860711429459933],[-96.649552630692568,40.86067518767512],[-96.649600382775219,40.859325058230446],[-96.647822105198145,40.859288790772744],[-96.646043830863448,40.859252495927691],[-96.646091651795686,40.857902369552868],[-96.646139469483373,40.856552242814779],[-96.64618728392675,40.855202115713432],[-96.646235095126073,40.853851988248842],[-96.648013225296879,40.853888276225753],[-96.648060997217527,40.852538146681063],[-96.646282903081598,40.852501860421029],[-96.646330707793553,40.851151732229958],[-96.646378509262206,40.849801603675658],[-96.6464263074878,40.848451474758136],[-96.644648324684667,40.848415166271415],[-96.642870345126752,40.848378830407967],[-96.642918212159032,40.847028704564302],[-96.641140271873169,40.846992343044732],[-96.641092368816544,40.848342467167917],[-96.639314395756443,40.848306076551467],[-96.637536425948923,40.848269658558692],[-96.637584401053545,40.846919537880311],[-96.635806470524614,40.84688309423575],[-96.635758459396399,40.848233213189779],[-96.633980496101316,40.84819674044487],[-96.63402854325291,40.846846623216486],[-96.632250619240821,40.846810124822632],[-96.630472698490792,40.84677359905438],[-96.628694781005265,40.846737045911851],[-96.626916866786701,40.846700465395188],[-96.626965054759836,40.845350354718349],[-96.62518717983032,40.84531374855974],[-96.625138955837514,40.846663857504552],[-96.623361048160135,40.846627222240066],[-96.62340930817237,40.845277115028601],[-96.62163143978843,40.845240454125054],[-96.619853574680945,40.845203765849256],[-96.618075712852345,40.845167050201347],[-96.618124077639962,40.843816947833325],[-96.616346255108652,40.843780206551905],[-96.61629785430506,40.845130307181485],[-96.614519999041548,40.845093536789811],[-96.612742147064239,40.845056739026461],[-96.610964298375578,40.845019913891591],[-96.611012807225549,40.843669818485083],[-96.609234997842904,40.843632967722449],[-96.609283539414562,40.842282873694899],[-96.60933207769321,40.840932779302705],[-96.611109815053254,40.840969626578321],[-96.612887555703622,40.841006446486453],[-96.614665299641871,40.841043239026938],[-96.616443046865569,40.841080004199632],[-96.616491437819377,40.83972990247694],[-96.618269152317424,40.839766638543473],[-96.618317503982283,40.838416534718263],[-96.620095185754167,40.838453241681137],[-96.621872870803671,40.838489921278367],[-96.623650559128379,40.838526573509817],[-96.625428250725832,40.838563198375326],[-96.62538004308837,40.839913309140243],[-96.627157773963603,40.839949908371374],[-96.627205945593602,40.838599795874757],[-96.628983643729242,40.838636366007968],[-96.629031776086066,40.837286251417105],[-96.630809441481617,40.837322792454898],[-96.63076134513031,40.838672908774811],[-96.632539049794389,40.838709424175129],[-96.632587110139895,40.837359306127475],[-96.634364782058483,40.837395792434677],[-96.636142457234939,40.837432251376377],[-96.637920135666846,40.837468682952419],[-96.637968084740464,40.836118559365765],[-96.639745730420998,40.836154961853495],[-96.639697817351745,40.837505087162654],[-96.641475502287207,40.837541464006947],[-96.643253190470787,40.83757781348514],[-96.643301031530569,40.836227684734851],[-96.645078686954733,40.836264005128186],[-96.64685634562187,40.836300298156438],[-96.646904111430644,40.834950165607012],[-96.646951873999114,40.833600032694441],[-96.646999633327511,40.832249899418713],[-96.645222082661817,40.832213611542066],[-96.64526987474602,40.830863479620255],[-96.645317663588216,40.829513347335244],[-96.647095142265144,40.829549631777844],[-96.647142891874864,40.828199497412712],[-96.645365449188674,40.828163214687024],[-96.645413231547636,40.82681308167561],[-96.645461010665343,40.825462948301016],[-96.647238381377377,40.825499227593077],[-96.647286121270639,40.824149092138576],[-96.649063459237567,40.824185342360323],[-96.649015755327966,40.825535479530231],[-96.648968048182226,40.826885616337108],[-96.650745461355314,40.826921842633425],[-96.650697786961985,40.828271980791513],[-96.650650109334492,40.82962211858662],[-96.650602428472553,40.830972256018725],[-96.650554744375924,40.832322393087821],[-96.652332304753742,40.832358598879978],[-96.652284653420963,40.833708737299325],[-96.652236998855457,40.835058875355742],[-96.652189341056925,40.836409013049199],[-96.650411672675418,40.836372802117069],[-96.650363975637561,40.837722937734121],[-96.65031627536375,40.839073072988128],[-96.650268571853772,40.840423207879105],[-96.650220865107343,40.841773342407031],[-96.648443055923465,40.841737097249997],[-96.646665249978696,40.841700824722409],[-96.646617467964631,40.843050955455951],[-96.648395309924751,40.843087229699854],[-96.65017315512425,40.843123476571911],[-96.650125441904223,40.844473610373747],[-96.651903326358948,40.844509831587615],[-96.653681214048405,40.844546025428052],[-96.655459104970177,40.844582191894943],[-96.65550671013456,40.843232052955599],[-96.657284568267158,40.843268190338854],[-96.65733213418531,40.841918049326821],[-96.657379696876561,40.840567907952],[-96.659157486205046,40.840604014545647],[-96.65920500965764,40.839253871099643],[-96.659252529886231,40.837903727290936],[-96.661030250416943,40.837939803100284],[-96.661077731414451,40.836589657221914],[-96.659300046891076,40.836553583119567],[-96.65752236559122,40.836517481650972],[-96.65574468751727,40.836481352816293],[-96.655792273307711,40.835131211699931],[-96.654014634466293,40.835095057210097],[-96.654062253030332,40.83374491744167],[-96.655839855870013,40.833781070220773],[-96.657617461937562,40.833817195636527],[-96.657665005272463,40.832467052085192],[-96.65944257856566,40.832503148429339],[-96.661220155081608,40.832539217411131],[-96.661172683746528,40.833889364377335],[-96.661125209190899,40.835239510980941],[-96.66290286093016,40.835275556011275],[-96.662855419158873,40.836625703957885],[-96.66280797416897,40.837975851541948],[-96.664585701139856,40.838011872615795],[-96.666363431327184,40.838047866321673],[-96.66814116472851,40.838083832659457],[-96.669918901341362,40.838119771628989],[-96.669966202298397,40.836769617235063],[-96.668188501694118,40.836733679966066],[-96.668235835448442,40.83538352691032],[-96.66828316599171,40.834033373492247],[-96.670060794586121,40.834069307360409],[-96.670013500046565,40.835419462478875],[-96.671791167853328,40.835455370681608],[-96.673568838866245,40.835491251518405],[-96.673616061397638,40.834141093003034],[-96.67539369960987,40.834176944777234],[-96.67717134102314,40.834212769186486],[-96.67894898563506,40.834248566230656],[-96.680726633443143,40.834284335909594],[-96.680773708761507,40.832934170254106],[-96.682551323760336,40.832969910876415],[-96.684328941950241,40.833005624134508],[-96.684375942073714,40.831655454736072],[-96.686153527451197,40.831691138941181],[-96.686200488387684,40.830340967492496],[-96.687978040952245,40.830376622647151],[-96.688024962706606,40.829026449149637],[-96.68980248245775,40.829062075256353],[-96.68984936503486,40.827711899711453],[-96.689896244431651,40.826361723805086],[-96.691673695376863,40.826397319181886],[-96.691720535603949,40.825047141229646],[-96.693497953736951,40.825082707564867],[-96.695275375044943,40.825118246542793],[-96.69705279952548,40.825153758163268],[-96.698830227176103,40.825189242426141],[-96.698783530909878,40.82653942710305],[-96.698736831475742,40.827889611418819],[-96.698690128873451,40.829239795373432],[-96.69864342310278,40.830589978966906],[-96.700420997898988,40.830625442584193],[-96.700467667671532,40.829275257312588],[-96.702245209635549,40.829310691889972],[-96.702198575861402,40.830660878838415],[-96.702151938923478,40.832011065425839],[-96.70210529882155,40.833361251652214],[-96.702058655555376,40.834711437517576],[-96.700280969583218,40.834675996232413]],[[-96.657569915377223,40.835167338825123],[-96.65934756067243,40.835203438585495],[-96.659395071230549,40.833853293688755],[-96.657617461937562,40.833817195636527],[-96.657569915377223,40.835167338825123]],[[-96.678760508386333,40.839649218463066],[-96.680538300229813,40.839684994912936],[-96.68058538832463,40.838334830704902],[-96.678807632493644,40.838299055947871],[-96.677029879859589,40.838263253821736],[-96.675252130424894,40.838227424326632],[-96.675204934293305,40.839577583452289],[-96.673427152048632,40.83954172489166],[-96.673379916700782,40.840891881958463],[-96.675157734959669,40.840927742215861],[-96.67693555642083,40.840963575101874],[-96.678713381081835,40.840999380616324],[-96.678760508386333,40.839649218463066]],[[-96.67160210164667,40.840855994329779],[-96.671554827077671,40.842206149336292],[-96.669776979214561,40.842170232637059],[-96.667999134561313,40.842134288565546],[-96.667951784747984,40.843484439809522],[-96.666173907288936,40.843448466663794],[-96.664396033044852,40.843412466144791],[-96.66434860797817,40.844762613620787],[-96.664301179693823,40.846112760734265],[-96.662523236624651,40.846076729432582],[-96.662570700931482,40.844726584023896],[-96.660792797104889,40.844690527052734],[-96.660745296775843,40.846040670755293],[-96.660697793223989,40.847390814095213],[-96.658919820573558,40.84735472633502],[-96.658872277771792,40.848704867604724],[-96.658824731744318,40.85005500851171],[-96.657046690263698,40.850018889957212],[-96.656999104978752,40.851369028792476],[-96.655221030695316,40.851332881148693],[-96.655173406148023,40.852683017910806],[-96.656951516465128,40.852719167264922],[-96.658729630011166,40.852755289237422],[-96.660507746783665,40.852791383828155],[-96.660460227114129,40.854141525354684],[-96.660412704220292,40.855491666518517],[-96.662190896293012,40.855527737140463],[-96.662238383147525,40.854177594270034],[-96.662285866780209,40.852827451036987],[-96.664063989998354,40.852863490863768],[-96.665842116435655,40.852899503308365],[-96.665794704877442,40.85424964995056],[-96.667572870569074,40.854285636715453],[-96.667525491833942,40.855635784697874],[-96.669303696780389,40.855671745780406],[-96.671081904939157,40.855707679477732],[-96.671129211593438,40.854357528093786],[-96.67290738692131,40.854393432706928],[-96.672860116307831,40.855743585789696],[-96.674638330883937,40.855779464716178],[-96.676416548665046,40.855815316257015],[-96.676463747196209,40.854465159780496],[-96.676510942525042,40.853115002941898],[-96.676558134651799,40.851764845741215],[-96.678336247518217,40.851800664811655],[-96.678383400408947,40.850450505554171],[-96.676605323576752,40.850414688178468],[-96.676652509300098,40.849064530253656],[-96.676699691822108,40.847714371966795],[-96.676746871143052,40.846364213317884],[-96.67679404726313,40.845014054306937],[-96.678571979982877,40.845049864904382],[-96.678619116880355,40.843699703836982],[-96.676841220182638,40.843663894933933],[-96.675063326685247,40.843628058656755],[-96.67511053242373,40.842277900617361],[-96.673332678148213,40.842242038663095],[-96.673379916700782,40.840891881958463],[-96.67160210164667,40.840855994329779]],[[-96.680632473224975,40.836984666134995],[-96.680679554931046,40.835634501203224],[-96.678901871117773,40.835598729831659],[-96.678854753404039,40.836948893070733],[-96.680632473224975,40.836984666134995]],[[-96.687790322099758,40.835777313021467],[-96.687837256588622,40.834427140970256],[-96.686059596020158,40.834391480753638],[-96.686012625525123,40.835741651117395],[-96.687790322099758,40.835777313021467]],[[-96.670797997597163,40.863808580173128],[-96.672576425261838,40.863844496679448],[-96.67262371512372,40.862494345770102],[-96.670845323514484,40.862458430962995],[-96.670797997597163,40.863808580173128]],[[-96.676133290215546,40.863916247512194],[-96.67618050796581,40.862566093208265],[-96.67622772251228,40.86121593854223],[-96.676274933855197,40.859865783514067],[-96.674496607935566,40.859829926884125],[-96.674449360541601,40.861180080215767],[-96.674402109941639,40.862530233185232],[-96.674354856135437,40.863880385792534],[-96.676133290215546,40.863916247512194]],[[-96.676322141994788,40.858515628123818],[-96.676369346931324,40.85716547237147],[-96.674591093106486,40.857129619134334],[-96.674543852123776,40.858479773190311],[-96.676322141994788,40.858515628123818]]],[[[-96.702012009124715,40.836061623021877],[-96.701965359529311,40.837411808165136],[-96.701918706768936,40.838761992947333],[-96.70014091276505,40.838726546630639],[-96.700187601538445,40.837376363525685],[-96.700234287144426,40.836026180059605],[-96.702012009124715,40.836061623021877]]],[[[-96.700000827437933,40.842777093778714],[-96.700047525715036,40.841426911757161],[-96.701825391752251,40.841462361428555],[-96.701778729495473,40.842812545127551],[-96.700000827437933,40.842777093778714]]],[[[-96.698129450441684,40.84544197465717],[-96.698176191080776,40.844091795036796],[-96.699954125992434,40.844127275439121],[-96.699907421378285,40.845477456738379],[-96.698129450441684,40.84544197465717]]],[[[-96.695320844924311,40.772425420001639],[-96.697096864517448,40.772460893441384],[-96.697050219818408,40.773811088843658],[-96.695274164330073,40.773775613724744],[-96.695320844924311,40.772425420001639]]],[[[-96.686904520288408,40.810088352369732],[-96.686951430283131,40.808738175135666],[-96.68872840719726,40.808773803303446],[-96.688681533162409,40.810123982223701],[-96.686904520288408,40.810088352369732]]],[[[-96.691767372653615,40.823696962915982],[-96.691814206526132,40.822346784240928],[-96.693591552686755,40.822382347210151],[-96.69354475479922,40.823732527568175],[-96.691767372653615,40.823696962915982]]],[[[-96.687508648288855,40.843878337735177],[-96.687555601886856,40.84252816785358],[-96.689333481714414,40.842563810822256],[-96.689286564137461,40.843913982390411],[-96.687508648288855,40.843878337735177]]],[[[-96.682567224005865,40.730284882564511],[-96.682614089957696,40.728934690751828],[-96.682660952732448,40.727584498577663],[-96.684435763818342,40.727620134752698],[-96.684388936856777,40.728970328614146],[-96.684342106720564,40.730320522114198],[-96.682567224005865,40.730284882564511]]],[[[-96.684201597261577,40.734371100446033],[-96.684154754424327,40.7357212925005],[-96.684107908411221,40.737071484193557],[-96.685882973416398,40.737107104908652],[-96.685836160057576,40.738457297926765],[-96.685789343524803,40.739807490583516],[-96.684014206856418,40.739771866495417],[-96.682239073364613,40.739736215132339],[-96.680463943051834,40.739700536494432],[-96.680510867082319,40.738350348901164],[-96.678735775783082,40.738314644678965],[-96.678782732462025,40.736964458414469],[-96.680557787931605,40.73700016094633],[-96.680604705599919,40.73564997262995],[-96.680651620087531,40.734299783952039],[-96.680698531394668,40.732949594912562],[-96.682473482570032,40.732985265105548],[-96.684248436923198,40.733020908030156],[-96.684201597261577,40.734371100446033]]],[[[-96.668708996424215,40.82188197642553],[-96.668661694769355,40.823232133104334],[-96.666884357325742,40.823196185482793],[-96.66683701647807,40.824546340098195],[-96.666789672418901,40.825896494351241],[-96.665012266216664,40.825860515970888],[-96.663234863228624,40.825824510234213],[-96.663282279259874,40.824474359387459],[-96.66150491547414,40.824438327999673],[-96.661552364272239,40.823088178495425],[-96.663329692074726,40.823124208178207],[-96.663377101673447,40.821774056606465],[-96.66515439671106,40.821810057231978],[-96.665201767115278,40.820459903594191],[-96.666979029387491,40.820495875164966],[-96.668756294870491,40.820531819384449],[-96.668803590108411,40.819181661981098],[-96.670580822822856,40.81921757714948],[-96.67235805874293,40.819253464967588],[-96.672405278823561,40.817903303804123],[-96.674182481971911,40.81793916257481],[-96.674135297866229,40.819289325435257],[-96.674088110559765,40.820639487933654],[-96.674040920052278,40.821989650069973],[-96.672263608971733,40.821953786208127],[-96.670486301094897,40.821917894993277],[-96.668708996424215,40.82188197642553]]],[[[-96.675912540190311,40.819325158552346],[-96.675959688320788,40.817974993996202],[-96.677736897867774,40.818010798068173],[-96.677689785712772,40.819360964318712],[-96.675912540190311,40.819325158552346]]],[[[-96.671507549301296,40.843556303980556],[-96.671554827077671,40.842206149336292],[-96.673332678148213,40.842242038663095],[-96.673285436390657,40.843592195005584],[-96.671507549301296,40.843556303980556]]],[[[-96.656743311541163,40.808128313190444],[-96.656695790265957,40.809478461561888],[-96.654918835040803,40.809442339564228],[-96.654966392271433,40.808092192902215],[-96.656743311541163,40.808128313190444]]],[[[-96.653094286627351,40.810756334815061],[-96.653141883041457,40.809406190226618],[-96.654918835040803,40.809442339564228],[-96.654871274584323,40.810792485863466],[-96.653094286627351,40.810756334815061]]],[[[-96.65795019756159,40.824366183160009],[-96.65799771832539,40.823016037069671],[-96.659775039688299,40.823052121459213],[-96.659727554907235,40.824402269257149],[-96.65795019756159,40.824366183160009]]],[[[-96.657665005272463,40.832467052085192],[-96.655887435204448,40.832430928378812],[-96.655935011311257,40.831080786174056],[-96.655982584190696,40.829730643606489],[-96.657760082266947,40.82976676389432],[-96.657712545382168,40.831116908171111],[-96.657665005272463,40.832467052085192]]],[[[-96.638878499402807,40.81046614216006],[-96.638926383469041,40.809116011304447],[-96.640703309574064,40.809152379356547],[-96.640655461463467,40.810502511933294],[-96.638878499402807,40.81046614216006]]],[[[-96.633259612758536,40.818457615272415],[-96.631482447925478,40.818421125781022],[-96.631530495361929,40.817071004004916],[-96.633307624225736,40.817107491769598],[-96.633259612758536,40.818457615272415]]],[[[-96.627928128039514,40.818348064757018],[-96.627976247413699,40.8169979464382],[-96.629753369757111,40.8170344888944],[-96.629705286351665,40.818384608942516],[-96.627928128039514,40.818348064757018]]],[[[-96.627831879498572,40.821048300303097],[-96.627880005401224,40.819698182711981],[-96.629657199684544,40.819734728626841],[-96.629609109755521,40.82108484794739],[-96.627831879498572,40.821048300303097]]],[[[-96.633163580053491,40.821157861187139],[-96.633115558815149,40.822507983599024],[-96.631338286059744,40.822471488927093],[-96.631386343274642,40.82112136824211],[-96.633163580053491,40.821157861187139]]],[[[-96.631338286059744,40.822471488927093],[-96.631290225584863,40.823821609248355],[-96.629512920110699,40.823785085497143],[-96.629561016564324,40.822434966904147],[-96.631338286059744,40.822471488927093]]],[[[-96.633067534319252,40.823858105647268],[-96.634844846311452,40.823894574693746],[-96.634796854539431,40.825244698104093],[-96.633019506565574,40.825208227331856],[-96.631242161849741,40.825171729205877],[-96.631290225584863,40.823821609248355],[-96.633067534319252,40.823858105647268]]],[[[-96.638351560251593,40.825317557586793],[-96.638399480059519,40.823967430728793],[-96.640176801810497,40.824003817717077],[-96.64012891798501,40.825353946296964],[-96.638351560251593,40.825317557586793]]],[[[-96.622596672697412,40.818238268120098],[-96.620819527456277,40.81820161454813],[-96.620867790702945,40.816851503159405],[-96.622644899976336,40.816888154996917],[-96.622596672697412,40.818238268120098]]],[[[-96.624325626630053,40.819625008838031],[-96.624373821209957,40.818274894345663],[-96.626150972991454,40.818311493224691],[-96.626102814382236,40.819661609449007],[-96.624325626630053,40.819625008838031]]],[[[-96.611885404039342,40.819368038829971],[-96.611933850406928,40.818017936497419],[-96.61371097925452,40.818054726799197],[-96.61366256885583,40.819404830872742],[-96.611885404039342,40.819368038829971]]],[[[-96.610108242509114,40.819331219440407],[-96.610059756884155,40.820681319666122],[-96.608282562671803,40.820644471186228],[-96.608331084267604,40.819294372704142],[-96.610108242509114,40.819331219440407]]],[[[-96.606456810890606,40.821957691730965],[-96.606505371750814,40.820607595358517],[-96.608282562671803,40.820644471186228],[-96.608234037784612,40.821994569303676],[-96.606456810890606,40.821957691730965]]],[[[-96.60365829191214,40.850272689688268],[-96.603706958025256,40.848922602723484],[-96.603755620836793,40.847572515393807],[-96.60553352838221,40.847609453508504],[-96.605484901592192,40.848959542585867],[-96.605436271503009,40.850309631298408],[-96.60365829191214,40.850272689688268]]]]}}
]
}
