{
"type": "FeatureCollection",
"name": "bryan-east__sat_1700",
"crs": { "type": "name", "properties": { "name": "urn:ogc:def:crs:OGC:1.3:CRS84" } },
"features": [
{"type":"Feature","properties":{"band":15},"geometry":{"type":"Polygon","coordinates":[[[-96.660771476418063,40.794698933946584],[-96.660724059226254,40.796049089358277],[-96.658947457006676,40.796013039106356],[-96.658900000664772,40.797363192449325],[-96.660676638818401,40.797399244407472],[-96.66245328018833,40.797435269036868],[-96.6624058925009,40.798785425428562],[-96.662358501599329,40.800135581457802],[-96.66231110748339,40.801485737124615],[-96.660534358295976,40.801449707380002],[-96.658757612325601,40.801413650302749],[-96.656980869574724,40.801377565892999],[-96.65520413004576,40.801341454150894],[-96.655156588940585,40.802691602626645],[-96.655109044610811,40.804041750739657],[-96.655061497056195,40.805391898489916],[-96.653284652915175,40.805355754284264],[-96.653237066185127,40.806705899961216],[-96.65146018932154,40.806669726707732],[-96.651507812001682,40.805319582742683],[-96.65155543145184,40.80396943841474],[-96.649778629715712,40.803933241250448],[-96.648001831211715,40.803897016751797],[-96.646225035942308,40.80386076491893],[-96.646272759996933,40.802510625371077],[-96.646320480814808,40.801160485460144],[-96.644543760668427,40.801124209726972],[-96.644591514189131,40.799774071169729],[-96.644639264471152,40.798423932249364],[-96.646415912741247,40.798460204549087],[-96.648192564247353,40.798496449519902],[-96.648240239421682,40.797146306804429],[-96.648287911362672,40.795796163725981],[-96.648335580070594,40.794446020284546],[-96.648383245545659,40.793095876480152],[-96.650159756559987,40.793132087266123],[-96.65193627080447,40.793168270728081],[-96.651983861196172,40.791818123134448],[-96.653760342742601,40.791854277561043],[-96.655536827514084,40.791890404664606],[-96.657313315508176,40.791926504444994],[-96.657265832894495,40.793276657168327],[-96.657218347060379,40.794626809529028],[-96.658994910130104,40.794662885400825],[-96.660771476418063,40.794698933946584]]]}},
{"type":"Feature","properties":{"band":30},"geometry":{"type":"MultiPolygon","coordinates":[[[[-96.69078634903245,40.800708312909876],[-96.69073953001552,40.802058495683326],[-96.690692707822905,40.803408678095401],[-96.690645882454376,40.804758860146102],[-96.688869010226682,40.804723264373919],[-96.687092141177629,40.804687641264252],[-96.685315275309605,40.804651990817227],[-96.685362208528588,40.803301813824234],[-96.683585381793705,40.803266137728478],[-96.681808558244484,40.803230434296921],[-96.680031737883354,40.803194703529748],[-96.67825492071276,40.803158945427064],[-96.678301994535971,40.801808774833923],[-96.680078775760066,40.801844531244306],[-96.681855560174455,40.801880260320495],[-96.681902558916576,40.800530085982352],[-96.683679310574263,40.800565786034532],[-96.685456065417128,40.800601458753519],[-96.685502989087169,40.799251280675819],[-96.687279711170163,40.799286924374478],[-96.687326595717536,40.797936744248283],[-96.68910328504019,40.797972358929115],[-96.689056436433233,40.799322540740945],[-96.690833164873922,40.799358129775072],[-96.69078634903245,40.800708312909876]]],[[[-96.697893438297697,40.800850402444979],[-96.697846763065328,40.802200591943411],[-96.697800084667008,40.803550781080737],[-96.697753403102496,40.804900969856966],[-96.699530291186704,40.804936428939513],[-96.699483642409803,40.806286619032832],[-96.697706718371535,40.806251158272062],[-96.697660030473898,40.807601346326052],[-96.69761333940933,40.80895153401891],[-96.697566645177588,40.810301721350633],[-96.697519947778446,40.811651908321231],[-96.695742883067297,40.811616413502243],[-96.695789616429991,40.810266228211425],[-96.695836346622826,40.808916042559417],[-96.695883073646073,40.807565856546205],[-96.694106119987609,40.807530339425711],[-96.694152879797485,40.806180154732175],[-96.692375965266578,40.806144611953329],[-96.692422757858225,40.804794428580628],[-96.694199636435812,40.804829969677378],[-96.69424638990283,40.803479784261327],[-96.694293140198795,40.802129598484051],[-96.694339887323935,40.800779412345527],[-96.696116661226739,40.800814921062347],[-96.697893438297697,40.800850402444979]]],[[[-96.669465386701987,40.80027942029939],[-96.671242115995341,40.800315311679995],[-96.673018848490884,40.80035117572838],[-96.674795584186214,40.800387012444453],[-96.676572323078872,40.800422821828008],[-96.678349065166458,40.800458603878944],[-96.678301994535971,40.801808774833923],[-96.676525216504587,40.801772991089472],[-96.676478106735132,40.803123159989028],[-96.676430993770282,40.804473328526662],[-96.674654147039618,40.804437514058463],[-96.672877303507036,40.804401672253896],[-96.671100463174952,40.804365803113122],[-96.669323626045824,40.804329906636255],[-96.669276366083352,40.805680068024145],[-96.667499496209714,40.805644142511163],[-96.667546792122081,40.804293982823452],[-96.665769961406141,40.804258031674863],[-96.663993133900448,40.804222053190621],[-96.663945766089057,40.805572209474086],[-96.662168905846897,40.805536201950289],[-96.662216309607416,40.80418604737087],[-96.660439488529519,40.80415001421575],[-96.658662670669159,40.80411395372542],[-96.658710143107243,40.802763802195386],[-96.660486925021402,40.802799860979142],[-96.660534358295976,40.801449707380002],[-96.66231110748339,40.801485737124615],[-96.662358501599329,40.800135581457802],[-96.6624058925009,40.798785425428562],[-96.664182573021677,40.798821424432759],[-96.664135218059528,40.800171582165795],[-96.664087859885427,40.801521739536462],[-96.665864615499643,40.801557714615377],[-96.66591193773165,40.800207555542151],[-96.667688660613294,40.800243501586728],[-96.669465386701987,40.80027942029939]]],[[[-96.658994910130104,40.794662885400825],[-96.657218347060379,40.794626809529028],[-96.657265832894495,40.793276657168327],[-96.659042360035272,40.79331273133274],[-96.658994910130104,40.794662885400825]]],[[[-96.662500664661906,40.796085112282725],[-96.660724059226254,40.796049089358277],[-96.660771476418063,40.794698933946584],[-96.662548045921838,40.794734955166156],[-96.662500664661906,40.796085112282725]]],[[[-96.648335580070594,40.794446020284546],[-96.648287911362672,40.795796163725981],[-96.648240239421682,40.797146306804429],[-96.646463623850323,40.797110063548956],[-96.64651133172363,40.795759922185781],[-96.644734755320087,40.795723653319257],[-96.644782495887497,40.794373513309537],[-96.64655903636141,40.794409780459553],[-96.648335580070594,40.794446020284546]]],[[[-96.660676638818401,40.797399244407472],[-96.658900000664772,40.797363192449325],[-96.658947457006676,40.796013039106356],[-96.660724059226254,40.796049089358277],[-96.660676638818401,40.797399244407472]]],[[[-96.655156588940585,40.802691602626645],[-96.65520413004576,40.801341454150894],[-96.656980869574724,40.801377565892999],[-96.658757612325601,40.801413650302749],[-96.658710143107243,40.802763802195386],[-96.656933364412836,40.802727716077833],[-96.656885856028779,40.804077865900005],[-96.655109044610811,40.804041750739657],[-96.655156588940585,40.802691602626645]]]]}},
{"type":"Feature","properties":{"band":45},"geometry":{"type":"MultiPolygon","coordinates":[[[[-96.708414779019179,40.805113314274266],[-96.710191686050919,40.805148609324633],[-96.710145253003418,40.806498809460123],[-96.711922199140318,40.806534078840471],[-96.711875798901346,40.807884280284554],[-96.71182939551494,40.809234481368051],[-96.713606416718321,40.809269726743736],[-96.713560046147506,40.81061992913471],[-96.713513672431191,40.811970131165154],[-96.713467295569131,40.813320332835069],[-96.711690166468557,40.813285082454939],[-96.709913040516398,40.813249804727718],[-96.709866588567394,40.81460000269923],[-96.709820133467289,40.815950200310049],[-96.708042938723324,40.815914891894103],[-96.707996444496885,40.817265087473224],[-96.706219216931942,40.817229750035587],[-96.704441992523471,40.817194385247404],[-96.702664771273874,40.817158993108826],[-96.702618165962619,40.81850918330624],[-96.700840911897899,40.818473762141167],[-96.699063660997197,40.818438313624682],[-96.69728641326293,40.818402837756913],[-96.695509168697541,40.818367334538031],[-96.69373192730346,40.818331803968157],[-96.693778712494549,40.81698162216486],[-96.693825494512112,40.81563144000026],[-96.692048328239807,40.815595885444885],[-96.690271165143216,40.815560303541375],[-96.690318015927986,40.814210124381908],[-96.688540891979386,40.814174516815577],[-96.688587775553728,40.812824338979759],[-96.690364863534882,40.81285994486101],[-96.690411707964159,40.811509764978702],[-96.688634655947993,40.811474160782467],[-96.688681533162409,40.810123982223701],[-96.68872840719726,40.808773803303446],[-96.686951430283131,40.808738175135666],[-96.686904520288408,40.810088352369732],[-96.685127510596416,40.810052695173248],[-96.683350504088878,40.810017010634382],[-96.681573500768238,40.809981298753264],[-96.679796500636911,40.809945559530057],[-96.679749443613332,40.811295729644705],[-96.67797241071267,40.811259961386824],[-96.678019503697357,40.809909792964888],[-96.67624250995199,40.809873999057899],[-96.676195381006465,40.811224165785845],[-96.674418354497121,40.811188342841895],[-96.674371186391681,40.812538507512542],[-96.67259412711887,40.81250265552913],[-96.672641331187094,40.811152492555117],[-96.670864311078802,40.811116614925666],[-96.669087294174687,40.811080709953671],[-96.669040018181619,40.812430869530509],[-96.667262968522067,40.812394935515599],[-96.667310280477196,40.811044777639282],[-96.667357589223272,40.809694619400688],[-96.665580614694193,40.809658661445781],[-96.665533269988742,40.811008817982639],[-96.663756262711772,40.810972830983886],[-96.66380364337634,40.809622676150077],[-96.662026675272159,40.809586663513684],[-96.661979258648714,40.810936816643164],[-96.660202257802013,40.810900774960615],[-96.660154802001145,40.812250926021925],[-96.658377768412407,40.812214855290712],[-96.656600738045128,40.812178757216678],[-96.656648265767373,40.810828609570635],[-96.654871274584323,40.810792485863466],[-96.653094286627351,40.810756334815061],[-96.653141883041457,40.809406190226618],[-96.651364934270404,40.809370013549184],[-96.651412563411213,40.808019870309899],[-96.649635653825555,40.807983668006109],[-96.649683315688165,40.806633526117174],[-96.647906445287433,40.806597298189679],[-96.647954139866982,40.805247157652246],[-96.646177308650678,40.805210904103696],[-96.644400480671607,40.805174623219784],[-96.642623655932255,40.805138315000654],[-96.64084683443501,40.805101979446455],[-96.640894669565867,40.803751845416485],[-96.640942501452429,40.802401711023244],[-96.639165755089138,40.802365351575745],[-96.639117887259104,40.803715484248208],[-96.637341108199081,40.803679095746439],[-96.635564332388228,40.803642679911306],[-96.633787559828988,40.803606236742979],[-96.633739580915986,40.804956363881786],[-96.631962775665869,40.804919891654379],[-96.630185973672496,40.804883392092762],[-96.63013791961076,40.806233515414533],[-96.628361084929693,40.806196986790184],[-96.628312991659271,40.807547108019499],[-96.628264895126776,40.808897228885023],[-96.630041801708828,40.808933760966923],[-96.629993737868105,40.810283883197513],[-96.629945670767228,40.811634005064391],[-96.628168692274471,40.811597469524663],[-96.628120585954179,40.812947589298787],[-96.629897600405954,40.812984126567535],[-96.629849526784014,40.814334247706903],[-96.628072476370789,40.814297708709084],[-96.626295429220917,40.814261142368302],[-96.6263435747655,40.812911024688376],[-96.624566566842361,40.81287443273645],[-96.62461474507991,40.81152431642424],[-96.622837776382994,40.81148769886385],[-96.621060810956223,40.811451053963488],[-96.621109057837444,40.810100940754268],[-96.619332131638572,40.810064270249541],[-96.619380411200368,40.808714158411583],[-96.619428687487641,40.807364046209486],[-96.619476960500648,40.80601393364325],[-96.61952523023966,40.804663820712868],[-96.619573496704916,40.803313707418376],[-96.617796753519627,40.803277018257745],[-96.617845052651859,40.80192690633541],[-96.617893348508389,40.800576794048887],[-96.61967001981516,40.800613479737024],[-96.619718276460659,40.799263365350185],[-96.621494915104591,40.799300021974176],[-96.62154313254392,40.797949905488458],[-96.623319738524486,40.797986533050768],[-96.623367916762504,40.796636414467606],[-96.623416091733148,40.795286295520491],[-96.623464263436645,40.793936176209435],[-96.625240764897669,40.793972771248548],[-96.627017269623138,40.794009338964365],[-96.626969169773147,40.795359461738116],[-96.628745713687763,40.795396003859906],[-96.628793777610625,40.794045879356744],[-96.630570288857697,40.794082392425551],[-96.632346803361912,40.794118878170615],[-96.632394792175049,40.792768749848932],[-96.634171274008537,40.792805206544664],[-96.634123321120867,40.794155336591821],[-96.63589984213209,40.794191767688993],[-96.635851921920263,40.795541899096875],[-96.637628482109747,40.795578304592837],[-96.63940504554688,40.795614682763208],[-96.639452893901705,40.794264547910714],[-96.639500739011524,40.792914412694905],[-96.641277233838593,40.792950760098861],[-96.641229424655222,40.794300897034965],[-96.643005958651301,40.794337218834613],[-96.643053731907969,40.792987080179493],[-96.643101501924761,40.791636941161201],[-96.644877967309498,40.79167323220075],[-96.644830233217235,40.793023372936688],[-96.646606737763946,40.793059638370295],[-96.648383245545659,40.793095876480152],[-96.648335580070594,40.794446020284546],[-96.64655903636141,40.794409780459553],[-96.644782495887497,40.794373513309537],[-96.644734755320087,40.795723653319257],[-96.644687011514719,40.797073792965875],[-96.646463623850323,40.797110063548956],[-96.646415912741247,40.798460204549087],[-96.644639264471152,40.798423932249364],[-96.644591514189131,40.799774071169729],[-96.644543760668427,40.801124209726972],[-96.646320480814808,40.801160485460144],[-96.646272759996933,40.802510625371077],[-96.646225035942308,40.80386076491893],[-96.648001831211715,40.803897016751797],[-96.649778629715712,40.803933241250448],[-96.65155543145184,40.80396943841474],[-96.651507812001682,40.805319582742683],[-96.65146018932154,40.806669726707732],[-96.653237066185127,40.806705899961216],[-96.653284652915175,40.805355754284264],[-96.655061497056195,40.805391898489916],[-96.655109044610811,40.804041750739657],[-96.656885856028779,40.804077865900005],[-96.656933364412836,40.802727716077833],[-96.658710143107243,40.802763802195386],[-96.658662670669159,40.80411395372542],[-96.660439488529519,40.80415001421575],[-96.662216309607416,40.80418604737087],[-96.662168905846897,40.805536201950289],[-96.663945766089057,40.805572209474086],[-96.663993133900448,40.804222053190621],[-96.665769961406141,40.804258031674863],[-96.667546792122081,40.804293982823452],[-96.667499496209714,40.805644142511163],[-96.669276366083352,40.805680068024145],[-96.669323626045824,40.804329906636255],[-96.671100463174952,40.804365803113122],[-96.672877303507036,40.804401672253896],[-96.674654147039618,40.804437514058463],[-96.676430993770282,40.804473328526662],[-96.676478106735132,40.803123159989028],[-96.676525216504587,40.801772991089472],[-96.678301994535971,40.801808774833923],[-96.678349065166458,40.800458603878944],[-96.676572323078872,40.800422821828008],[-96.674795584186214,40.800387012444453],[-96.673018848490884,40.80035117572838],[-96.671242115995341,40.800315311679995],[-96.669465386701987,40.80027942029939],[-96.667688660613294,40.800243501586728],[-96.66591193773165,40.800207555542151],[-96.665864615499643,40.801557714615377],[-96.664087859885427,40.801521739536462],[-96.664135218059528,40.800171582165795],[-96.664182573021677,40.798821424432759],[-96.6624058925009,40.798785425428562],[-96.66245328018833,40.797435269036868],[-96.660676638818401,40.797399244407472],[-96.660724059226254,40.796049089358277],[-96.662500664661906,40.796085112282725],[-96.662548045921838,40.794734955166156],[-96.660771476418063,40.794698933946584],[-96.658994910130104,40.794662885400825],[-96.659042360035272,40.79331273133274],[-96.660818890394054,40.793348778172394],[-96.662595423968398,40.793384797687168],[-96.662642798801826,40.79203463984576],[-96.664419299662057,40.792070630332056],[-96.664371960755872,40.793420789876912],[-96.666148500754048,40.793456754741477],[-96.667925043960494,40.793492692280729],[-96.669701590372782,40.793528602494526],[-96.669654356046422,40.79487876677981],[-96.671430941592774,40.794914651366341],[-96.671383739995875,40.7962648169879],[-96.673160364676789,40.796300675944522],[-96.674936992556752,40.796336507572661],[-96.67498412228673,40.794986338558168],[-96.675031248820346,40.793636169181717],[-96.676807808031668,40.793671970092234],[-96.67676071742946,40.795022141163159],[-96.678537315766107,40.795057916440697],[-96.678584370436667,40.793707743676585],[-96.680360936032912,40.793743489934634],[-96.682137504817959,40.793779208866212],[-96.683914076789407,40.79381490047119],[-96.685690651944796,40.793850564749434],[-96.687467230281698,40.793886201700793],[-96.689243811797695,40.793921811325134],[-96.69102039649033,40.793957393622307],[-96.692796984357201,40.793992948592177],[-96.692750217148642,40.79534313485523],[-96.692703446768064,40.796693320757008],[-96.69448010967686,40.796728851762609],[-96.694526844121143,40.795378664179204],[-96.69457357539585,40.794028476234594],[-96.696350169603846,40.794063976549424],[-96.698126766978788,40.794099449536517],[-96.698080107572522,40.795449640840374],[-96.699856744046528,40.795485088177266],[-96.69981011741254,40.796835280797794],[-96.70158679298612,40.796870702481854],[-96.703363471719797,40.796906096835194],[-96.70341002647902,40.795555900863029],[-96.705186672432632,40.795591266211616],[-96.706963321541238,40.795626604230463],[-96.706916838657762,40.796976803549065],[-96.706870352621465,40.79832700250693],[-96.706823863432106,40.799677201104046],[-96.708600623515295,40.799712516807091],[-96.708554167118166,40.801062716714917],[-96.708507707569936,40.802412916262071],[-96.70846124487035,40.803763115448533],[-96.708414779019179,40.805113314274266]],[[-96.67825492071276,40.803158945427064],[-96.680031737883354,40.803194703529748],[-96.681808558244484,40.803230434296921],[-96.683585381793705,40.803266137728478],[-96.685362208528588,40.803301813824234],[-96.685315275309605,40.804651990817227],[-96.687092141177629,40.804687641264252],[-96.688869010226682,40.804723264373919],[-96.690645882454376,40.804758860146102],[-96.690692707822905,40.803408678095401],[-96.69073953001552,40.802058495683326],[-96.69078634903245,40.800708312909876],[-96.690833164873922,40.799358129775072],[-96.689056436433233,40.799322540740945],[-96.68910328504019,40.797972358929115],[-96.687326595717536,40.797936744248283],[-96.687279711170163,40.799286924374478],[-96.685502989087169,40.799251280675819],[-96.685456065417128,40.800601458753519],[-96.683679310574263,40.800565786034532],[-96.681902558916576,40.800530085982352],[-96.681855560174455,40.801880260320495],[-96.680078775760066,40.801844531244306],[-96.678301994535971,40.801808774833923],[-96.67825492071276,40.803158945427064]],[[-96.695836346622826,40.808916042559417],[-96.695789616429991,40.810266228211425],[-96.695742883067297,40.811616413502243],[-96.697519947778446,40.811651908321231],[-96.697566645177588,40.810301721350633],[-96.69761333940933,40.80895153401891],[-96.697660030473898,40.807601346326052],[-96.697706718371535,40.806251158272062],[-96.699483642409803,40.806286619032832],[-96.699530291186704,40.804936428939513],[-96.697753403102496,40.804900969856966],[-96.697800084667008,40.803550781080737],[-96.697846763065328,40.802200591943411],[-96.697893438297697,40.800850402444979],[-96.696116661226739,40.800814921062347],[-96.694339887323935,40.800779412345527],[-96.694293140198795,40.802129598484051],[-96.69424638990283,40.803479784261327],[-96.694199636435812,40.804829969677378],[-96.692422757858225,40.804794428580628],[-96.692375965266578,40.806144611953329],[-96.694152879797485,40.806180154732175],[-96.694106119987609,40.807530339425711],[-96.695883073646073,40.807565856546205],[-96.695836346622826,40.808916042559417]],[[-96.704907512170251,40.803692446675463],[-96.706684376943286,40.803727794730797],[-96.706730875593266,40.802377597215965],[-96.706777371089458,40.80102739934037],[-96.705000578214296,40.800992054630811],[-96.704954046770368,40.802342250833547],[-96.704907512170251,40.803692446675463]]],[[[-96.657360794901678,40.790576351359057],[-96.657313315508176,40.791926504444994],[-96.655536827514084,40.791890404664606],[-96.653760342742601,40.791854277561043],[-96.651983861196172,40.791818123134448],[-96.65193627080447,40.793168270728081],[-96.650159756559987,40.793132087266123],[-96.648383245545659,40.793095876480152],[-96.648430907788153,40.791745732312783],[-96.650207382877198,40.791781941384983],[-96.650255005964524,40.790431795140961],[-96.648478566798303,40.790395587782463],[-96.646702130864185,40.790359353102673],[-96.646749822562398,40.789009209924316],[-96.644973425782695,40.788972949639586],[-96.645021150164098,40.78762280781438],[-96.646797511026321,40.78765906638295],[-96.646845196256237,40.786308922478582],[-96.648621524437203,40.786345152013794],[-96.650397855849519,40.786381354231573],[-96.65217419049074,40.786417529131789],[-96.652221764747551,40.785067379724119],[-96.653998066701632,40.785103525595765],[-96.655774371879545,40.785139644150846],[-96.655726869450191,40.786489796978934],[-96.657503213763576,40.786525889925578],[-96.659279561296145,40.786561955554077],[-96.659232127478475,40.787912111434885],[-96.661008514144825,40.787948151450834],[-96.660961113029629,40.789298308674937],[-96.660913708699582,40.79064846553657],[-96.65913725019189,40.7906124221089],[-96.657360794901678,40.790576351359057]]],[[[-96.660534358295976,40.801449707380002],[-96.660486925021402,40.802799860979142],[-96.658710143107243,40.802763802195386],[-96.658757612325601,40.801413650302749],[-96.660534358295976,40.801449707380002]]],[[[-96.659089806722463,40.79196257690208],[-96.659042360035272,40.79331273133274],[-96.657265832894495,40.793276657168327],[-96.657313315508176,40.791926504444994],[-96.659089806722463,40.79196257690208]]],[[[-96.62278956218718,40.812837813443153],[-96.624566566842361,40.81287443273645],[-96.624518385336827,40.814224548684713],[-96.622741344720964,40.814187927658445],[-96.62278956218718,40.812837813443153]]],[[[-96.626247280410553,40.815611259684317],[-96.624470200563096,40.815574664268986],[-96.624518385336827,40.814224548684713],[-96.626295429220917,40.814261142368302],[-96.626247280410553,40.815611259684317]]]]}},
{"type":"Feature","properties":{"band":60},"geometry":{"type":"MultiPolygon","coordinates":[[[[-96.707056277850739,40.792926204511062],[-96.707009801272164,40.794276404551127],[-96.708786417597551,40.794311713568888],[-96.708739973802437,40.795661914919449],[-96.710516629213771,40.795697198278418],[-96.710470218206979,40.797047400938311],[-96.712246912704728,40.797082658635851],[-96.71220053449116,40.798432862603896],[-96.713977268075809,40.798468094637336],[-96.713930922660296,40.799818299912388],[-96.715707695332341,40.799853506279071],[-96.715661382719759,40.801203712859945],[-96.71561506696581,40.802553919080403],[-96.713838222398323,40.802518709380998],[-96.713791867551393,40.803868913574576],[-96.713745509560169,40.805219117407646],[-96.713699148424411,40.806569320880193],[-96.713652784143875,40.807919523992219],[-96.713606416718321,40.809269726743736],[-96.71182939551494,40.809234481368051],[-96.711875798901346,40.807884280284554],[-96.711922199140318,40.806534078840471],[-96.710145253003418,40.806498809460123],[-96.710191686050919,40.805148609324633],[-96.708414779019179,40.805113314274266],[-96.70846124487035,40.803763115448533],[-96.708507707569936,40.802412916262071],[-96.708554167118166,40.801062716714917],[-96.708600623515295,40.799712516807091],[-96.706823863432106,40.799677201104046],[-96.706870352621465,40.79832700250693],[-96.706916838657762,40.796976803549065],[-96.706963321541238,40.795626604230463],[-96.705186672432632,40.795591266211616],[-96.70341002647902,40.795555900863029],[-96.703363471719797,40.796906096835194],[-96.70158679298612,40.796870702481854],[-96.69981011741254,40.796835280797794],[-96.699856744046528,40.795485088177266],[-96.698080107572522,40.795449640840374],[-96.698126766978788,40.794099449536517],[-96.696350169603846,40.794063976549424],[-96.69457357539585,40.794028476234594],[-96.694526844121143,40.795378664179204],[-96.69448010967686,40.796728851762609],[-96.692703446768064,40.796693320757008],[-96.692750217148642,40.79534313485523],[-96.692796984357201,40.793992948592177],[-96.69102039649033,40.793957393622307],[-96.689243811797695,40.793921811325134],[-96.687467230281698,40.793886201700793],[-96.685690651944796,40.793850564749434],[-96.683914076789407,40.79381490047119],[-96.682137504817959,40.793779208866212],[-96.680360936032912,40.793743489934634],[-96.678584370436667,40.793707743676585],[-96.678537315766107,40.795057916440697],[-96.67676071742946,40.795022141163159],[-96.676807808031668,40.793671970092234],[-96.675031248820346,40.793636169181717],[-96.67498412228673,40.794986338558168],[-96.674936992556752,40.796336507572661],[-96.673160364676789,40.796300675944522],[-96.671383739995875,40.7962648169879],[-96.671430941592774,40.794914651366341],[-96.671478139988466,40.79356448538271],[-96.669701590372782,40.793528602494526],[-96.66974882149573,40.792178437847085],[-96.66797231101144,40.792142529332864],[-96.667925043960494,40.793492692280729],[-96.666148500754048,40.793456754741477],[-96.664371960755872,40.793420789876912],[-96.664419299662057,40.792070630332056],[-96.662642798801826,40.79203463984576],[-96.662595423968398,40.793384797687168],[-96.660818890394054,40.793348778172394],[-96.659042360035272,40.79331273133274],[-96.659089806722463,40.79196257690208],[-96.657313315508176,40.791926504444994],[-96.657360794901678,40.790576351359057],[-96.65913725019189,40.7906124221089],[-96.660913708699582,40.79064846553657],[-96.660961113029629,40.789298308674937],[-96.661008514144825,40.787948151450834],[-96.662784904025756,40.787984164147083],[-96.662832266009119,40.786634004856055],[-96.664608623184677,40.786669988529255],[-96.664561297118837,40.788020149523454],[-96.666337693421625,40.78805610757982],[-96.666384983569699,40.786705944883742],[-96.668161347161771,40.786741873919368],[-96.669937713958419,40.786777775635976],[-96.669984929068036,40.785427609177894],[-96.671761263150813,40.785463481877436],[-96.673537600433065,40.785499327258975],[-96.67349045715585,40.786849497111632],[-96.675266833551746,40.786885316870396],[-96.675313940912389,40.785535145322363],[-96.677090284586356,40.785570936067494],[-96.677043213142511,40.786921109309581],[-96.678819595925745,40.786956874429052],[-96.678866631452522,40.785606699494188],[-96.680642981508456,40.785642435602306],[-96.682419334751742,40.785678144391724],[-96.684195691179923,40.785713825862295],[-96.684148763405801,40.787064005867734],[-96.685925158934509,40.787099661706925],[-96.685972050790596,40.785749480013877],[-96.687748413581318,40.785785106846312],[-96.687701557643521,40.787135290225685],[-96.689477959530393,40.787170891423877],[-96.689524779549672,40.785820706359488],[-96.691301148693185,40.78585627855324],[-96.691347929620932,40.784506091443809],[-96.693124266020632,40.78454163463563],[-96.693077521009485,40.785891823427434],[-96.694853896496085,40.785927340981921],[-96.694900605590405,40.784577150509037],[-96.696676948327834,40.784612639063901],[-96.696630275150582,40.785962831216573],[-96.698406656970548,40.785998294131254],[-96.698360016547582,40.787348487601413],[-96.700136437450567,40.787383924873239],[-96.701912861514401,40.787419334823518],[-96.70186628977325,40.788769531286029],[-96.703642752918398,40.788804915589381],[-96.703596213943939,40.79015511336582],[-96.705372716170899,40.790190472019567],[-96.705326209967993,40.791540671108763],[-96.705279700610802,40.792890869837173],[-96.707056277850739,40.792926204511062]]],[[[-96.705000578214296,40.800992054630811],[-96.706777371089458,40.80102739934037],[-96.706730875593266,40.802377597215965],[-96.706684376943286,40.803727794730797],[-96.704907512170251,40.803692446675463],[-96.704954046770368,40.802342250833547],[-96.705000578214296,40.800992054630811]]],[[[-96.711550909086398,40.81733568029631],[-96.711504483661031,40.818685878855511],[-96.709727213812812,40.818650594449601],[-96.70968074925797,40.820000790978334],[-96.707903446581724,40.819965477549175],[-96.707856942892505,40.821315672045991],[-96.70607960738873,40.821280329591076],[-96.70612614705999,40.81993013676675],[-96.704348850695212,40.819894768631208],[-96.70257155748979,40.81985937314267],[-96.700794267446184,40.819823950301291],[-96.700840911897899,40.818473762141167],[-96.702618165962619,40.81850918330624],[-96.702664771273874,40.817158993108826],[-96.704441992523471,40.817194385247404],[-96.706219216931942,40.817229750035587],[-96.707996444496885,40.817265087473224],[-96.708042938723324,40.815914891894103],[-96.709820133467289,40.815950200310049],[-96.709866588567394,40.81460000269923],[-96.709913040516398,40.813249804727718],[-96.711690166468557,40.813285082454939],[-96.713467295569131,40.813320332835069],[-96.715244427815691,40.813355555867965],[-96.715198083778503,40.814705758844319],[-96.713420915561088,40.814670534144433],[-96.713374532406817,40.816020735093232],[-96.713328146106079,40.817370935681481],[-96.711550909086398,40.81733568029631]]],[[[-96.685127510596416,40.810052695173248],[-96.686904520288408,40.810088352369732],[-96.686951430283131,40.808738175135666],[-96.68872840719726,40.808773803303446],[-96.688681533162409,40.810123982223701],[-96.688634655947993,40.811474160782467],[-96.686857607111648,40.811438529242267],[-96.685080561457582,40.811402870358251],[-96.685033609134067,40.812753045181637],[-96.683256530700419,40.812717357265051],[-96.681479455454166,40.812681642003632],[-96.679702383397753,40.812645899397531],[-96.677925314533553,40.812610129446895],[-96.67797241071267,40.811259961386824],[-96.679749443613332,40.811295729644705],[-96.679796500636911,40.809945559530057],[-96.681573500768238,40.809981298753264],[-96.683350504088878,40.810017010634382],[-96.685127510596416,40.810052695173248]]],[[[-96.67797241071267,40.811259961386824],[-96.676195381006465,40.811224165785845],[-96.67624250995199,40.809873999057899],[-96.678019503697357,40.809909792964888],[-96.67797241071267,40.811259961386824]]],[[[-96.672641331187094,40.811152492555117],[-96.67259412711887,40.81250265552913],[-96.67081707104802,40.812466776201738],[-96.670864311078802,40.811116614925666],[-96.672641331187094,40.811152492555117]]],[[[-96.659632575681073,40.827102563765116],[-96.661410008221239,40.827138625920462],[-96.66136254976594,40.828488774337004],[-96.661315088091058,40.829838922390955],[-96.659537583567868,40.829802856822539],[-96.657760082266947,40.82976676389432],[-96.655982584190696,40.829730643606489],[-96.655935011311257,40.831080786174056],[-96.655887435204448,40.832430928378812],[-96.655839855870013,40.833781070220773],[-96.655792273307711,40.835131211699931],[-96.65574468751727,40.836481352816293],[-96.65752236559122,40.836517481650972],[-96.657474812579252,40.837867624114075],[-96.655697098498464,40.837831493569809],[-96.655649506251038,40.8391816339605],[-96.657427256341123,40.839217766214418],[-96.657379696876561,40.840567907952],[-96.655601910774749,40.840531773988381],[-96.655554312069341,40.841881913653417],[-96.65733213418531,40.841918049326821],[-96.657284568267158,40.843268190338854],[-96.657236999121807,40.844618330988105],[-96.655459104970177,40.844582191894943],[-96.655411496575937,40.845932330471427],[-96.655363884951569,40.847282468685052],[-96.653585921984899,40.84724629879554],[-96.65363356963293,40.845896162293272],[-96.651855645922481,40.84585996674025],[-96.651903326358948,40.844509831587615],[-96.650125441904223,40.844473610373747],[-96.65017315512425,40.843123476571911],[-96.650220865107343,40.841773342407031],[-96.650268571853772,40.840423207879105],[-96.65031627536375,40.839073072988128],[-96.650363975637561,40.837722937734121],[-96.648586274485865,40.837686697721729],[-96.648634007529594,40.836336563819444],[-96.650411672675418,40.836372802117069],[-96.650459366477605,40.835022666137007],[-96.650507057044351,40.833672529793922],[-96.650554744375924,40.832322393087821],[-96.648777187233037,40.832286159934021],[-96.648729463902924,40.833636294925583],[-96.646951873999114,40.833600032694441],[-96.646999633327511,40.832249899418713],[-96.645222082661817,40.832213611542066],[-96.64526987474602,40.830863479620255],[-96.645317663588216,40.829513347335244],[-96.647095142265144,40.829549631777844],[-96.647142891874864,40.828199497412712],[-96.645365449188674,40.828163214687024],[-96.645413231547636,40.82681308167561],[-96.643635828090993,40.826776773310748],[-96.643683643194308,40.825426641654211],[-96.641906278966729,40.825390307652818],[-96.641954126809537,40.824040177352344],[-96.640176801810497,40.824003817717077],[-96.64012891798501,40.825353946296964],[-96.638351560251593,40.825317557586793],[-96.638399480059519,40.823967430728793],[-96.636622161559018,40.82393101638764],[-96.634844846311452,40.823894574693746],[-96.634796854539431,40.825244698104093],[-96.633019506565574,40.825208227331856],[-96.631242161849741,40.825171729205877],[-96.631290225584863,40.823821609248355],[-96.629512920110699,40.823785085497143],[-96.629561016564324,40.822434966904147],[-96.629609109755521,40.82108484794739],[-96.627831879498572,40.821048300303097],[-96.627880005401224,40.819698182711981],[-96.629657199684544,40.819734728626841],[-96.629705286351665,40.818384608942516],[-96.629753369757111,40.8170344888944],[-96.627976247413699,40.8169979464382],[-96.62619912833415,40.816961376636456],[-96.626150972991454,40.818311493224691],[-96.624373821209957,40.818274894345663],[-96.624422012520895,40.81692477948932],[-96.622644899976336,40.816888154996917],[-96.622693123984106,40.81553804150969],[-96.622741344720964,40.814187927658445],[-96.624518385336827,40.814224548684713],[-96.624470200563096,40.815574664268986],[-96.626247280410553,40.815611259684317],[-96.626295429220917,40.814261142368302],[-96.628072476370789,40.814297708709084],[-96.629849526784014,40.814334247706903],[-96.629897600405954,40.812984126567535],[-96.628120585954179,40.812947589298787],[-96.628168692274471,40.811597469524663],[-96.629945670767228,40.811634005064391],[-96.629993737868105,40.810283883197513],[-96.630041801708828,40.808933760966923],[-96.628264895126776,40.808897228885023],[-96.628312991659271,40.807547108019499],[-96.628361084929693,40.806196986790184],[-96.63013791961076,40.806233515414533],[-96.631914757551243,40.806270016703529],[-96.633691598748683,40.806306490657029],[-96.633643613326839,40.807656617068673],[-96.633595624650212,40.809006743116754],[-96.635372541004699,40.809043193184408],[-96.637149460611781,40.809079615913681],[-96.638926383469041,40.809116011304447],[-96.640703309574064,40.809152379356547],[-96.640655461463467,40.810502511933294],[-96.640607610107295,40.811852644146711],[-96.642384611371838,40.811888988299749],[-96.644161615879739,40.811925305111245],[-96.644113833199555,40.813275440399991],[-96.644066047278159,40.814625575325557],[-96.645843126951974,40.814661868230218],[-96.645795373755263,40.8160120045101],[-96.647572492634453,40.816048271786585],[-96.647620209864769,40.814698133790486],[-96.649397296014158,40.8147343720062],[-96.651174385397681,40.814770582877209],[-96.652951478012895,40.814806766403379],[-96.654728573857383,40.814842922584575],[-96.65468100049506,40.816193067432692],[-96.656458135533995,40.816229197978529],[-96.656505672928702,40.81487905142064],[-96.65655320709898,40.813528904500011],[-96.656600738045128,40.812178757216678],[-96.658377768412407,40.812214855290712],[-96.660154802001145,40.812250926021925],[-96.660107342981249,40.813601076720651],[-96.66188441575251,40.813637121814651],[-96.661836989479283,40.81498727385663],[-96.660059880742068,40.814951227056802],[-96.660012415283376,40.816301377030371],[-96.659964946604902,40.817651526641349],[-96.658187769148569,40.817615449081522],[-96.658140261277069,40.818965596622576],[-96.658092750182888,40.820315743800961],[-96.659869999587642,40.8203518247755],[-96.659822521248358,40.821701973298666],[-96.658045235865728,40.821665890616657],[-96.65799771832539,40.823016037069671],[-96.659775039688299,40.823052121459213],[-96.659727554907235,40.824402269257149],[-96.66150491547414,40.824438327999673],[-96.663282279259874,40.824474359387459],[-96.663234863228624,40.825824510234213],[-96.661457463457225,40.825788477141344],[-96.659680066904912,40.825752416692445],[-96.659632575681073,40.827102563765116]],[[-96.631818711550778,40.808970265710876],[-96.631866736179617,40.80762014138903],[-96.630089862289623,40.807583638372584],[-96.630041801708828,40.808933760966923],[-96.631818711550778,40.808970265710876]],[[-96.642288970845783,40.814589255076626],[-96.642241145717094,40.815939387920153],[-96.644018258115338,40.815975709887901],[-96.644066047278159,40.814625575325557],[-96.642288970845783,40.814589255076626]],[[-96.633211598034535,40.81980773841159],[-96.633259612758536,40.818457615272415],[-96.631482447925478,40.818421125781022],[-96.63143439722981,40.819771247193422],[-96.633211598034535,40.81980773841159]]],[[[-96.646606737763946,40.793059638370295],[-96.644830233217235,40.793023372936688],[-96.644877967309498,40.79167323220075],[-96.643101501924761,40.791636941161201],[-96.643053731907969,40.792987080179493],[-96.641277233838593,40.792950760098861],[-96.639500739011524,40.792914412694905],[-96.637724247429219,40.792878037967796],[-96.63594775909408,40.792841635917661],[-96.634171274008537,40.792805206544664],[-96.632394792175049,40.792768749848932],[-96.630618313596017,40.792732265830615],[-96.630666335077464,40.791382138872024],[-96.628889895677858,40.791345629259254],[-96.6288418382739,40.79269575448987],[-96.627065366211113,40.792659215826824],[-96.627113459537327,40.791309092325477],[-96.627161549602036,40.789958968460361],[-96.628937949822728,40.789995503664933],[-96.630714353302224,40.790032011549798],[-96.632490760038138,40.790068492114798],[-96.634267170028025,40.790104945359808],[-96.636043583269455,40.790141371284655],[-96.636091490483352,40.788791238423002],[-96.637867871055221,40.788827635304898],[-96.637819999759984,40.790177769889233],[-96.639596419497181,40.790214141173358],[-96.639644254873531,40.788864004867648],[-96.641420641935824,40.78890034711111],[-96.641372842478646,40.790250485136923],[-96.643149268701919,40.790286801779743],[-96.643197032239698,40.788936662035134],[-96.644973425782695,40.788972949639586],[-96.64492569816457,40.790323091101719],[-96.646702130864185,40.790359353102673],[-96.648478566798303,40.790395587782463],[-96.650255005964524,40.790431795140961],[-96.650207382877198,40.791781941384983],[-96.648430907788153,40.791745732312783],[-96.648383245545659,40.793095876480152],[-96.646606737763946,40.793059638370295]]],[[[-96.625770043045009,40.779121415761097],[-96.625721943163256,40.780471540806346],[-96.623945800834832,40.780434963083337],[-96.623993936616486,40.779084839769311],[-96.625770043045009,40.779121415761097]]],[[[-96.617555208714464,40.810027572406455],[-96.619332131638572,40.810064270249541],[-96.621109057837444,40.810100940754268],[-96.621060810956223,40.811451053963488],[-96.622837776382994,40.81148769886385],[-96.62461474507991,40.81152431642424],[-96.624566566842361,40.81287443273645],[-96.62278956218718,40.812837813443153],[-96.622741344720964,40.814187927658445],[-96.620964307375758,40.814151279289661],[-96.619187273303623,40.814114603578496],[-96.619138980641267,40.815464713959805],[-96.619090684703139,40.816814823976955],[-96.61731358197936,40.816778117449665],[-96.61553648253404,40.816741383577721],[-96.613759386369608,40.816704622361243],[-96.613807790201392,40.815354517558895],[-96.612030733284328,40.815317730738904],[-96.61207916979464,40.813967627312977],[-96.610302152124461,40.813930814892117],[-96.610253679652786,40.815280916575972],[-96.610205203893173,40.816631017895304],[-96.60842811758603,40.816594174646148],[-96.608379602572256,40.817944273857449],[-96.608331084267604,40.819294372704142],[-96.606553929317201,40.819257498621383],[-96.606505371750814,40.820607595358517],[-96.604728184123672,40.820570692183146],[-96.604776777660405,40.819220597192221],[-96.604825367901114,40.817870501836559],[-96.603048255507971,40.817833574808638],[-96.603096878418128,40.816483480835622],[-96.603145498030386,40.815133386497777],[-96.601368460862886,40.81509643562233],[-96.601319805288128,40.816446528211564],[-96.599542735458485,40.816409548244181],[-96.599591426995516,40.81505945740485],[-96.599640115230017,40.81370936620057],[-96.601417113137543,40.813746342668232],[-96.603194114344944,40.81378329179514],[-96.604971118849761,40.813820213581117],[-96.605019695908993,40.812470116766512],[-96.605068269673495,40.811120019587165],[-96.606845205559409,40.811156910540404],[-96.608622144737382,40.811193774155022],[-96.610399087204982,40.811230610430847],[-96.612176032959752,40.811267419367752],[-96.612224459615049,40.809917314848505],[-96.614001372700272,40.80995409470578],[-96.613952981999276,40.811304200965616],[-96.615729934321124,40.81134095522426],[-96.615778289067549,40.809990847225151],[-96.617555208714464,40.810027572406455]]],[[[-96.6263435747655,40.812911024688376],[-96.626295429220917,40.814261142368302],[-96.624518385336827,40.814224548684713],[-96.624566566842361,40.81287443273645],[-96.6263435747655,40.812911024688376]]]]}}
]
}
