{
"type": "FeatureCollection",
"name": "bryan-east__wk_2100",
"crs": { "type": "name", "properties": { "name": "urn:ogc:def:crs:OGC:1.3:CRS84" } },
"features": [
{"type":"Feature","properties":{"band":15},"geometry":{"type":"Polygon","coordinates":[[[-96.660771476418063,40.794698933946584],[-96.660724059226254,40.796049089358277],[-96.658947457006676,40.796013039106356],[-96.658900000664772,40.797363192449325],[-96.660676638818401,40.797399244407472],[-96.66245328018833,40.797435269036868],[-96.6624058925009,40.798785425428562],[-96.662358501599329,40.800135581457802],[-96.66231110748339,40.801485737124615],[-96.660534358295976,40.801449707380002],[-96.658757612325601,40.801413650302749],[-96.656980869574724,40.801377565892999],[-96.65520413004576,40.801341454150894],[-96.655156588940585,40.802691602626645],[-96.655109044610811,40.804041750739657],[-96.655061497056195,40.805391898489916],[-96.653284652915175,40.805355754284264],[-96.653237066185127,40.806705899961216],[-96.65146018932154,40.806669726707732],[-96.651507812001682,40.805319582742683],[-96.65155543145184,40.80396943841474],[-96.649778629715712,40.803933241250448],[-96.648001831211715,40.803897016751797],[-96.646225035942308,40.80386076491893],[-96.646272759996933,40.802510625371077],[-96.646320480814808,40.801160485460144],[-96.644543760668427,40.801124209726972],[-96.644591514189131,40.799774071169729],[-96.644639264471152,40.798423932249364],[-96.646415912741247,40.798460204549087],[-96.648192564247353,40.798496449519902],[-96.648240239421682,40.797146306804429],[-96.648287911362672,40.795796163725981],[-96.648335580070594,40.794446020284546],[-96.648383245545659,40.793095876480152],[-96.650159756559987,40.793132087266123],[-96.65193627080447,40.793168270728081],[-96.651983861196172,40.791818123134448],[-96.653760342742601,40.791854277561043],[-96.655536827514084,40.791890404664606],[-96.657313315508176,40.791926504444994],[-96.657265832894495,40.793276657168327],[-96.657218347060379,40.794626809529028],[-96.658994910130104,40.794662885400825],[-96.660771476418063,40.794698933946584]]]}}
]
}
