{
"type": "FeatureCollection",
"name": "bryan-east__wk_1900",
"crs": { "type": "name", "properties": { "name": "urn:ogc:def:crs:OGC:1.3:CRS84" } },
"features": [
{"type":"Feature","properties":{"band":15},"geometry":{"type":"Polygon","coordinates":[[[-96.660771476418063,40.794698933946584],[-96.660724059226254,40.796049089358277],[-96.658947457006676,40.796013039106356],[-96.658900000664772,40.797363192449325],[-96.660676638818401,40.797399244407472],[-96.66245328018833,40.797435269036868],[-96.6624058925009,40.798785425428562],[-96.662358501599329,40.800135581457802],[-96.66231110748339,40.801485737124615],[-96.660534358295976,40.801449707380002],[-96.658757612325601,40.801413650302749],[-96.656980869574724,40.801377565892999],[-96.65520413004576,40.801341454150894],[-96.655156588940585,40.802691602626645],[-96.655109044610811,40.804041750739657],[-96.655061497056195,40.805391898489916],[-96.653284652915175,40.805355754284264],[-96.653237066185127,40.806705899961216],[-96.65146018932154,40.806669726707732],[-96.651507812001682,40.805319582742683],[-96.65155543145184,40.80396943841474],[-96.649778629715712,40.803933241250448],[-96.648001831211715,40.803897016751797],[-96.646225035942308,40.80386076491893],[-96.646272759996933,40.802510625371077],[-96.646320480814808,40.801160485460144],[-96.644543760668427,40.801124209726972],[-96.644591514189131,40.799774071169729],[-96.644639264471152,40.798423932249364],[-96.646415912741247,40.798460204549087],[-96.648192564247353,40.798496449519902],[-96.648240239421682,40.797146306804429],[-96.648287911362672,40.795796163725981],[-96.648335580070594,40.794446020284546],[-96.648383245545659,40.793095876480152],[-96.650159756559987,40.793132087266123],[-96.65193627080447,40.793168270728081],[-96.651983861196172,40.791818123134448],[-96.653760342742601,40.791854277561043],[-96.655536827514084,40.791890404664606],[-96.657313315508176,40.791926504444994],[-96.657265832894495,40.793276657168327],[-96.657218347060379,40.794626809529028],[-96.658994910130104,40.794662885400825],[-96.660771476418063,40.794698933946584]]]}},
{"type":"Feature","properties":{"band":30},"geometry":{"type":"MultiPolygon","coordinates":[[[[-96.70140039859568,40.802271476060291],[-96.701353792095972,40.803621668552495],[-96.701307182434931,40.804971860683729],[-96.703084076844718,40.805007265089444],[-96.703037499976645,40.806357458535324],[-96.701260569612316,40.806322052453972],[-96.701213953627885,40.807672243863237],[-96.699436990468641,40.80763680876511],[-96.699390335362992,40.808986998136319],[-96.701167334481397,40.809022434911505],[-96.70112071217261,40.810372625598781],[-96.702897750415161,40.810408036707436],[-96.702851160908097,40.811758228709607],[-96.704628238275262,40.811793614149074],[-96.704581681574808,40.813143807464982],[-96.70280456824068,40.813108420350837],[-96.702757972412655,40.814458611631132],[-96.700980826269998,40.81442319549457],[-96.699203683290605,40.814387752010461],[-96.699157012358839,40.815737939576294],[-96.697379836574058,40.815702467066124],[-96.695602663957672,40.815666967207399],[-96.695649406831379,40.814316783000237],[-96.693872273356419,40.814281257474377],[-96.693919049027713,40.812931074587198],[-96.693965821526234,40.811580891338735],[-96.692188763157716,40.811545341830836],[-96.692235568446762,40.810195159903472],[-96.690458549216018,40.81015958473499],[-96.688681533162409,40.810123982223701],[-96.68872840719726,40.808773803303446],[-96.686951430283131,40.808738175135666],[-96.686904520288408,40.810088352369732],[-96.685127510596416,40.810052695173248],[-96.683350504088878,40.810017010634382],[-96.681573500768238,40.809981298753264],[-96.679796500636911,40.809945559530057],[-96.679749443613332,40.811295729644705],[-96.67797241071267,40.811259961386824],[-96.678019503697357,40.809909792964888],[-96.67624250995199,40.809873999057899],[-96.676195381006465,40.811224165785845],[-96.674418354497121,40.811188342841895],[-96.674371186391681,40.812538507512542],[-96.67259412711887,40.81250265552913],[-96.672641331187094,40.811152492555117],[-96.670864311078802,40.811116614925666],[-96.669087294174687,40.811080709953671],[-96.669040018181619,40.812430869530509],[-96.667262968522067,40.812394935515599],[-96.667310280477196,40.811044777639282],[-96.667357589223272,40.809694619400688],[-96.665580614694193,40.809658661445781],[-96.665533269988742,40.811008817982639],[-96.663756262711772,40.810972830983886],[-96.66380364337634,40.809622676150077],[-96.662026675272159,40.809586663513684],[-96.661979258648714,40.810936816643164],[-96.660202257802013,40.810900774960615],[-96.660154802001145,40.812250926021925],[-96.658377768412407,40.812214855290712],[-96.656600738045128,40.812178757216678],[-96.656648265767373,40.810828609570635],[-96.654871274584323,40.810792485863466],[-96.653094286627351,40.810756334815061],[-96.653141883041457,40.809406190226618],[-96.651364934270404,40.809370013549184],[-96.651412563411213,40.808019870309899],[-96.649635653825555,40.807983668006109],[-96.649683315688165,40.806633526117174],[-96.647906445287433,40.806597298189679],[-96.647954139866982,40.805247157652246],[-96.646177308650678,40.805210904103696],[-96.646225035942308,40.80386076491893],[-96.648001831211715,40.803897016751797],[-96.649778629715712,40.803933241250448],[-96.65155543145184,40.80396943841474],[-96.651507812001682,40.805319582742683],[-96.65146018932154,40.806669726707732],[-96.653237066185127,40.806705899961216],[-96.653284652915175,40.805355754284264],[-96.655061497056195,40.805391898489916],[-96.655109044610811,40.804041750739657],[-96.655156588940585,40.802691602626645],[-96.65520413004576,40.801341454150894],[-96.656980869574724,40.801377565892999],[-96.658757612325601,40.801413650302749],[-96.658710143107243,40.802763802195386],[-96.660486925021402,40.802799860979142],[-96.660534358295976,40.801449707380002],[-96.66231110748339,40.801485737124615],[-96.662358501599329,40.800135581457802],[-96.6624058925009,40.798785425428562],[-96.664182573021677,40.798821424432759],[-96.664135218059528,40.800171582165795],[-96.664087859885427,40.801521739536462],[-96.665864615499643,40.801557714615377],[-96.66591193773165,40.800207555542151],[-96.667688660613294,40.800243501586728],[-96.669465386701987,40.80027942029939],[-96.671242115995341,40.800315311679995],[-96.673018848490884,40.80035117572838],[-96.674795584186214,40.800387012444453],[-96.676572323078872,40.800422821828008],[-96.678349065166458,40.800458603878944],[-96.678301994535971,40.801808774833923],[-96.680078775760066,40.801844531244306],[-96.681855560174455,40.801880260320495],[-96.681902558916576,40.800530085982352],[-96.683679310574263,40.800565786034532],[-96.685456065417128,40.800601458753519],[-96.685502989087169,40.799251280675819],[-96.687279711170163,40.799286924374478],[-96.687326595717536,40.797936744248283],[-96.68910328504019,40.797972358929115],[-96.689056436433233,40.799322540740945],[-96.690833164873922,40.799358129775072],[-96.69078634903245,40.800708312909876],[-96.692563116591671,40.800743876294653],[-96.694339887323935,40.800779412345527],[-96.694386631278476,40.799429225845778],[-96.696163369237468,40.799464732882072],[-96.696116661226739,40.800814921062347],[-96.697893438297697,40.800850402444979],[-96.697846763065328,40.802200591943411],[-96.699623579248751,40.80223604766973],[-96.70140039859568,40.802271476060291]]],[[[-96.70472134220266,40.809093226434648],[-96.706498350800672,40.809128581182314],[-96.706451836378122,40.81047877689322],[-96.704674791817794,40.810443420472303],[-96.70472134220266,40.809093226434648]]]]}},
{"type":"Feature","properties":{"band":45},"geometry":{"type":"MultiPolygon","coordinates":[[[[-96.704907512170251,40.803692446675463],[-96.706684376943286,40.803727794730797],[-96.706637875139279,40.805077991884851],[-96.708414779019179,40.805113314274266],[-96.710191686050919,40.805148609324633],[-96.710145253003418,40.806498809460123],[-96.711922199140318,40.806534078840471],[-96.711875798901346,40.807884280284554],[-96.71182939551494,40.809234481368051],[-96.713606416718321,40.809269726743736],[-96.713560046147506,40.81061992913471],[-96.713513672431191,40.811970131165154],[-96.713467295569131,40.813320332835069],[-96.713420915561088,40.814670534144433],[-96.711643750489912,40.814635282096027],[-96.711597331362597,40.815985481376472],[-96.711550909086398,40.81733568029631],[-96.709773675215857,40.817300397560182],[-96.709727213812812,40.818650594449601],[-96.711504483661031,40.818685878855511],[-96.711458055086268,40.820036077054077],[-96.70968074925797,40.820000790978334],[-96.707903446581724,40.819965477549175],[-96.707856942892505,40.821315672045991],[-96.70607960738873,40.821280329591076],[-96.706033064560259,40.822630522054531],[-96.704255696229424,40.82259515057136],[-96.704302275042124,40.82124495978173],[-96.702524945855146,40.821209562618129],[-96.702478331058444,40.822559751732591],[-96.702431713099443,40.823909940486068],[-96.702385091977888,40.825260128878561],[-96.700607657994382,40.825224699331287],[-96.700654315104558,40.823874512615376],[-96.700700969049763,40.822524325538396],[-96.70074761983021,40.821174138100375],[-96.69897029696979,40.821138686228622],[-96.69892361020581,40.822488871988924],[-96.697146254529045,40.822453391084295],[-96.695368902021883,40.822417882824652],[-96.695415660752161,40.821067700423697],[-96.693638347399826,40.821032166490809],[-96.691861037221727,40.820996605204485],[-96.691907864740642,40.819646425806653],[-96.691954689083133,40.818296246047431],[-96.69200151024944,40.816946065926849],[-96.692048328239807,40.815595885444885],[-96.690271165143216,40.815560303541375],[-96.68849400522474,40.815524694289891],[-96.686716848486824,40.815489057690563],[-96.686763771211105,40.814138881902686],[-96.688540891979386,40.814174516815577],[-96.688587775553728,40.812824338979759],[-96.690364863534882,40.81285994486101],[-96.690411707964159,40.811509764978702],[-96.688634655947993,40.811474160782467],[-96.686857607111648,40.811438529242267],[-96.685080561457582,40.811402870358251],[-96.685033609134067,40.812753045181637],[-96.683256530700419,40.812717357265051],[-96.681479455454166,40.812681642003632],[-96.679702383397753,40.812645899397531],[-96.677925314533553,40.812610129446895],[-96.67797241071267,40.811259961386824],[-96.679749443613332,40.811295729644705],[-96.679796500636911,40.809945559530057],[-96.681573500768238,40.809981298753264],[-96.683350504088878,40.810017010634382],[-96.685127510596416,40.810052695173248],[-96.686904520288408,40.810088352369732],[-96.686951430283131,40.808738175135666],[-96.68872840719726,40.808773803303446],[-96.688681533162409,40.810123982223701],[-96.690458549216018,40.81015958473499],[-96.692235568446762,40.810195159903472],[-96.692188763157716,40.811545341830836],[-96.693965821526234,40.811580891338735],[-96.693919049027713,40.812931074587198],[-96.693872273356419,40.814281257474377],[-96.695649406831379,40.814316783000237],[-96.695602663957672,40.815666967207399],[-96.697379836574058,40.815702467066124],[-96.699157012358839,40.815737939576294],[-96.699203683290605,40.814387752010461],[-96.700980826269998,40.81442319549457],[-96.702757972412655,40.814458611631132],[-96.70280456824068,40.813108420350837],[-96.704581681574808,40.813143807464982],[-96.704628238275262,40.811793614149074],[-96.702851160908097,40.811758228709607],[-96.702897750415161,40.810408036707436],[-96.70112071217261,40.810372625598781],[-96.701167334481397,40.809022434911505],[-96.699390335362992,40.808986998136319],[-96.699436990468641,40.80763680876511],[-96.701213953627885,40.807672243863237],[-96.701260569612316,40.806322052453972],[-96.703037499976645,40.806357458535324],[-96.703084076844718,40.805007265089444],[-96.701307182434931,40.804971860683729],[-96.701353792095972,40.803621668552495],[-96.70140039859568,40.802271476060291],[-96.699623579248751,40.80223604766973],[-96.697846763065328,40.802200591943411],[-96.697893438297697,40.800850402444979],[-96.696116661226739,40.800814921062347],[-96.696163369237468,40.799464732882072],[-96.694386631278476,40.799429225845778],[-96.694339887323935,40.800779412345527],[-96.692563116591671,40.800743876294653],[-96.69078634903245,40.800708312909876],[-96.690833164873922,40.799358129775072],[-96.689056436433233,40.799322540740945],[-96.68910328504019,40.797972358929115],[-96.687326595717536,40.797936744248283],[-96.687279711170163,40.799286924374478],[-96.685502989087169,40.799251280675819],[-96.685456065417128,40.800601458753519],[-96.683679310574263,40.800565786034532],[-96.681902558916576,40.800530085982352],[-96.681855560174455,40.801880260320495],[-96.680078775760066,40.801844531244306],[-96.678301994535971,40.801808774833923],[-96.678349065166458,40.800458603878944],[-96.676572323078872,40.800422821828008],[-96.674795584186214,40.800387012444453],[-96.673018848490884,40.80035117572838],[-96.671242115995341,40.800315311679995],[-96.669465386701987,40.80027942029939],[-96.667688660613294,40.800243501586728],[-96.66591193773165,40.800207555542151],[-96.665864615499643,40.801557714615377],[-96.664087859885427,40.801521739536462],[-96.664135218059528,40.800171582165795],[-96.664182573021677,40.798821424432759],[-96.6624058925009,40.798785425428562],[-96.66245328018833,40.797435269036868],[-96.660676638818401,40.797399244407472],[-96.658900000664772,40.797363192449325],[-96.658947457006676,40.796013039106356],[-96.660724059226254,40.796049089358277],[-96.660771476418063,40.794698933946584],[-96.660818890394054,40.793348778172394],[-96.662595423968398,40.793384797687168],[-96.662642798801826,40.79203463984576],[-96.664419299662057,40.792070630332056],[-96.664371960755872,40.793420789876912],[-96.666148500754048,40.793456754741477],[-96.667925043960494,40.793492692280729],[-96.669701590372782,40.793528602494526],[-96.669654356046422,40.79487876677981],[-96.671430941592774,40.794914651366341],[-96.671383739995875,40.7962648169879],[-96.673160364676789,40.796300675944522],[-96.674936992556752,40.796336507572661],[-96.67498412228673,40.794986338558168],[-96.675031248820346,40.793636169181717],[-96.676807808031668,40.793671970092234],[-96.67676071742946,40.795022141163159],[-96.678537315766107,40.795057916440697],[-96.678584370436667,40.793707743676585],[-96.680360936032912,40.793743489934634],[-96.682137504817959,40.793779208866212],[-96.683914076789407,40.79381490047119],[-96.685690651944796,40.793850564749434],[-96.687467230281698,40.793886201700793],[-96.687514102111251,40.792536020128694],[-96.689290647696566,40.792571628067655],[-96.691067196458263,40.792607208680757],[-96.69102039649033,40.793957393622307],[-96.692796984357201,40.793992948592177],[-96.69457357539585,40.794028476234594],[-96.694620303501182,40.79267828792878],[-96.696396861777529,40.792713786563404],[-96.698173423220553,40.792749257871598],[-96.698126766978788,40.794099449536517],[-96.699903367518203,40.794134895195754],[-96.699856744046528,40.795485088177266],[-96.701633383682832,40.795520508184879],[-96.70158679298612,40.796870702481854],[-96.703363471719797,40.796906096835194],[-96.703316913802894,40.798256292446453],[-96.70509363163444,40.798291661142841],[-96.705047106502235,40.79964185806724],[-96.705000578214296,40.800992054630811],[-96.704954046770368,40.802342250833547],[-96.704907512170251,40.803692446675463]],[[-96.70472134220266,40.809093226434648],[-96.704674791817794,40.810443420472303],[-96.706451836378122,40.81047877689322],[-96.706498350800672,40.809128581182314],[-96.70472134220266,40.809093226434648]]],[[[-96.688306426398,40.820925400572108],[-96.686529125757232,40.82088975722634],[-96.686576061214978,40.819539582884765],[-96.688353325876378,40.819575224543819],[-96.69013059371909,40.819610838851162],[-96.690083730220309,40.82096101656488],[-96.688306426398,40.820925400572108]]],[[[-96.67624250995199,40.809873999057899],[-96.678019503697357,40.809909792964888],[-96.67797241071267,40.811259961386824],[-96.676195381006465,40.811224165785845],[-96.67624250995199,40.809873999057899]]],[[[-96.672641331187094,40.811152492555117],[-96.67259412711887,40.81250265552913],[-96.67081707104802,40.812466776201738],[-96.670864311078802,40.811116614925666],[-96.672641331187094,40.811152492555117]]],[[[-96.648287911362672,40.795796163725981],[-96.648240239421682,40.797146306804429],[-96.646463623850323,40.797110063548956],[-96.646415912741247,40.798460204549087],[-96.644639264471152,40.798423932249364],[-96.644591514189131,40.799774071169729],[-96.644543760668427,40.801124209726972],[-96.646320480814808,40.801160485460144],[-96.646272759996933,40.802510625371077],[-96.646225035942308,40.80386076491893],[-96.646177308650678,40.805210904103696],[-96.644400480671607,40.805174623219784],[-96.642623655932255,40.805138315000654],[-96.64084683443501,40.805101979446455],[-96.640894669565867,40.803751845416485],[-96.640942501452429,40.802401711023244],[-96.639165755089138,40.802365351575745],[-96.639117887259104,40.803715484248208],[-96.637341108199081,40.803679095746439],[-96.635564332388228,40.803642679911306],[-96.633787559828988,40.803606236742979],[-96.633739580915986,40.804956363881786],[-96.631962775665869,40.804919891654379],[-96.630185973672496,40.804883392092762],[-96.63013791961076,40.806233515414533],[-96.628361084929693,40.806196986790184],[-96.628312991659271,40.807547108019499],[-96.628264895126776,40.808897228885023],[-96.630041801708828,40.808933760966923],[-96.629993737868105,40.810283883197513],[-96.629945670767228,40.811634005064391],[-96.628168692274471,40.811597469524663],[-96.628120585954179,40.812947589298787],[-96.629897600405954,40.812984126567535],[-96.629849526784014,40.814334247706903],[-96.628072476370789,40.814297708709084],[-96.626295429220917,40.814261142368302],[-96.6263435747655,40.812911024688376],[-96.624566566842361,40.81287443273645],[-96.62461474507991,40.81152431642424],[-96.622837776382994,40.81148769886385],[-96.621060810956223,40.811451053963488],[-96.621109057837444,40.810100940754268],[-96.619332131638572,40.810064270249541],[-96.619380411200368,40.808714158411583],[-96.619428687487641,40.807364046209486],[-96.619476960500648,40.80601393364325],[-96.61952523023966,40.804663820712868],[-96.619573496704916,40.803313707418376],[-96.617796753519627,40.803277018257745],[-96.617845052651859,40.80192690633541],[-96.617893348508389,40.800576794048887],[-96.61967001981516,40.800613479737024],[-96.619718276460659,40.799263365350185],[-96.621494915104591,40.799300021974176],[-96.62154313254392,40.797949905488458],[-96.623319738524486,40.797986533050768],[-96.623367916762504,40.796636414467606],[-96.623416091733148,40.795286295520491],[-96.623464263436645,40.793936176209435],[-96.625240764897669,40.793972771248548],[-96.627017269623138,40.794009338964365],[-96.626969169773147,40.795359461738116],[-96.628745713687763,40.795396003859906],[-96.628793777610625,40.794045879356744],[-96.630570288857697,40.794082392425551],[-96.632346803361912,40.794118878170615],[-96.632394792175049,40.792768749848932],[-96.634171274008537,40.792805206544664],[-96.634123321120867,40.794155336591821],[-96.63589984213209,40.794191767688993],[-96.635851921920263,40.795541899096875],[-96.637628482109747,40.795578304592837],[-96.63940504554688,40.795614682763208],[-96.639452893901705,40.794264547910714],[-96.639500739011524,40.792914412694905],[-96.641277233838593,40.792950760098861],[-96.641229424655222,40.794300897034965],[-96.643005958651301,40.794337218834613],[-96.643053731907969,40.792987080179493],[-96.643101501924761,40.791636941161201],[-96.644877967309498,40.79167323220075],[-96.644830233217235,40.793023372936688],[-96.646606737763946,40.793059638370295],[-96.64655903636141,40.794409780459553],[-96.648335580070594,40.794446020284546],[-96.648287911362672,40.795796163725981]],[[-96.64651133172363,40.795759922185781],[-96.644734755320087,40.795723653319257],[-96.644687011514719,40.797073792965875],[-96.646463623850323,40.797110063548956],[-96.64651133172363,40.795759922185781]]],[[[-96.657265832894495,40.793276657168327],[-96.659042360035272,40.79331273133274],[-96.658994910130104,40.794662885400825],[-96.657218347060379,40.794626809529028],[-96.657265832894495,40.793276657168327]]],[[[-96.660534358295976,40.801449707380002],[-96.660486925021402,40.802799860979142],[-96.658710143107243,40.802763802195386],[-96.658757612325601,40.801413650302749],[-96.660534358295976,40.801449707380002]]],[[[-96.624518385336827,40.814224548684713],[-96.622741344720964,40.814187927658445],[-96.62278956218718,40.812837813443153],[-96.624566566842361,40.81287443273645],[-96.624518385336827,40.814224548684713]]],[[[-96.626247280410553,40.815611259684317],[-96.624470200563096,40.815574664268986],[-96.624518385336827,40.814224548684713],[-96.626295429220917,40.814261142368302],[-96.626247280410553,40.815611259684317]]]]}},
{"type":"Feature","properties":{"band":60},"geometry":{"type":"MultiPolygon","coordinates":[[[[-96.708414779019179,40.805113314274266],[-96.706637875139279,40.805077991884851],[-96.706684376943286,40.803727794730797],[-96.704907512170251,40.803692446675463],[-96.704954046770368,40.802342250833547],[-96.705000578214296,40.800992054630811],[-96.706777371089458,40.80102739934037],[-96.706730875593266,40.802377597215965],[-96.708507707569936,40.802412916262071],[-96.710284542697963,40.802448207971707],[-96.710238115949025,40.803798408828477],[-96.710191686050919,40.805148609324633],[-96.708414779019179,40.805113314274266]]],[[[-96.710145253003418,40.806498809460123],[-96.710191686050919,40.805148609324633],[-96.711968596232055,40.805183877035802],[-96.713745509560169,40.805219117407646],[-96.713699148424411,40.806569320880193],[-96.711922199140318,40.806534078840471],[-96.710145253003418,40.806498809460123]]],[[[-96.713652784143875,40.807919523992219],[-96.713606416718321,40.809269726743736],[-96.71182939551494,40.809234481368051],[-96.711875798901346,40.807884280284554],[-96.713652784143875,40.807919523992219]]],[[[-96.715059032803183,40.818756365610419],[-96.713281756658631,40.818721135909158],[-96.713235364064204,40.820071335776277],[-96.711458055086268,40.820036077054077],[-96.711504483661031,40.818685878855511],[-96.709727213812812,40.818650594449601],[-96.709773675215857,40.817300397560182],[-96.711550909086398,40.81733568029631],[-96.711597331362597,40.815985481376472],[-96.711643750489912,40.814635282096027],[-96.713420915561088,40.814670534144433],[-96.713467295569131,40.813320332835069],[-96.713513672431191,40.811970131165154],[-96.715290768709352,40.812005352531138],[-96.715244427815691,40.813355555867965],[-96.715198083778503,40.814705758844319],[-96.715151736597505,40.816055961460187],[-96.715105386272469,40.817406163715553],[-96.715059032803183,40.818756365610419]]],[[[-96.688587775553728,40.812824338979759],[-96.688540891979386,40.814174516815577],[-96.686763771211105,40.814138881902686],[-96.686716848486824,40.815489057690563],[-96.68849400522474,40.815524694289891],[-96.690271165143216,40.815560303541375],[-96.692048328239807,40.815595885444885],[-96.69200151024944,40.816946065926849],[-96.691954689083133,40.818296246047431],[-96.691907864740642,40.819646425806653],[-96.691861037221727,40.820996605204485],[-96.693638347399826,40.821032166490809],[-96.695415660752161,40.821067700423697],[-96.695368902021883,40.822417882824652],[-96.697146254529045,40.822453391084295],[-96.69892361020581,40.822488871988924],[-96.69897029696979,40.821138686228622],[-96.70074761983021,40.821174138100375],[-96.700700969049763,40.822524325538396],[-96.700654315104558,40.823874512615376],[-96.700607657994382,40.825224699331287],[-96.702385091977888,40.825260128878561],[-96.702338467693551,40.826610316910049],[-96.700560997718981,40.826574885686128],[-96.698783530909878,40.82653942710305],[-96.698736831475742,40.827889611418819],[-96.696959331841526,40.827854123797415],[-96.696912593243781,40.829204306072683],[-96.695135060784949,40.82916878941046],[-96.69518183537788,40.827818608815846],[-96.695228606797812,40.82646842785995],[-96.695275375044943,40.825118246542793],[-96.693497953736951,40.825082707564867],[-96.691720535603949,40.825047141229646],[-96.691673695376863,40.826397319181886],[-96.689896244431651,40.826361723805086],[-96.68984936503486,40.827711899711453],[-96.68980248245775,40.829062075256353],[-96.688024962706606,40.829026449149637],[-96.687978040952245,40.830376622647151],[-96.686200488387684,40.830340967492496],[-96.686153527451197,40.831691138941181],[-96.684375942073714,40.831655454736072],[-96.684328941950241,40.833005624134508],[-96.682551323760336,40.832969910876415],[-96.680773708761507,40.832934170254106],[-96.680726633443143,40.834284335909594],[-96.67894898563506,40.834248566230656],[-96.67717134102314,40.834212769186486],[-96.67539369960987,40.834176944777234],[-96.675440882935732,40.832826784203306],[-96.673663280725521,40.832790934125562],[-96.673616061397638,40.834141093003034],[-96.671838426388902,40.834105213864056],[-96.671885681718564,40.832755056684306],[-96.671932933842527,40.83140489914237],[-96.670155374040348,40.831368996036709],[-96.670108085917306,40.832719151879694],[-96.668330493324163,40.832683219711846],[-96.666552903941579,40.832647260180927],[-96.6665055406081,40.833997412259713],[-96.666458174061376,40.835347563976107],[-96.664680515887795,40.835311573676378],[-96.664727918437748,40.833961423662956],[-96.662950299483086,40.833925407702111],[-96.661172683746528,40.833889364377335],[-96.661220155081608,40.832539217411131],[-96.65944257856566,40.832503148429339],[-96.659490082678019,40.831153002807277],[-96.657712545382168,40.831116908171111],[-96.657760082266947,40.82976676389432],[-96.655982584190696,40.829730643606489],[-96.655935011311257,40.831080786174056],[-96.655887435204448,40.832430928378812],[-96.655839855870013,40.833781070220773],[-96.655792273307711,40.835131211699931],[-96.65574468751727,40.836481352816293],[-96.65752236559122,40.836517481650972],[-96.657474812579252,40.837867624114075],[-96.655697098498464,40.837831493569809],[-96.655649506251038,40.8391816339605],[-96.657427256341123,40.839217766214418],[-96.657379696876561,40.840567907952],[-96.655601910774749,40.840531773988381],[-96.655554312069341,40.841881913653417],[-96.65733213418531,40.841918049326821],[-96.657284568267158,40.843268190338854],[-96.657236999121807,40.844618330988105],[-96.655459104970177,40.844582191894943],[-96.655411496575937,40.845932330471427],[-96.655363884951569,40.847282468685052],[-96.653585921984899,40.84724629879554],[-96.65363356963293,40.845896162293272],[-96.651855645922481,40.84585996674025],[-96.651903326358948,40.844509831587615],[-96.650125441904223,40.844473610373747],[-96.65017315512425,40.843123476571911],[-96.650220865107343,40.841773342407031],[-96.650268571853772,40.840423207879105],[-96.65031627536375,40.839073072988128],[-96.650363975637561,40.837722937734121],[-96.648586274485865,40.837686697721729],[-96.648634007529594,40.836336563819444],[-96.650411672675418,40.836372802117069],[-96.650459366477605,40.835022666137007],[-96.650507057044351,40.833672529793922],[-96.650554744375924,40.832322393087821],[-96.648777187233037,40.832286159934021],[-96.648729463902924,40.833636294925583],[-96.646951873999114,40.833600032694441],[-96.646999633327511,40.832249899418713],[-96.645222082661817,40.832213611542066],[-96.64526987474602,40.830863479620255],[-96.645317663588216,40.829513347335244],[-96.647095142265144,40.829549631777844],[-96.647142891874864,40.828199497412712],[-96.645365449188674,40.828163214687024],[-96.645413231547636,40.82681308167561],[-96.643635828090993,40.826776773310748],[-96.643683643194308,40.825426641654211],[-96.641906278966729,40.825390307652818],[-96.641954126809537,40.824040177352344],[-96.640176801810497,40.824003817717077],[-96.64012891798501,40.825353946296964],[-96.638351560251593,40.825317557586793],[-96.638399480059519,40.823967430728793],[-96.636622161559018,40.82393101638764],[-96.634844846311452,40.823894574693746],[-96.634796854539431,40.825244698104093],[-96.633019506565574,40.825208227331856],[-96.631242161849741,40.825171729205877],[-96.631290225584863,40.823821609248355],[-96.629512920110699,40.823785085497143],[-96.629561016564324,40.822434966904147],[-96.629609109755521,40.82108484794739],[-96.627831879498572,40.821048300303097],[-96.627880005401224,40.819698182711981],[-96.629657199684544,40.819734728626841],[-96.629705286351665,40.818384608942516],[-96.629753369757111,40.8170344888944],[-96.627976247413699,40.8169979464382],[-96.62619912833415,40.816961376636456],[-96.626150972991454,40.818311493224691],[-96.624373821209957,40.818274894345663],[-96.624422012520895,40.81692477948932],[-96.622644899976336,40.816888154996917],[-96.622693123984106,40.81553804150969],[-96.622741344720964,40.814187927658445],[-96.624518385336827,40.814224548684713],[-96.624470200563096,40.815574664268986],[-96.626247280410553,40.815611259684317],[-96.626295429220917,40.814261142368302],[-96.628072476370789,40.814297708709084],[-96.629849526784014,40.814334247706903],[-96.629897600405954,40.812984126567535],[-96.628120585954179,40.812947589298787],[-96.628168692274471,40.811597469524663],[-96.629945670767228,40.811634005064391],[-96.629993737868105,40.810283883197513],[-96.630041801708828,40.808933760966923],[-96.628264895126776,40.808897228885023],[-96.628312991659271,40.807547108019499],[-96.628361084929693,40.806196986790184],[-96.63013791961076,40.806233515414533],[-96.631914757551243,40.806270016703529],[-96.633691598748683,40.806306490657029],[-96.633643613326839,40.807656617068673],[-96.633595624650212,40.809006743116754],[-96.635372541004699,40.809043193184408],[-96.637149460611781,40.809079615913681],[-96.638926383469041,40.809116011304447],[-96.640703309574064,40.809152379356547],[-96.640655461463467,40.810502511933294],[-96.640607610107295,40.811852644146711],[-96.642384611371838,40.811888988299749],[-96.644161615879739,40.811925305111245],[-96.644113833199555,40.813275440399991],[-96.644066047278159,40.814625575325557],[-96.645843126951974,40.814661868230218],[-96.645795373755263,40.8160120045101],[-96.64574761731933,40.817362140426837],[-96.64752477216733,40.817398409419631],[-96.647572492634453,40.816048271786585],[-96.649349614750477,40.816084511717236],[-96.651126740100864,40.816120724301896],[-96.652903868683211,40.816156909540439],[-96.65468100049506,40.816193067432692],[-96.654633423905679,40.817543211918014],[-96.656410594914675,40.817579344173701],[-96.656363051070443,40.818929490006134],[-96.658140261277069,40.818965596622576],[-96.658092750182888,40.820315743800961],[-96.659869999587642,40.8203518247755],[-96.659822521248358,40.821701973298666],[-96.658045235865728,40.821665890616657],[-96.65799771832539,40.823016037069671],[-96.659775039688299,40.823052121459213],[-96.659727554907235,40.824402269257149],[-96.66150491547414,40.824438327999673],[-96.661552364272239,40.823088178495425],[-96.663329692074726,40.823124208178207],[-96.665107023093384,40.823160210507375],[-96.665059646262009,40.824510363420345],[-96.66683701647807,40.824546340098195],[-96.666884357325742,40.823196185482793],[-96.668661694769355,40.823232133104334],[-96.668708996424215,40.82188197642553],[-96.670486301094897,40.821917894993277],[-96.672263608971733,40.821953786208127],[-96.674040920052278,40.821989650069973],[-96.675818234334088,40.822025486578653],[-96.677595551814761,40.822061295734017],[-96.677642670361834,40.820711130207336],[-96.675865388861496,40.820675322746503],[-96.675912540190311,40.819325158552346],[-96.677689785712772,40.819360964318712],[-96.677736897867774,40.818010798068173],[-96.679514110610427,40.818046574790571],[-96.679561183596491,40.816696406485057],[-96.679608253389574,40.815346237817728],[-96.679655319989905,40.813996068788548],[-96.681432428012542,40.814031813086189],[-96.681479455454166,40.812681642003632],[-96.683256530700419,40.812717357265051],[-96.685033609134067,40.812753045181637],[-96.685080561457582,40.811402870358251],[-96.686857607111648,40.811438529242267],[-96.688634655947993,40.811474160782467],[-96.690411707964159,40.811509764978702],[-96.690364863534882,40.81285994486101],[-96.688587775553728,40.812824338979759]],[[-96.631818711550778,40.808970265710876],[-96.631866736179617,40.80762014138903],[-96.630089862289623,40.807583638372584],[-96.630041801708828,40.808933760966923],[-96.631818711550778,40.808970265710876]],[[-96.642288970845783,40.814589255076626],[-96.642241145717094,40.815939387920153],[-96.644018258115338,40.815975709887901],[-96.644066047278159,40.814625575325557],[-96.642288970845783,40.814589255076626]],[[-96.688353325876378,40.819575224543819],[-96.686576061214978,40.819539582884765],[-96.686529125757232,40.82088975722634],[-96.688306426398,40.820925400572108],[-96.690083730220309,40.82096101656488],[-96.69013059371909,40.819610838851162],[-96.688353325876378,40.819575224543819]],[[-96.691814206526132,40.822346784240928],[-96.691767372653615,40.823696962915982],[-96.69354475479922,40.823732527568175],[-96.693591552686755,40.822382347210151],[-96.691814206526132,40.822346784240928]],[[-96.633259612758536,40.818457615272415],[-96.631482447925478,40.818421125781022],[-96.63143439722981,40.819771247193422],[-96.633211598034535,40.81980773841159],[-96.633259612758536,40.818457615272415]]],[[[-96.709634281551033,40.821350987146346],[-96.709587810691815,40.822701182953637],[-96.707810436048547,40.822665866182014],[-96.707763926049594,40.824016059957259],[-96.707717412895391,40.825366253371712],[-96.70593996943083,40.825330905898909],[-96.705986518574392,40.823980714157152],[-96.704209114256855,40.823945341000034],[-96.70416252912419,40.825295531067809],[-96.702385091977888,40.825260128878561],[-96.702431713099443,40.823909940486068],[-96.702478331058444,40.822559751732591],[-96.702524945855146,40.821209562618129],[-96.704302275042124,40.82124495978173],[-96.704255696229424,40.82259515057136],[-96.706033064560259,40.822630522054531],[-96.70607960738873,40.821280329591076],[-96.707856942892505,40.821315672045991],[-96.707903446581724,40.819965477549175],[-96.70968074925797,40.820000790978334],[-96.711458055086268,40.820036077054077],[-96.711411623361883,40.821386274892006],[-96.709634281551033,40.821350987146346]]],[[[-96.67810043506887,40.858551455668973],[-96.67814760395899,40.857201298221533],[-96.678194769648741,40.855851140412085],[-96.679972993832564,40.855886937181225],[-96.679925864187027,40.857237096684393],[-96.679878731343564,40.858587255825604],[-96.67983159530192,40.859937414604843],[-96.678053262978125,40.859901612754363],[-96.67810043506887,40.858551455668973]]],[[[-96.672812842486891,40.857093738510244],[-96.672765565458249,40.858443890868571],[-96.670987282000695,40.858407981158749],[-96.671034595075,40.857057830499386],[-96.672812842486891,40.857093738510244]]],[[[-96.662143406216387,40.856877879648259],[-96.662190896293012,40.855527737140463],[-96.663969091587816,40.855563780377757],[-96.663921637553187,40.856913924590913],[-96.663874180298663,40.858264068441507],[-96.662095912917422,40.858228021793416],[-96.662143406216387,40.856877879648259]]],[[[-96.620964307375758,40.814151279289661],[-96.619187273303623,40.814114603578496],[-96.619235562690463,40.812764492833004],[-96.621012560802399,40.812801166808619],[-96.621060810956223,40.811451053963488],[-96.622837776382994,40.81148769886385],[-96.62461474507991,40.81152431642424],[-96.624566566842361,40.81287443273645],[-96.62278956218718,40.812837813443153],[-96.622741344720964,40.814187927658445],[-96.620964307375758,40.814151279289661]]],[[[-96.6263435747655,40.812911024688376],[-96.626295429220917,40.814261142368302],[-96.624518385336827,40.814224548684713],[-96.624566566842361,40.81287443273645],[-96.6263435747655,40.812911024688376]]]]}}
]
}
