{
"type": "FeatureCollection",
"name": "bryan-east__wk_0800",
"crs": { "type": "name", "properties": { "name": "urn:ogc:def:crs:OGC:1.3:CRS84" } },
"features": [
{"type":"Feature","properties":{"band":15},"geometry":{"type":"Polygon","coordinates":[[[-96.660771476418063,40.794698933946584],[-96.660724059226254,40.796049089358277],[-96.658947457006676,40.796013039106356],[-96.658900000664772,40.797363192449325],[-96.660676638818401,40.797399244407472],[-96.66245328018833,40.797435269036868],[-96.6624058925009,40.798785425428562],[-96.662358501599329,40.800135581457802],[-96.66231110748339,40.801485737124615],[-96.660534358295976,40.801449707380002],[-96.658757612325601,40.801413650302749],[-96.656980869574724,40.801377565892999],[-96.65520413004576,40.801341454150894],[-96.655156588940585,40.802691602626645],[-96.655109044610811,40.804041750739657],[-96.655061497056195,40.805391898489916],[-96.653284652915175,40.805355754284264],[-96.653237066185127,40.806705899961216],[-96.65146018932154,40.806669726707732],[-96.651507812001682,40.805319582742683],[-96.65155543145184,40.80396943841474],[-96.649778629715712,40.803933241250448],[-96.648001831211715,40.803897016751797],[-96.646225035942308,40.80386076491893],[-96.646272759996933,40.802510625371077],[-96.646320480814808,40.801160485460144],[-96.644543760668427,40.801124209726972],[-96.644591514189131,40.799774071169729],[-96.644639264471152,40.798423932249364],[-96.646415912741247,40.798460204549087],[-96.648192564247353,40.798496449519902],[-96.648240239421682,40.797146306804429],[-96.648287911362672,40.795796163725981],[-96.648335580070594,40.794446020284546],[-96.648383245545659,40.793095876480152],[-96.650159756559987,40.793132087266123],[-96.65193627080447,40.793168270728081],[-96.651983861196172,40.791818123134448],[-96.653760342742601,40.791854277561043],[-96.655536827514084,40.791890404664606],[-96.657313315508176,40.791926504444994],[-96.657265832894495,40.793276657168327],[-96.657218347060379,40.794626809529028],[-96.658994910130104,40.794662885400825],[-96.660771476418063,40.794698933946584]]]}},
{"type":"Feature","properties":{"band":30},"geometry":{"type":"MultiPolygon","coordinates":[[[[-96.701307182434931,40.804971860683729],[-96.703084076844718,40.805007265089444],[-96.703037499976645,40.806357458535324],[-96.701260569612316,40.806322052453972],[-96.701213953627885,40.807672243863237],[-96.699436990468641,40.80763680876511],[-96.699390335362992,40.808986998136319],[-96.701167334481397,40.809022434911505],[-96.70112071217261,40.810372625598781],[-96.702897750415161,40.810408036707436],[-96.702851160908097,40.811758228709607],[-96.704628238275262,40.811793614149074],[-96.704581681574808,40.813143807464982],[-96.70280456824068,40.813108420350837],[-96.702757972412655,40.814458611631132],[-96.700980826269998,40.81442319549457],[-96.699203683290605,40.814387752010461],[-96.699157012358839,40.815737939576294],[-96.697379836574058,40.815702467066124],[-96.695602663957672,40.815666967207399],[-96.695649406831379,40.814316783000237],[-96.693872273356419,40.814281257474377],[-96.693919049027713,40.812931074587198],[-96.693965821526234,40.811580891338735],[-96.692188763157716,40.811545341830836],[-96.692235568446762,40.810195159903472],[-96.690458549216018,40.81015958473499],[-96.688681533162409,40.810123982223701],[-96.688634655947993,40.811474160782467],[-96.686857607111648,40.811438529242267],[-96.685080561457582,40.811402870358251],[-96.683303518988211,40.81136718413056],[-96.68152647970598,40.811331470559331],[-96.679749443613332,40.811295729644705],[-96.679702383397753,40.812645899397531],[-96.677925314533553,40.812610129446895],[-96.67797241071267,40.811259961386824],[-96.676195381006465,40.811224165785845],[-96.674418354497121,40.811188342841895],[-96.674371186391681,40.812538507512542],[-96.67259412711887,40.81250265552913],[-96.67081707104802,40.812466776201738],[-96.670864311078802,40.811116614925666],[-96.669087294174687,40.811080709953671],[-96.669040018181619,40.812430869530509],[-96.667262968522067,40.812394935515599],[-96.667310280477196,40.811044777639282],[-96.667357589223272,40.809694619400688],[-96.665580614694193,40.809658661445781],[-96.665533269988742,40.811008817982639],[-96.663756262711772,40.810972830983886],[-96.66380364337634,40.809622676150077],[-96.662026675272159,40.809586663513684],[-96.661979258648714,40.810936816643164],[-96.660202257802013,40.810900774960615],[-96.660154802001145,40.812250926021925],[-96.658377768412407,40.812214855290712],[-96.656600738045128,40.812178757216678],[-96.656648265767373,40.810828609570635],[-96.654871274584323,40.810792485863466],[-96.653094286627351,40.810756334815061],[-96.653141883041457,40.809406190226618],[-96.651364934270404,40.809370013549184],[-96.651412563411213,40.808019870309899],[-96.649635653825555,40.807983668006109],[-96.649683315688165,40.806633526117174],[-96.647906445287433,40.806597298189679],[-96.647954139866982,40.805247157652246],[-96.646177308650678,40.805210904103696],[-96.646225035942308,40.80386076491893],[-96.648001831211715,40.803897016751797],[-96.649778629715712,40.803933241250448],[-96.65155543145184,40.80396943841474],[-96.651507812001682,40.805319582742683],[-96.65146018932154,40.806669726707732],[-96.653237066185127,40.806705899961216],[-96.653284652915175,40.805355754284264],[-96.655061497056195,40.805391898489916],[-96.655109044610811,40.804041750739657],[-96.655156588940585,40.802691602626645],[-96.65520413004576,40.801341454150894],[-96.656980869574724,40.801377565892999],[-96.658757612325601,40.801413650302749],[-96.658710143107243,40.802763802195386],[-96.660486925021402,40.802799860979142],[-96.660534358295976,40.801449707380002],[-96.66231110748339,40.801485737124615],[-96.662358501599329,40.800135581457802],[-96.6624058925009,40.798785425428562],[-96.664182573021677,40.798821424432759],[-96.664135218059528,40.800171582165795],[-96.664087859885427,40.801521739536462],[-96.665864615499643,40.801557714615377],[-96.66591193773165,40.800207555542151],[-96.667688660613294,40.800243501586728],[-96.669465386701987,40.80027942029939],[-96.671242115995341,40.800315311679995],[-96.673018848490884,40.80035117572838],[-96.674795584186214,40.800387012444453],[-96.676572323078872,40.800422821828008],[-96.678349065166458,40.800458603878944],[-96.678301994535971,40.801808774833923],[-96.680078775760066,40.801844531244306],[-96.681855560174455,40.801880260320495],[-96.681902558916576,40.800530085982352],[-96.683679310574263,40.800565786034532],[-96.685456065417128,40.800601458753519],[-96.685502989087169,40.799251280675819],[-96.687279711170163,40.799286924374478],[-96.687326595717536,40.797936744248283],[-96.68910328504019,40.797972358929115],[-96.689056436433233,40.799322540740945],[-96.690833164873922,40.799358129775072],[-96.69078634903245,40.800708312909876],[-96.692563116591671,40.800743876294653],[-96.694339887323935,40.800779412345527],[-96.694386631278476,40.799429225845778],[-96.696163369237468,40.799464732882072],[-96.696116661226739,40.800814921062347],[-96.697893438297697,40.800850402444979],[-96.697846763065328,40.802200591943411],[-96.699623579248751,40.80223604766973],[-96.70140039859568,40.802271476060291],[-96.701353792095972,40.803621668552495],[-96.701307182434931,40.804971860683729]]],[[[-96.70472134220266,40.809093226434648],[-96.706498350800672,40.809128581182314],[-96.706451836378122,40.81047877689322],[-96.704674791817794,40.810443420472303],[-96.70472134220266,40.809093226434648]]],[[[-96.658167452143331,40.767623693423417],[-96.658120027455041,40.768973852672922],[-96.659895908290622,40.769009896116039],[-96.659848516271538,40.770360056709201],[-96.661624436206097,40.77039607455567],[-96.661577076861107,40.77174623649131],[-96.661529714304493,40.773096398064553],[-96.659753722591759,40.773060376808139],[-96.659706320930582,40.774410536313916],[-96.659658916054852,40.775760695457222],[-96.661434979555466,40.775796720123857],[-96.661387607362528,40.777146880609898],[-96.661340231957013,40.778497040733519],[-96.661292853338651,40.779847200494736],[-96.663069027752385,40.779883202965223],[-96.663021681826052,40.781233364068122],[-96.661245471507186,40.781197359893525],[-96.661198086462377,40.782547518929874],[-96.661150698203997,40.783897677603797],[-96.662926980340401,40.783933685186838],[-96.662879624780587,40.785283845202635],[-96.661103306731761,40.785247835915257],[-96.66105591204547,40.786597993864284],[-96.661008514144825,40.787948151450834],[-96.660961113029629,40.789298308674937],[-96.660913708699582,40.79064846553657],[-96.65913725019189,40.7906124221089],[-96.657360794901678,40.790576351359057],[-96.657313315508176,40.791926504444994],[-96.655536827514084,40.791890404664606],[-96.653760342742601,40.791854277561043],[-96.651983861196172,40.791818123134448],[-96.65193627080447,40.793168270728081],[-96.650159756559987,40.793132087266123],[-96.648383245545659,40.793095876480152],[-96.648430907788153,40.791745732312783],[-96.650207382877198,40.791781941384983],[-96.650255005964524,40.790431795140961],[-96.648478566798303,40.790395587782463],[-96.646702130864185,40.790359353102673],[-96.646749822562398,40.789009209924316],[-96.644973425782695,40.788972949639586],[-96.645021150164098,40.78762280781438],[-96.646797511026321,40.78765906638295],[-96.646845196256237,40.786308922478582],[-96.646892878252388,40.784958778211198],[-96.645116589217807,40.784922523074705],[-96.64516430389061,40.783572380160287],[-96.646940557015,40.783608633580819],[-96.648716813372673,40.783644859686646],[-96.648764452994001,40.782294712978697],[-96.648812089384734,40.780944565907831],[-96.647035904840649,40.780908343231097],[-96.647083573904155,40.779558197511768],[-96.64713123973516,40.778208051429466],[-96.645355130227188,40.778171804872024],[-96.645402828723931,40.77682166014236],[-96.647178902333863,40.77685790498419],[-96.647226561700535,40.775507758175962],[-96.647274217835431,40.774157611004775],[-96.647321870738779,40.772807463470642],[-96.645545904808372,40.772771223775209],[-96.645498216014275,40.774121369593949],[-96.643722217427069,40.774085100877592],[-96.643769942111675,40.772734956775544],[-96.641993982651115,40.77269866247179],[-96.642041739987377,40.771348519724576],[-96.642089494085312,40.769998376614218],[-96.640313609636053,40.769962058444861],[-96.640361396378623,40.768611916690418],[-96.640409179880933,40.767261774572788],[-96.638633370434675,40.767225432542851],[-96.638681186574587,40.765875291782244],[-96.64045696014324,40.765911632091964],[-96.640504737165784,40.76456148924796],[-96.640552510948822,40.763211346040762],[-96.640600281492581,40.761861202470399],[-96.642375950681995,40.761897510326413],[-96.644151623107987,40.761933790888804],[-96.644199318676201,40.760583643519276],[-96.642423682118604,40.760547364674238],[-96.64064804879736,40.760511058536878],[-96.640695812863342,40.759160914240191],[-96.640743573690827,40.757810769580338],[-96.640791331280042,40.756460624557356],[-96.642566857011431,40.75649692553916],[-96.642614575504197,40.755146778434657],[-96.640839085631242,40.755110479171215],[-96.64088683674467,40.753760333421944],[-96.640934584620595,40.752410187309536],[-96.642710002783943,40.752446483136431],[-96.642662290761606,40.753796630967074],[-96.64443774801363,40.753832901226332],[-96.644390068612481,40.755183050410935],[-96.646165564953662,40.755219295099891],[-96.64621320849831,40.753869144199562],[-96.647988672213245,40.753905359886623],[-96.647941064525355,40.7552555125014],[-96.647893453609413,40.756605664753287],[-96.647845839465134,40.757955816642323],[-96.649621413986182,40.757992010182726],[-96.649573832477657,40.759342163422247],[-96.64779822209232,40.759305968168491],[-96.647750601490685,40.760656119331763],[-96.647702977660003,40.762006270132154],[-96.647655350600019,40.763356420569657],[-96.647607720310475,40.764706570644265],[-96.649383474177228,40.764742772752122],[-96.65115923127135,40.764778947563194],[-96.652934991590399,40.76481509507736],[-96.654710755131987,40.764851215294449],[-96.654663265119822,40.766201371853185],[-96.656439067758896,40.766237466481613],[-96.656391610406246,40.767587624386316],[-96.658167452143331,40.767623693423417]]],[[[-96.662548045921838,40.794734955166156],[-96.662500664661906,40.796085112282725],[-96.660724059226254,40.796049089358277],[-96.660771476418063,40.794698933946584],[-96.662548045921838,40.794734955166156]]],[[[-96.657265832894495,40.793276657168327],[-96.657313315508176,40.791926504444994],[-96.659089806722463,40.79196257690208],[-96.659042360035272,40.79331273133274],[-96.660818890394054,40.793348778172394],[-96.660771476418063,40.794698933946584],[-96.658994910130104,40.794662885400825],[-96.657218347060379,40.794626809529028],[-96.657265832894495,40.793276657168327]]],[[[-96.660724059226254,40.796049089358277],[-96.660676638818401,40.797399244407472],[-96.658900000664772,40.797363192449325],[-96.658947457006676,40.796013039106356],[-96.660724059226254,40.796049089358277]]],[[[-96.65378990678785,40.740512245781169],[-96.653742438865947,40.74186240715774],[-96.651967288083213,40.741826288722095],[-96.652014791838369,40.740476129055402],[-96.65378990678785,40.740512245781169]]],[[[-96.644866717183859,40.741681542230999],[-96.643091582529038,40.741645287421811],[-96.643139265446706,40.740295136323901],[-96.644914364269525,40.740331389416738],[-96.646689466322513,40.740367615236451],[-96.64846457160327,40.740403813782905],[-96.648416996182362,40.741753970025947],[-96.646641855069106,40.741717769765756],[-96.644866717183859,40.741681542230999]]],[[[-96.644782495887497,40.794373513309537],[-96.64655903636141,40.794409780459553],[-96.646606737763946,40.793059638370295],[-96.648383245545659,40.793095876480152],[-96.648335580070594,40.794446020284546],[-96.648287911362672,40.795796163725981],[-96.648240239421682,40.797146306804429],[-96.646463623850323,40.797110063548956],[-96.64651133172363,40.795759922185781],[-96.644734755320087,40.795723653319257],[-96.644782495887497,40.794373513309537]]],[[[-96.644723756543272,40.745731998496098],[-96.642948514377878,40.745695738537513],[-96.642996206994866,40.744345588528631],[-96.644771413320981,40.744381846770679],[-96.64654662287802,40.744418077735723],[-96.646499001939844,40.745768231176399],[-96.644723756543272,40.745731998496098]]],[[[-96.646308485897137,40.75116884131014],[-96.64626084881273,40.752518992936309],[-96.64621320849831,40.753869144199562],[-96.64443774801363,40.753832901226332],[-96.644485424182122,40.752482751678741],[-96.642710002783943,40.752446483136431],[-96.64275771157142,40.751096334942737],[-96.640982329259231,40.751060040834005],[-96.641030070660861,40.749709893995366],[-96.642805417124308,40.749746186385984],[-96.642853119442847,40.748396037466193],[-96.644628433294088,40.74843230085807],[-96.644676096534383,40.747082149858564],[-96.646451377772919,40.747118384254172],[-96.64640375037699,40.748468536969064],[-96.646356119751815,40.749818689321067],[-96.646308485897137,40.75116884131014]]]]}},
{"type":"Feature","properties":{"band":45},"geometry":{"type":"MultiPolygon","coordinates":[[[[-96.710284542697963,40.802448207971707],[-96.710238115949025,40.803798408828477],[-96.712014990176854,40.803833674870553],[-96.711968596232055,40.805183877035802],[-96.713745509560169,40.805219117407646],[-96.713699148424411,40.806569320880193],[-96.711922199140318,40.806534078840471],[-96.711875798901346,40.807884280284554],[-96.71182939551494,40.809234481368051],[-96.713606416718321,40.809269726743736],[-96.713560046147506,40.81061992913471],[-96.713513672431191,40.811970131165154],[-96.713467295569131,40.813320332835069],[-96.715244427815691,40.813355555867965],[-96.715198083778503,40.814705758844319],[-96.713420915561088,40.814670534144433],[-96.713374532406817,40.816020735093232],[-96.713328146106079,40.817370935681481],[-96.713281756658631,40.818721135909158],[-96.711504483661031,40.818685878855511],[-96.711458055086268,40.820036077054077],[-96.711411623361883,40.821386274892006],[-96.709634281551033,40.821350987146346],[-96.707856942892505,40.821315672045991],[-96.707810436048547,40.822665866182014],[-96.706033064560259,40.822630522054531],[-96.704255696229424,40.82259515057136],[-96.704209114256855,40.823945341000034],[-96.70416252912419,40.825295531067809],[-96.702385091977888,40.825260128878561],[-96.702338467693551,40.826610316910049],[-96.700560997718981,40.826574885686128],[-96.698783530909878,40.82653942710305],[-96.69700606726866,40.826503941160951],[-96.69705279952548,40.825153758163268],[-96.697099528612185,40.823803574804373],[-96.695322140119558,40.823768064864353],[-96.695368902021883,40.822417882824652],[-96.695415660752161,40.821067700423697],[-96.693638347399826,40.821032166490809],[-96.691861037221727,40.820996605204485],[-96.691907864740642,40.819646425806653],[-96.691954689083133,40.818296246047431],[-96.690177454038988,40.818260660776005],[-96.69013059371909,40.819610838851162],[-96.690083730220309,40.82096101656488],[-96.688306426398,40.820925400572108],[-96.686529125757232,40.82088975722634],[-96.684751828300449,40.82085408652771],[-96.684798799737322,40.819503913874129],[-96.684845767988037,40.818153740858911],[-96.68489273305282,40.816803567482047],[-96.68311554671179,40.816767874498375],[-96.68316254456245,40.815417702448968],[-96.681385397380851,40.815381983806986],[-96.681432428012542,40.814031813086189],[-96.681479455454166,40.812681642003632],[-96.679702383397753,40.812645899397531],[-96.679749443613332,40.811295729644705],[-96.68152647970598,40.811331470559331],[-96.683303518988211,40.81136718413056],[-96.685080561457582,40.811402870358251],[-96.686857607111648,40.811438529242267],[-96.688634655947993,40.811474160782467],[-96.688681533162409,40.810123982223701],[-96.690458549216018,40.81015958473499],[-96.692235568446762,40.810195159903472],[-96.692188763157716,40.811545341830836],[-96.693965821526234,40.811580891338735],[-96.693919049027713,40.812931074587198],[-96.693872273356419,40.814281257474377],[-96.695649406831379,40.814316783000237],[-96.695602663957672,40.815666967207399],[-96.697379836574058,40.815702467066124],[-96.699157012358839,40.815737939576294],[-96.699203683290605,40.814387752010461],[-96.700980826269998,40.81442319549457],[-96.702757972412655,40.814458611631132],[-96.70280456824068,40.813108420350837],[-96.704581681574808,40.813143807464982],[-96.704628238275262,40.811793614149074],[-96.702851160908097,40.811758228709607],[-96.702897750415161,40.810408036707436],[-96.70112071217261,40.810372625598781],[-96.701167334481397,40.809022434911505],[-96.699390335362992,40.808986998136319],[-96.699436990468641,40.80763680876511],[-96.701213953627885,40.807672243863237],[-96.701260569612316,40.806322052453972],[-96.703037499976645,40.806357458535324],[-96.703084076844718,40.805007265089444],[-96.701307182434931,40.804971860683729],[-96.701353792095972,40.803621668552495],[-96.70140039859568,40.802271476060291],[-96.699623579248751,40.80223604766973],[-96.697846763065328,40.802200591943411],[-96.697893438297697,40.800850402444979],[-96.696116661226739,40.800814921062347],[-96.696163369237468,40.799464732882072],[-96.694386631278476,40.799429225845778],[-96.694339887323935,40.800779412345527],[-96.692563116591671,40.800743876294653],[-96.69078634903245,40.800708312909876],[-96.690833164873922,40.799358129775072],[-96.689056436433233,40.799322540740945],[-96.68910328504019,40.797972358929115],[-96.687326595717536,40.797936744248283],[-96.687279711170163,40.799286924374478],[-96.685502989087169,40.799251280675819],[-96.685456065417128,40.800601458753519],[-96.683679310574263,40.800565786034532],[-96.681902558916576,40.800530085982352],[-96.681855560174455,40.801880260320495],[-96.680078775760066,40.801844531244306],[-96.678301994535971,40.801808774833923],[-96.678349065166458,40.800458603878944],[-96.676572323078872,40.800422821828008],[-96.674795584186214,40.800387012444453],[-96.673018848490884,40.80035117572838],[-96.671242115995341,40.800315311679995],[-96.669465386701987,40.80027942029939],[-96.667688660613294,40.800243501586728],[-96.66591193773165,40.800207555542151],[-96.665864615499643,40.801557714615377],[-96.664087859885427,40.801521739536462],[-96.664135218059528,40.800171582165795],[-96.664182573021677,40.798821424432759],[-96.6624058925009,40.798785425428562],[-96.66245328018833,40.797435269036868],[-96.660676638818401,40.797399244407472],[-96.660724059226254,40.796049089358277],[-96.662500664661906,40.796085112282725],[-96.662548045921838,40.794734955166156],[-96.660771476418063,40.794698933946584],[-96.660818890394054,40.793348778172394],[-96.659042360035272,40.79331273133274],[-96.659089806722463,40.79196257690208],[-96.657313315508176,40.791926504444994],[-96.657360794901678,40.790576351359057],[-96.65913725019189,40.7906124221089],[-96.660913708699582,40.79064846553657],[-96.660961113029629,40.789298308674937],[-96.661008514144825,40.787948151450834],[-96.662784904025756,40.787984164147083],[-96.662832266009119,40.786634004856055],[-96.664608623184677,40.786669988529255],[-96.664561297118837,40.788020149523454],[-96.664513967843291,40.789370310155327],[-96.664466635357769,40.790720470424866],[-96.66624310350339,40.790756431885193],[-96.666290400066273,40.789406269913634],[-96.668066835496802,40.7894422023505],[-96.668114092931702,40.788092038316037],[-96.669890495646627,40.78812794173195],[-96.671666901563981,40.788163817827432],[-96.671619715970706,40.789513985259347],[-96.673396161009222,40.789549835731037],[-96.673443310681321,40.788199666602331],[-96.675219722996204,40.788235488056507],[-96.676996138506226,40.788271282189832],[-96.676949060677245,40.789621454708218],[-96.678725515301878,40.789657223213439],[-96.678772557208944,40.788307049002142],[-96.680548979101928,40.788342788493296],[-96.682325404182734,40.788378500663164],[-96.68410183244896,40.788414185511606],[-96.685878263898147,40.788449843038471],[-96.687654698527865,40.788485473243611],[-96.687607836234093,40.789835655900085],[-96.68938430996532,40.789871260468544],[-96.691160786872459,40.789906837713694],[-96.691207577319204,40.788556651688189],[-96.692984021475951,40.788592199927336],[-96.692937266953095,40.789942387635435],[-96.69471375020477,40.789977910233581],[-96.694760468803509,40.788627720844204],[-96.696536919299447,40.788663214438643],[-96.698313372961337,40.788698680710532],[-96.698266726211585,40.790048873458609],[-96.700043218961866,40.790084314085185],[-96.699996604975624,40.791434508149699],[-96.701773136814751,40.791469923128339],[-96.701726555596906,40.792820118508111],[-96.699949987827821,40.792784701853222],[-96.699903367518203,40.794134895195754],[-96.70167997121969,40.794170313526962],[-96.701633383682832,40.795520508184879],[-96.70158679298612,40.796870702481854],[-96.703363471719797,40.796906096835194],[-96.703316913802894,40.798256292446453],[-96.70509363163444,40.798291661142841],[-96.705047106502235,40.79964185806724],[-96.706823863432106,40.799677201104046],[-96.708600623515295,40.799712516807091],[-96.708554167118166,40.801062716714917],[-96.710330966297988,40.801098006754287],[-96.710284542697963,40.802448207971707]],[[-96.704302275042124,40.82124495978173],[-96.702524945855146,40.821209562618129],[-96.702478331058444,40.822559751732591],[-96.704255696229424,40.82259515057136],[-96.704302275042124,40.82124495978173]],[[-96.688587775553728,40.812824338979759],[-96.690364863534882,40.81285994486101],[-96.690411707964159,40.811509764978702],[-96.688634655947993,40.811474160782467],[-96.688587775553728,40.812824338979759]],[[-96.678537315766107,40.795057916440697],[-96.678584370436667,40.793707743676585],[-96.676807808031668,40.793671970092234],[-96.67676071742946,40.795022141163159],[-96.678537315766107,40.795057916440697]],[[-96.704674791817794,40.810443420472303],[-96.706451836378122,40.81047877689322],[-96.706498350800672,40.809128581182314],[-96.70472134220266,40.809093226434648],[-96.704674791817794,40.810443420472303]],[[-96.66797231101144,40.792142529332864],[-96.667925043960494,40.793492692280729],[-96.669701590372782,40.793528602494526],[-96.66974882149573,40.792178437847085],[-96.66797231101144,40.792142529332864]],[[-96.669654356046422,40.79487876677981],[-96.671430941592774,40.794914651366341],[-96.671383739995875,40.7962648169879],[-96.673160364676789,40.796300675944522],[-96.674936992556752,40.796336507572661],[-96.67498412228673,40.794986338558168],[-96.675031248820346,40.793636169181717],[-96.673254692805145,40.793600340945154],[-96.671478139988466,40.79356448538271],[-96.669701590372782,40.793528602494526],[-96.669654356046422,40.79487876677981]]],[[[-96.686070195117296,40.731706329222746],[-96.68784511999786,40.731741915925234],[-96.68962004804871,40.73177747536019],[-96.689573319025286,40.733127673192207],[-96.689526586833765,40.734477870663035],[-96.689479851473877,40.735828067772651],[-96.689433112945409,40.737178264521056],[-96.689386371248105,40.738528460908256],[-96.689339626381724,40.739878656934216],[-96.689292878346009,40.741228852598951],[-96.687517699495942,40.741193281377207],[-96.687564483367396,40.739843087396494],[-96.685789343524803,40.739807490583516],[-96.685742523817879,40.741157682878899],[-96.68569570093652,40.742507874812929],[-96.685648874880513,40.743858066385563],[-96.683873630699111,40.743822437237441],[-96.683826765625668,40.745172626761899],[-96.682051488779308,40.745136968646818],[-96.682098389695028,40.743786780810467],[-96.680323151870709,40.743751097104798],[-96.67854791722857,40.743715386120556],[-96.676772685771041,40.74367964785791],[-96.676725677329969,40.745029830622222],[-96.674950413218156,40.744994063388013],[-96.674903365746076,40.746344244097287],[-96.673128068980517,40.746308447889042],[-96.671352775407314,40.746272624400234],[-96.66957748502891,40.74623677363099],[-96.66962464003069,40.744886598009437],[-96.667849388692233,40.744850721658388],[-96.667802197847735,40.746200895581453],[-96.66602691386619,40.746164990251771],[-96.666074140553206,40.744814818028487],[-96.664298895616,40.744778887119857],[-96.662523653883042,40.744742928932659],[-96.660748415356778,40.744706943467037],[-96.660701081143756,40.746057110583273],[-96.658925809985064,40.74602109613442],[-96.657150542038181,40.745985054406148],[-96.657197947933952,40.744634890701079],[-96.655422719042278,40.744598823401013],[-96.655375277305467,40.745948985398584],[-96.65360001578938,40.745912889111864],[-96.653552534992755,40.747263049038025],[-96.651777240852795,40.747226923762142],[-96.651824757492363,40.74587676554615],[-96.650049502416806,40.745840614701564],[-96.650001949934548,40.747190771206107],[-96.649954394228132,40.748540927347904],[-96.649906835297301,40.749891083126933],[-96.648131475911029,40.74985489986522],[-96.648083877905833,40.751205053568526],[-96.646308485897137,40.75116884131014],[-96.646356119751815,40.749818689321067],[-96.64640375037699,40.748468536969064],[-96.646451377772919,40.747118384254172],[-96.644676096534383,40.747082149858564],[-96.644628433294088,40.74843230085807],[-96.642853119442847,40.748396037466193],[-96.642805417124308,40.749746186385984],[-96.641030070660861,40.749709893995366],[-96.641077808825713,40.748359746793604],[-96.641125543754043,40.74700959922874],[-96.639350272217072,40.74697328299483],[-96.639398039750319,40.745623136786044],[-96.637622807293013,40.745586794993471],[-96.637670607426358,40.744236650141936],[-96.639445804045124,40.744272990214121],[-96.639493565101745,40.742922843279032],[-96.637718404319074,40.742886504927192],[-96.637766197971416,40.741536359349226],[-96.63599107626257,40.74149999544381],[-96.636038902505788,40.74014985122411],[-96.637813988383627,40.74018621340803],[-96.637861775555947,40.738836067103648],[-96.639636828844814,40.738872400294881],[-96.639684576951112,40.73752225190723],[-96.641459597650524,40.737558556108283],[-96.643234621584483,40.737594833039068],[-96.643282294805076,40.736244680852153],[-96.643329964793807,40.734894528302284],[-96.645104920312818,40.734930774530476],[-96.645057286146397,40.736280928796418],[-96.646832280717163,40.736317149471425],[-96.648607278514959,40.73635334287701],[-96.648559712769327,40.737703500208426],[-96.650334749617173,40.737739668056726],[-96.65038227953734,40.736389509013065],[-96.652157283781889,40.736425647879415],[-96.652204774656568,40.735075486762128],[-96.65397974629731,40.735111596649034],[-96.653932291246178,40.73646175947593],[-96.65388483297771,40.737811921940263],[-96.65565987948554,40.737848007975188],[-96.655707301927777,40.736497843802475],[-96.657482315824296,40.736533900858902],[-96.659257332933265,40.736569930645054],[-96.659304680512278,40.735219762697049],[-96.661079665006767,40.735255763508341],[-96.661032353252295,40.736605933160789],[-96.662807376778957,40.736641908406],[-96.664582403510821,40.736677856380503],[-96.666357433445441,40.736713777084169],[-96.666404637724824,40.735363602326082],[-96.668179635034292,40.735399494059465],[-96.668132466580431,40.736749670516858],[-96.669907502913361,40.736785536678426],[-96.671682542441772,40.736821375568731],[-96.671729639243836,40.735471195716613],[-96.673504646139079,40.735507005640081],[-96.675279656224745,40.735542788293287],[-96.675232631075417,40.736892971534978],[-96.677007680175819,40.736928728610643],[-96.677054669498375,40.735578543676098],[-96.677101655635354,40.734228358379873],[-96.678876636270004,40.734264084800657],[-96.678923583399524,40.732913897451326],[-96.680698531394668,40.732949594912562],[-96.680745439521573,40.73159940551156],[-96.678970527346394,40.731563709740385],[-96.679017468110871,40.730213521667871],[-96.677242594935407,40.730177800321165],[-96.677289568332583,40.728827613578282],[-96.679064405693182,40.728863333233747],[-96.67911134009357,40.727513144438042],[-96.679158271312289,40.726162955280763],[-96.679205199349582,40.724812765761897],[-96.68097993246127,40.724848453083723],[-96.681026821511949,40.723498261513633],[-96.682801521996723,40.72353391988657],[-96.682754668751727,40.724884113145031],[-96.682707812330378,40.726234306042066],[-96.684482587605515,40.726269940529882],[-96.686257366054789,40.726305547755608],[-96.688032147675827,40.72634112771911],[-96.687985395510907,40.727691325312513],[-96.687938640176441,40.729041522544676],[-96.687891881672172,40.730391719415572],[-96.686116992610124,40.73035613439793],[-96.686070195117296,40.731706329222746]],[[-96.650097051675175,40.744490457834274],[-96.648321835663566,40.744454281423643],[-96.648274250565166,40.745804436578261],[-96.650049502416806,40.745840614701564],[-96.650097051675175,40.744490457834274]],[[-96.673457585163263,40.736857187187631],[-96.673410520996811,40.738207368373352],[-96.675185602737898,40.73824315441491],[-96.675232631075417,40.736892971534978],[-96.673457585163263,40.736857187187631]],[[-96.682473482570032,40.732985265105548],[-96.684248436923198,40.733020908030156],[-96.684295273409433,40.731670715252868],[-96.682520354876729,40.731635074015763],[-96.682473482570032,40.732985265105548]],[[-96.646499001939844,40.745768231176399],[-96.64654662287802,40.744418077735723],[-96.644771413320981,40.744381846770679],[-96.642996206994866,40.744345588528631],[-96.642948514377878,40.745695738537513],[-96.644723756543272,40.745731998496098],[-96.646499001939844,40.745768231176399]],[[-96.646641855069106,40.741717769765756],[-96.648416996182362,40.741753970025947],[-96.64846457160327,40.740403813782905],[-96.646689466322513,40.740367615236451],[-96.644914364269525,40.740331389416738],[-96.643139265446706,40.740295136323901],[-96.643091582529038,40.741645287421811],[-96.644866717183859,40.741681542230999],[-96.646641855069106,40.741717769765756]],[[-96.651967288083213,40.741826288722095],[-96.653742438865947,40.74186240715774],[-96.65378990678785,40.740512245781169],[-96.652014791838369,40.740476129055402],[-96.651967288083213,40.741826288722095]]],[[[-96.682880509631744,40.823518729319687],[-96.681103146585656,40.82348300053436],[-96.681150196362879,40.822132831984277],[-96.682927523425462,40.822168559078875],[-96.682880509631744,40.823518729319687]]],[[[-96.65115923127135,40.764778947563194],[-96.649383474177228,40.764742772752122],[-96.647607720310475,40.764706570644265],[-96.647655350600019,40.763356420569657],[-96.647702977660003,40.762006270132154],[-96.647750601490685,40.760656119331763],[-96.649526247742727,40.760692316298943],[-96.649478659781181,40.762042468812822],[-96.65125434512926,40.762078640199306],[-96.651206789812647,40.763428794062627],[-96.652982514257204,40.763464939865742],[-96.654758241924057,40.76350105837308],[-96.654710755131987,40.764851215294449],[-96.652934991590399,40.76481509507736],[-96.65115923127135,40.764778947563194]]],[[[-96.654710755131987,40.764851215294449],[-96.65648652189364,40.764887308214341],[-96.656439067758896,40.766237466481613],[-96.654663265119822,40.766201371853185],[-96.654710755131987,40.764851215294449]]],[[[-96.658167452143331,40.767623693423417],[-96.656391610406246,40.767587624386316],[-96.656439067758896,40.766237466481613],[-96.65821487361589,40.7662735338114],[-96.658167452143331,40.767623693423417]]],[[[-96.661671792339732,40.769045912257646],[-96.661624436206097,40.77039607455567],[-96.659848516271538,40.770360056709201],[-96.659895908290622,40.769009896116039],[-96.661671792339732,40.769045912257646]]],[[[-96.660534358295976,40.801449707380002],[-96.660486925021402,40.802799860979142],[-96.658710143107243,40.802763802195386],[-96.658757612325601,40.801413650302749],[-96.660534358295976,40.801449707380002]]],[[[-96.640934584620595,40.752410187309536],[-96.64088683674467,40.753760333421944],[-96.640839085631242,40.755110479171215],[-96.642614575504197,40.755146778434657],[-96.642566857011431,40.75649692553916],[-96.640791331280042,40.756460624557356],[-96.640743573690827,40.757810769580338],[-96.640695812863342,40.759160914240191],[-96.64064804879736,40.760511058536878],[-96.642423682118604,40.760547364674238],[-96.644199318676201,40.760583643519276],[-96.644151623107987,40.761933790888804],[-96.642375950681995,40.761897510326413],[-96.640600281492581,40.761861202470399],[-96.640552510948822,40.763211346040762],[-96.640504737165784,40.76456148924796],[-96.64045696014324,40.765911632091964],[-96.638681186574587,40.765875291782244],[-96.638633370434675,40.767225432542851],[-96.640409179880933,40.767261774572788],[-96.640361396378623,40.768611916690418],[-96.640313609636053,40.769962058444861],[-96.642089494085312,40.769998376614218],[-96.642041739987377,40.771348519724576],[-96.641993982651115,40.77269866247179],[-96.643769942111675,40.772734956775544],[-96.643722217427069,40.774085100877592],[-96.645498216014275,40.774121369593949],[-96.645450523986213,40.775471515049659],[-96.643674489506097,40.775435244616553],[-96.641898458262617,40.775398946876784],[-96.641946222076285,40.774048804855866],[-96.640170229964312,40.774012481528899],[-96.640218026429139,40.772662340864102],[-96.638442073448189,40.772625991952609],[-96.638489902559328,40.771275852645083],[-96.636713988708863,40.771239478151728],[-96.636761850461482,40.769889340202624],[-96.638537728427295,40.769925712974278],[-96.63858555105233,40.7685755729402],[-96.636809708968727,40.768539201890192],[-96.636857564230851,40.767189063214424],[-96.636905416248126,40.765838924175327],[-96.636953265020779,40.764488784772894],[-96.637001110549065,40.763138645007153],[-96.63704895283324,40.761788504878098],[-96.637096791873546,40.760438364385742],[-96.637144627670239,40.7590882235301],[-96.638920218646319,40.759124582530518],[-96.638968015336843,40.757774439590477],[-96.639015808786681,40.756424296287221],[-96.637240289533764,40.756387940728914],[-96.635464773523708,40.756351557882581],[-96.635512635448734,40.755001417659322],[-96.637288115601095,40.755037798783391],[-96.637335938425807,40.753687656474611],[-96.637383758008156,40.752337513802551],[-96.639159169694523,40.752373864198191],[-96.639206950184075,40.751023719442124],[-96.639254727434192,40.749673574322884],[-96.641030070660861,40.749709893995366],[-96.640982329259231,40.751060040834005],[-96.64275771157142,40.751096334942737],[-96.642710002783943,40.752446483136431],[-96.640934584620595,40.752410187309536]]],[[[-96.64443774801363,40.753832901226332],[-96.642662290761606,40.753796630967074],[-96.642710002783943,40.752446483136431],[-96.644485424182122,40.752482751678741],[-96.64443774801363,40.753832901226332]]],[[[-96.649621413986182,40.757992010182726],[-96.647845839465134,40.757955816642323],[-96.647893453609413,40.756605664753287],[-96.647941064525355,40.7552555125014],[-96.647988672213245,40.753905359886623],[-96.648036276673324,40.752555206909001],[-96.649811707761486,40.752591393596674],[-96.649764139155991,40.753941548287379],[-96.651539609324118,40.753977709401667],[-96.651492073350482,40.755327865441451],[-96.651444534153654,40.756678021118489],[-96.649668992268587,40.756641856580416],[-96.649621413986182,40.757992010182726]]],[[[-96.646165564953662,40.755219295099891],[-96.644390068612481,40.755183050410935],[-96.64443774801363,40.753832901226332],[-96.64621320849831,40.753869144199562],[-96.646165564953662,40.755219295099891]]],[[[-96.651349446089355,40.759378331384383],[-96.649573832477657,40.759342163422247],[-96.649621413986182,40.757992010182726],[-96.651396991733364,40.758028176432809],[-96.651349446089355,40.759378331384383]]],[[[-96.647274217835431,40.774157611004775],[-96.645498216014275,40.774121369593949],[-96.645545904808372,40.772771223775209],[-96.647321870738779,40.772807463470642],[-96.647274217835431,40.774157611004775]]],[[[-96.646845196256237,40.786308922478582],[-96.646797511026321,40.78765906638295],[-96.645021150164098,40.78762280781438],[-96.64506887130905,40.786272665626086],[-96.646845196256237,40.786308922478582]]],[[[-96.646463623850323,40.797110063548956],[-96.646415912741247,40.798460204549087],[-96.644639264471152,40.798423932249364],[-96.644591514189131,40.799774071169729],[-96.644543760668427,40.801124209726972],[-96.646320480814808,40.801160485460144],[-96.646272759996933,40.802510625371077],[-96.646225035942308,40.80386076491893],[-96.646177308650678,40.805210904103696],[-96.644400480671607,40.805174623219784],[-96.642623655932255,40.805138315000654],[-96.64084683443501,40.805101979446455],[-96.640894669565867,40.803751845416485],[-96.640942501452429,40.802401711023244],[-96.639165755089138,40.802365351575745],[-96.639117887259104,40.803715484248208],[-96.637341108199081,40.803679095746439],[-96.635564332388228,40.803642679911306],[-96.633787559828988,40.803606236742979],[-96.633739580915986,40.804956363881786],[-96.631962775665869,40.804919891654379],[-96.630185973672496,40.804883392092762],[-96.63013791961076,40.806233515414533],[-96.628361084929693,40.806196986790184],[-96.628312991659271,40.807547108019499],[-96.628264895126776,40.808897228885023],[-96.630041801708828,40.808933760966923],[-96.629993737868105,40.810283883197513],[-96.629945670767228,40.811634005064391],[-96.629897600405954,40.812984126567535],[-96.629849526784014,40.814334247706903],[-96.628072476370789,40.814297708709084],[-96.626295429220917,40.814261142368302],[-96.6263435747655,40.812911024688376],[-96.624566566842361,40.81287443273645],[-96.62461474507991,40.81152431642424],[-96.622837776382994,40.81148769886385],[-96.621060810956223,40.811451053963488],[-96.621109057837444,40.810100940754268],[-96.619332131638572,40.810064270249541],[-96.619380411200368,40.808714158411583],[-96.619428687487641,40.807364046209486],[-96.619476960500648,40.80601393364325],[-96.61952523023966,40.804663820712868],[-96.619573496704916,40.803313707418376],[-96.617796753519627,40.803277018257745],[-96.617845052651859,40.80192690633541],[-96.617893348508389,40.800576794048887],[-96.61967001981516,40.800613479737024],[-96.619718276460659,40.799263365350185],[-96.621494915104591,40.799300021974176],[-96.62154313254392,40.797949905488458],[-96.623319738524486,40.797986533050768],[-96.623367916762504,40.796636414467606],[-96.623416091733148,40.795286295520491],[-96.623464263436645,40.793936176209435],[-96.625240764897669,40.793972771248548],[-96.627017269623138,40.794009338964365],[-96.626969169773147,40.795359461738116],[-96.628745713687763,40.795396003859906],[-96.628793777610625,40.794045879356744],[-96.630570288857697,40.794082392425551],[-96.632346803361912,40.794118878170615],[-96.632394792175049,40.792768749848932],[-96.634171274008537,40.792805206544664],[-96.634123321120867,40.794155336591821],[-96.63589984213209,40.794191767688993],[-96.635851921920263,40.795541899096875],[-96.637628482109747,40.795578304592837],[-96.63940504554688,40.795614682763208],[-96.639452893901705,40.794264547910714],[-96.639500739011524,40.792914412694905],[-96.641277233838593,40.792950760098861],[-96.641229424655222,40.794300897034965],[-96.643005958651301,40.794337218834613],[-96.643053731907969,40.792987080179493],[-96.643101501924761,40.791636941161201],[-96.644877967309498,40.79167323220075],[-96.644830233217235,40.793023372936688],[-96.646606737763946,40.793059638370295],[-96.64655903636141,40.794409780459553],[-96.644782495887497,40.794373513309537],[-96.644734755320087,40.795723653319257],[-96.644687011514719,40.797073792965875],[-96.646463623850323,40.797110063548956]]],[[[-96.635180697579401,40.814443700641171],[-96.633403637390742,40.814407243673088],[-96.63345163908906,40.813057119079424],[-96.635228663315516,40.813093574322281],[-96.635180697579401,40.814443700641171]]],[[[-96.638734827715112,40.814516532546548],[-96.638686930655396,40.815866661948576],[-96.638639030346681,40.817216790987182],[-96.636861891720557,40.817180385260869],[-96.636909827996831,40.815830257945031],[-96.636957761021677,40.8144801302657],[-96.638734827715112,40.814516532546548]]],[[[-96.620964307375758,40.814151279289661],[-96.621012560802399,40.812801166808619],[-96.62278956218718,40.812837813443153],[-96.624566566842361,40.81287443273645],[-96.624518385336827,40.814224548684713],[-96.622741344720964,40.814187927658445],[-96.620964307375758,40.814151279289661]]],[[[-96.626247280410553,40.815611259684317],[-96.624470200563096,40.815574664268986],[-96.624518385336827,40.814224548684713],[-96.626295429220917,40.814261142368302],[-96.626247280410553,40.815611259684317]]]]}},
{"type":"Feature","properties":{"band":60},"geometry":{"type":"MultiPolygon","coordinates":[[[[-96.717391914674891,40.80258910144277],[-96.71561506696581,40.802553919080403],[-96.71556874807024,40.803904124940431],[-96.715522426032805,40.805254330440022],[-96.715476100853294,40.806604535579147],[-96.715429772531422,40.807954740357836],[-96.717206764061544,40.807989929381257],[-96.71898375873181,40.808025091062333],[-96.719030015135615,40.806674882954212],[-96.720806976984221,40.806710015630038],[-96.720760756539804,40.808060225400943],[-96.722537757483067,40.808095332396945],[-96.722491569865454,40.809445543469138],[-96.722445379114745,40.810795754181143],[-96.724222455117911,40.810830837154967],[-96.725999534251969,40.810865892783326],[-96.726045653072958,40.80951567875195],[-96.72782269937025,40.809550705376935],[-96.72777661651449,40.810900921066043],[-96.729553701903043,40.810935922003019],[-96.729599748793319,40.809585704657465],[-96.731376801339735,40.809620676593376],[-96.733153857007068,40.809655621184568],[-96.734930915792859,40.809690538430857],[-96.736707977694721,40.809725428332136],[-96.738485042710167,40.809760290888249],[-96.740262110836795,40.809795126099083],[-96.740216279744359,40.811145353356189],[-96.740170445542944,40.812495580253746],[-96.741947588715036,40.812530391414008],[-96.741993386946859,40.811180162868972],[-96.743770497255909,40.811214945034891],[-96.743724734993904,40.812565175226091],[-96.74550188437712,40.812599931689888],[-96.745456154983259,40.813950163166645],[-96.74723334344111,40.813984893925657],[-96.747279036862238,40.812634660805251],[-96.749056192446815,40.812669362572038],[-96.750833351128449,40.812704036990105],[-96.752610512904681,40.812738684059333],[-96.752564927403199,40.814088922102947],[-96.75434212824527,40.814123543461669],[-96.756119332177335,40.814158137469974],[-96.756073815535927,40.815508378430316],[-96.756028295806757,40.816858619031692],[-96.75425101991955,40.816824021748808],[-96.752473747122778,40.81678939711292],[-96.750696477418899,40.816754745124165],[-96.750650846658729,40.818104980450514],[-96.748873544069639,40.81807029946777],[-96.747096244578543,40.818035591131135],[-96.747050538757151,40.819385822814354],[-96.745273206383999,40.819351085480065],[-96.745318948187872,40.818000855440758],[-96.743541654900071,40.817966092396773],[-96.743495877113958,40.819316320790861],[-96.741718550949443,40.819281528746899],[-96.741764364717554,40.817931301999316],[-96.73998707764278,40.817896484248529],[-96.739941227892913,40.81924670934832],[-96.738163907946785,40.819211862595246],[-96.738209793678195,40.81786163914456],[-96.736432512826184,40.817826766687517],[-96.736478431423819,40.816476544527511],[-96.734701189665486,40.816441646369178],[-96.734655235089249,40.817791866877577],[-96.732877960469779,40.817756939714847],[-96.732923951024375,40.816406720859362],[-96.731146715502959,40.816371767998191],[-96.729369483103653,40.816336787785829],[-96.727592253828888,40.816301780222389],[-96.727546155340619,40.817651994111415],[-96.725768893215431,40.817616957538974],[-96.725722755620112,40.818967169409838],[-96.723945460644998,40.818932103825894],[-96.722168168802199,40.818897010888712],[-96.720390880094186,40.818861890598434],[-96.71861359452339,40.818826742955196],[-96.716836312092241,40.81879156795916],[-96.716882629583154,40.817441364398377],[-96.715105386272469,40.817406163715553],[-96.715059032803183,40.818756365610419],[-96.713281756658631,40.818721135909158],[-96.713328146106079,40.817370935681481],[-96.713374532406817,40.816020735093232],[-96.713420915561088,40.814670534144433],[-96.715198083778503,40.814705758844319],[-96.715244427815691,40.813355555867965],[-96.713467295569131,40.813320332835069],[-96.713513672431191,40.811970131165154],[-96.713560046147506,40.81061992913471],[-96.715337106459685,40.810655148833838],[-96.717114169914936,40.810690341188192],[-96.717160468558447,40.809340135464915],[-96.715383441066976,40.809304944776066],[-96.713606416718321,40.809269726743736],[-96.71182939551494,40.809234481368051],[-96.711875798901346,40.807884280284554],[-96.711922199140318,40.806534078840471],[-96.713699148424411,40.806569320880193],[-96.713745509560169,40.805219117407646],[-96.711968596232055,40.805183877035802],[-96.712014990176854,40.803833674870553],[-96.710238115949025,40.803798408828477],[-96.710284542697963,40.802448207971707],[-96.710330966297988,40.801098006754287],[-96.708554167118166,40.801062716714917],[-96.708600623515295,40.799712516807091],[-96.706823863432106,40.799677201104046],[-96.705047106502235,40.79964185806724],[-96.70509363163444,40.798291661142841],[-96.703316913802894,40.798256292446453],[-96.703363471719797,40.796906096835194],[-96.70158679298612,40.796870702481854],[-96.701633383682832,40.795520508184879],[-96.70167997121969,40.794170313526962],[-96.699903367518203,40.794134895195754],[-96.699949987827821,40.792784701853222],[-96.701726555596906,40.792820118508111],[-96.701773136814751,40.791469923128339],[-96.699996604975624,40.791434508149699],[-96.700043218961866,40.790084314085185],[-96.698266726211585,40.790048873458609],[-96.698313372961337,40.788698680710532],[-96.696536919299447,40.788663214438643],[-96.694760468803509,40.788627720844204],[-96.69471375020477,40.789977910233581],[-96.692937266953095,40.789942387635435],[-96.692984021475951,40.788592199927336],[-96.691207577319204,40.788556651688189],[-96.691160786872459,40.789906837713694],[-96.68938430996532,40.789871260468544],[-96.687607836234093,40.789835655900085],[-96.687654698527865,40.788485473243611],[-96.685878263898147,40.788449843038471],[-96.68410183244896,40.788414185511606],[-96.682325404182734,40.788378500663164],[-96.680548979101928,40.788342788493296],[-96.678772557208944,40.788307049002142],[-96.678725515301878,40.789657223213439],[-96.676949060677245,40.789621454708218],[-96.676996138506226,40.788271282189832],[-96.675219722996204,40.788235488056507],[-96.673443310681321,40.788199666602331],[-96.673396161009222,40.789549835731037],[-96.671619715970706,40.789513985259347],[-96.671666901563981,40.788163817827432],[-96.669890495646627,40.78812794173195],[-96.668114092931702,40.788092038316037],[-96.668066835496802,40.7894422023505],[-96.666290400066273,40.789406269913634],[-96.66624310350339,40.790756431885193],[-96.664466635357769,40.790720470424866],[-96.664513967843291,40.789370310155327],[-96.664561297118837,40.788020149523454],[-96.664608623184677,40.786669988529255],[-96.666384983569699,40.786705944883742],[-96.668161347161771,40.786741873919368],[-96.668208598187221,40.785391709160521],[-96.669984929068036,40.785427609177894],[-96.671761263150813,40.785463481877436],[-96.673537600433065,40.785499327258975],[-96.67349045715585,40.786849497111632],[-96.675266833551746,40.786885316870396],[-96.675313940912389,40.785535145322363],[-96.677090284586356,40.785570936067494],[-96.678866631452522,40.785606699494188],[-96.680642981508456,40.785642435602306],[-96.682419334751742,40.785678144391724],[-96.684195691179923,40.785713825862295],[-96.684148763405801,40.787064005867734],[-96.685925158934509,40.787099661706925],[-96.685972050790596,40.785749480013877],[-96.687748413581318,40.785785106846312],[-96.687701557643521,40.787135290225685],[-96.689477959530393,40.787170891423877],[-96.689524779549672,40.785820706359488],[-96.691301148693185,40.78585627855324],[-96.691347929620932,40.784506091443809],[-96.693124266020632,40.78454163463563],[-96.693077521009485,40.785891823427434],[-96.694853896496085,40.785927340981921],[-96.694900605590405,40.784577150509037],[-96.694947311517083,40.783226959674998],[-96.69672361833986,40.783262446550125],[-96.696770285186915,40.781912253675266],[-96.698546559262226,40.781947711554629],[-96.698593187034533,40.780597516640384],[-96.696816948869255,40.78056206043933],[-96.69686360938708,40.779211866842324],[-96.696910266740673,40.777861672884235],[-96.698686433093201,40.777897125728906],[-96.698733051380046,40.776546929731659],[-96.700509184991162,40.776582353587138],[-96.700555764216162,40.775232155552182],[-96.700602340282472,40.773881957156291],[-96.700648913190378,40.772531758399495],[-96.70069548294012,40.7711815592818],[-96.698919492916616,40.771146142132885],[-96.698966095399257,40.76979594433076],[-96.699012694721773,40.768445746167679],[-96.700788612966065,40.768481159963706],[-96.700835173242751,40.767130959763335],[-96.699059290884449,40.767095547643656],[-96.69728341168576,40.767060108221912],[-96.695507535649128,40.76702464149826],[-96.695554200418513,40.765674445969687],[-96.695600862023653,40.764324250080058],[-96.697376666296591,40.764359713446062],[-96.69742328885954,40.763009515516629],[-96.695647520464803,40.762974053829339],[-96.693871755233815,40.762938564844163],[-96.693918446386732,40.761588369912346],[-96.693965134373713,40.760238174619403],[-96.694011819194984,40.75888797896534],[-96.694058500850815,40.757537782950152],[-96.694105179341435,40.756187586573873],[-96.692329596628767,40.756152078696438],[-96.692376307817568,40.754801883639942],[-96.694151854667084,40.754837389836489],[-96.695927404681314,40.754872868743021],[-96.697702957857842,40.754908320359391],[-96.697749558296607,40.753558119903126],[-96.69779615557573,40.752207919085905],[-96.697842749695468,40.750857717907742],[-96.69606730409528,40.750822271325909],[-96.694291861656652,40.750786797457799],[-96.694338524324863,40.749436599276081],[-96.696113930909803,40.749472071464844],[-96.696160554563008,40.74812187124278],[-96.697935928457767,40.748157314468578],[-96.697982513100825,40.746807112207598],[-96.696207175055136,40.746771670659712],[-96.696253792386415,40.745421469715659],[-96.6963004065571,40.744071268410636],[-96.696347017567433,40.742721066744622],[-96.696393625417656,40.741370864717638],[-96.694618433903884,40.74133540260349],[-96.69466507443093,40.73998520189442],[-96.694711711795946,40.738635000824296],[-96.694758345999148,40.737284799393152],[-96.694804977040775,40.735934597601009],[-96.694851604921112,40.734584395447847],[-96.696626617275612,40.734619849168318],[-96.69667320617026,40.733269644975614],[-96.696719791906503,40.731919440421983],[-96.698494735772442,40.731954863517217],[-96.698541282530542,40.730604656925536],[-96.696766374484582,40.730569235507431],[-96.694991469596545,40.730533786822363],[-96.694944851198741,40.73188399005852],[-96.693169913651573,40.731848512426971],[-96.693216567868859,40.730498310870516],[-96.693263218923391,40.729148108953005],[-96.693309866815397,40.727797906674454],[-96.6915350398817,40.727762406817696],[-96.689760216112745,40.727726879697002],[-96.687985395510907,40.727691325312513],[-96.688032147675827,40.72634112771911],[-96.689806932466169,40.726376680420245],[-96.68985364565269,40.725026480782304],[-96.691628397800613,40.725062004538941],[-96.693403153112754,40.725097501034199],[-96.693449791518617,40.723747297672539],[-96.693496426762906,40.722397093949844],[-96.695271113624528,40.722432559824973],[-96.695224514185185,40.723782765226936],[-96.696999240010896,40.723818205520999],[-96.697045803645054,40.722467998441019],[-96.698820496822023,40.722503409797881],[-96.698773968993322,40.723853618554564],[-96.700548701130032,40.723889004327489],[-96.702323436418624,40.723924362839639],[-96.702276977052051,40.725274574585185],[-96.702230514535813,40.726624785970053],[-96.70218404886964,40.727974996994213],[-96.703958894740694,40.728010333264379],[-96.703912461740202,40.72936054560094],[-96.703866025591736,40.730710757576851],[-96.705640946245154,40.730746069925807],[-96.70559454276939,40.732096283213039],[-96.70554813614757,40.733446496139671],[-96.707323131591593,40.733481784562372],[-96.707276757649524,40.734831998799208],[-96.707230380563345,40.736182212675502],[-96.707184000332802,40.737532426191258],[-96.707137616957681,40.738882639346471],[-96.707091230437712,40.740232852141126],[-96.705316055839262,40.74019755536375],[-96.705269630336076,40.7415477661267],[-96.707044840772681,40.741583064575217],[-96.70699844796232,40.742933276648742],[-96.706952052006415,40.744283488361702],[-96.708727337272407,40.744318762872005],[-96.708680974016389,40.745668975894418],[-96.70863460761673,40.747019188556322],[-96.708588238073219,40.748369400857698],[-96.706812845262903,40.748334121337081],[-96.706766436722347,40.749684331607682],[-96.706720025035025,40.751034541517697],[-96.704944563663375,40.750999231369406],[-96.704898112971478,40.752349439247126],[-96.706673610200681,40.752384751067098],[-96.708449110577121,40.752420035598647],[-96.708402728455766,40.75377024645789],[-96.706627192219088,40.753734960255883],[-96.706580771090003,40.755085169084062],[-96.708356343189351,40.755120456956554],[-96.708309954777633,40.756470667094689],[-96.706534346813186,40.756435377551611],[-96.704758741996727,40.756400060716231],[-96.702983140330687,40.75636471658872],[-96.702936641171576,40.75771492135047],[-96.702890138859416,40.759065125751455],[-96.702843633393925,40.76041532979167],[-96.704619342668352,40.760450678939058],[-96.704572869923609,40.761800884291894],[-96.702797124774875,40.761765533471085],[-96.702750613002024,40.763115736789722],[-96.70097483513058,40.763080356996966],[-96.70092828432476,40.764430558279962],[-96.702704098075131,40.764465939747566],[-96.702657579993968,40.765816142344612],[-96.704433432780206,40.765851498186095],[-96.704386947428546,40.767201702096017],[-96.702611058758265,40.767166344580851],[-96.702564534367795,40.768516546456262],[-96.70434045892452,40.768551905645197],[-96.70429396726793,40.76990210883362],[-96.704247472458505,40.771252311661307],[-96.70420097449599,40.772602514128209],[-96.704154473380186,40.773952716234348],[-96.704107969110837,40.775302917979708],[-96.705884076290076,40.775338258228224],[-96.705837604768206,40.77668846128568],[-96.70579113009471,40.7780386639824],[-96.707567312230793,40.778073980263791],[-96.707520870311825,40.779424184271491],[-96.707474425243191,40.780774387918548],[-96.707427977024665,40.782124591204926],[-96.70565168716216,40.782089269908212],[-96.705605199879813,40.783439471161998],[-96.70738152565599,40.783474794130626],[-96.70733507113691,40.784824996695633],[-96.709111435979821,40.784860294016717],[-96.709065014228898,40.786210497891808],[-96.710841418139026,40.786245769562676],[-96.71079502916109,40.787595974746658],[-96.709018589329517,40.787560701406264],[-96.708972161281466,40.788910904560083],[-96.710748637036914,40.788946179570075],[-96.710702241766242,40.790296384032906],[-96.710655843348846,40.79164658813518],[-96.710609441784442,40.792996791876845],[-96.712386028473347,40.79303204456847],[-96.714162618307043,40.793067269932386],[-96.714116285463376,40.794417476649329],[-96.714069949477107,40.795767683005792],[-96.715846614324249,40.795802884373913],[-96.715800311134345,40.797153092036041],[-96.715754004803784,40.79850329933776],[-96.717530744672658,40.798538476705041],[-96.717484471145511,40.799888685311302],[-96.715707695332341,40.799853506279071],[-96.715661382719759,40.801203712859945],[-96.717438194479683,40.801238893557219],[-96.717391914674891,40.80258910144277]],[[-96.727638349190158,40.814951565973324],[-96.725861159017356,40.814916532716964],[-96.725815027681108,40.81626674530802],[-96.727592253828888,40.816301780222389],[-96.727638349190158,40.814951565973324]],[[-96.706859250656947,40.746983910705872],[-96.705083896843462,40.746948605572165],[-96.705037455599125,40.748298814531907],[-96.706812845262903,40.748334121337081],[-96.706859250656947,40.746983910705872]]],[[[-96.759628304613628,40.815577487665749],[-96.757851058532111,40.815542946724022],[-96.757896539196906,40.81419270412772],[-96.756119332177335,40.814158137469974],[-96.756164845731206,40.812807896150659],[-96.75794201677661,40.812842461172515],[-96.757987491271464,40.811492217858429],[-96.759764629429782,40.811526753896331],[-96.759719190906893,40.812876998844956],[-96.761496368119595,40.812911509167876],[-96.761450962488922,40.814261755390987],[-96.759673749301584,40.814227243434765],[-96.759628304613628,40.815577487665749]]],[[[-96.773891540910128,40.814502573249761],[-96.772114306212387,40.814468252753194],[-96.772159495990266,40.813117996757327],[-96.773936694711722,40.813152315629637],[-96.773891540910128,40.814502573249761]]],[[[-96.711458055086268,40.820036077054077],[-96.711504483661031,40.818685878855511],[-96.713281756658631,40.818721135909158],[-96.713235364064204,40.820071335776277],[-96.711458055086268,40.820036077054077]]],[[[-96.714780845943977,40.82685756940888],[-96.713003353879373,40.826822329703084],[-96.711225864963154,40.826787062637145],[-96.711179417486974,40.828137258671759],[-96.712956942398151,40.828172527406657],[-96.712910527768258,40.829522724749616],[-96.711132966859694,40.829487454345688],[-96.711086513081085,40.830837649658953],[-96.711040056150907,40.832187844611518],[-96.710993596068903,40.83353803920339],[-96.709215930305561,40.833502736425544],[-96.709169431064595,40.834852928986145],[-96.70912292866889,40.836203121185946],[-96.709076423118191,40.837553313024983],[-96.709029914412284,40.838903504503229],[-96.707252107762145,40.838868167671173],[-96.707205559884329,40.840218357116491],[-96.708983402550899,40.840253695620682],[-96.70893688753381,40.841603886377335],[-96.708890369360745,40.842954076773196],[-96.708843848031492,40.844304266808223],[-96.708797323545795,40.84565445648245],[-96.708750795903427,40.847004645795856],[-96.708704265104117,40.84835483474842],[-96.706926206287804,40.848319486209995],[-96.706879636297842,40.849669673129121],[-96.708657731147639,40.849705023340157],[-96.70861119403375,40.851055211571051],[-96.706833063148011,40.851019859687341],[-96.706786486838098,40.852370045884655],[-96.706739907367819,40.853720231721056],[-96.70496170756347,40.85368484910618],[-96.704915088889607,40.855035032907473],[-96.70669332473696,40.855070417196508],[-96.706646738945295,40.85642060231104],[-96.706600149992539,40.857770787064638],[-96.704821842051814,40.857735399427064],[-96.703043537274851,40.857699984400149],[-96.702996873060357,40.859050165442767],[-96.702950205679414,40.860400346124301],[-96.701171831966505,40.860364900354199],[-96.69939346142273,40.860329427192447],[-96.697615094050533,40.860293926639187],[-96.695836729852331,40.860258398694555],[-96.694058368830582,40.860222843358706],[-96.69228001098773,40.860187260631776],[-96.692233124115376,40.86153743087025],[-96.6904547334006,40.86150181906752],[-96.688676345869837,40.861466179872693],[-96.68872330484848,40.860116013005232],[-96.688770260640922,40.858765845776148],[-96.686991948399736,40.858730182564202],[-96.686944956556985,40.860080348105896],[-96.685166611454122,40.860044655816061],[-96.68511958037017,40.861394819307328],[-96.683341202406126,40.861359097937076],[-96.681562827635872,40.861323349175287],[-96.681515721251372,40.862673508923294],[-96.681468611670383,40.864023668309393],[-96.679690167985456,40.863987888770765],[-96.679643019148642,40.865338046102117],[-96.677864542604013,40.865302237475547],[-96.676086069261231,40.865266401454001],[-96.676133290215546,40.863916247512194],[-96.677911727499691,40.863952081838328],[-96.677958909193791,40.862601925839051],[-96.67618050796581,40.862566093208265],[-96.67622772251228,40.86121593854223],[-96.676274933855197,40.859865783514067],[-96.674496607935566,40.859829926884125],[-96.674449360541601,40.861180080215767],[-96.672671001776919,40.8611441944985],[-96.672718285221691,40.85979404286465],[-96.670939965716002,40.859758131455806],[-96.670892646220679,40.861108281390557],[-96.670845323514484,40.862458430962995],[-96.669066935116376,40.862422488764068],[-96.66911429387531,40.861072340892093],[-96.669161649420943,40.859722192657721],[-96.669209001753501,40.858372044060992],[-96.667430724719154,40.858336079575423],[-96.667478109884044,40.856985932317876],[-96.665699872109897,40.856949942147509],[-96.665652450900055,40.858300087702226],[-96.663874180298663,40.858264068441507],[-96.662095912917422,40.858228021793416],[-96.660317648758777,40.858191947758108],[-96.660270116190603,40.859542087833837],[-96.658491819210596,40.859505984703368],[-96.656713525458315,40.859469854184667],[-96.654935234936204,40.859433696277875],[-96.654887590997035,40.860783830862545],[-96.653109267659431,40.860747643855788],[-96.653156947646693,40.85939751098315],[-96.651378663592212,40.859361298300627],[-96.651426376389807,40.858011166778255],[-96.649648131617937,40.857974928422628],[-96.649695877220978,40.856624798251694],[-96.649743619584598,40.85527466771763],[-96.651521792273513,40.855310902644362],[-96.65156949536015,40.853960770032849],[-96.651617195210292,40.852610637058305],[-96.651664891824211,40.851260503720724],[-96.651712585202134,40.849910370020133],[-96.65176027534433,40.848560235956505],[-96.649982282820076,40.84852400960083],[-96.650030005752384,40.847173876888199],[-96.650077725447019,40.845823743812517],[-96.651855645922481,40.84585996674025],[-96.651903326358948,40.844509831587615],[-96.650125441904223,40.844473610373747],[-96.65017315512425,40.843123476571911],[-96.650220865107343,40.841773342407031],[-96.650268571853772,40.840423207879105],[-96.65031627536375,40.839073072988128],[-96.650363975637561,40.837722937734121],[-96.648586274485865,40.837686697721729],[-96.648634007529594,40.836336563819444],[-96.650411672675418,40.836372802117069],[-96.650459366477605,40.835022666137007],[-96.650507057044351,40.833672529793922],[-96.650554744375924,40.832322393087821],[-96.648777187233037,40.832286159934021],[-96.648729463902924,40.833636294925583],[-96.646951873999114,40.833600032694441],[-96.646999633327511,40.832249899418713],[-96.645222082661817,40.832213611542066],[-96.64526987474602,40.830863479620255],[-96.645317663588216,40.829513347335244],[-96.647095142265144,40.829549631777844],[-96.647142891874864,40.828199497412712],[-96.645365449188674,40.828163214687024],[-96.645413231547636,40.82681308167561],[-96.643635828090993,40.826776773310748],[-96.643683643194308,40.825426641654211],[-96.641906278966729,40.825390307652818],[-96.641954126809537,40.824040177352344],[-96.640176801810497,40.824003817717077],[-96.64012891798501,40.825353946296964],[-96.638351560251593,40.825317557586793],[-96.638399480059519,40.823967430728793],[-96.636622161559018,40.82393101638764],[-96.634844846311452,40.823894574693746],[-96.634796854539431,40.825244698104093],[-96.633019506565574,40.825208227331856],[-96.631242161849741,40.825171729205877],[-96.631290225584863,40.823821609248355],[-96.629512920110699,40.823785085497143],[-96.629561016564324,40.822434966904147],[-96.629609109755521,40.82108484794739],[-96.627831879498572,40.821048300303097],[-96.627880005401224,40.819698182711981],[-96.629657199684544,40.819734728626841],[-96.629705286351665,40.818384608942516],[-96.629753369757111,40.8170344888944],[-96.627976247413699,40.8169979464382],[-96.62619912833415,40.816961376636456],[-96.626150972991454,40.818311493224691],[-96.624373821209957,40.818274894345663],[-96.624422012520895,40.81692477948932],[-96.622644899976336,40.816888154996917],[-96.622693123984106,40.81553804150969],[-96.622741344720964,40.814187927658445],[-96.624518385336827,40.814224548684713],[-96.624470200563096,40.815574664268986],[-96.626247280410553,40.815611259684317],[-96.626295429220917,40.814261142368302],[-96.628072476370789,40.814297708709084],[-96.629849526784014,40.814334247706903],[-96.629897600405954,40.812984126567535],[-96.629945670767228,40.811634005064391],[-96.629993737868105,40.810283883197513],[-96.630041801708828,40.808933760966923],[-96.628264895126776,40.808897228885023],[-96.628312991659271,40.807547108019499],[-96.628361084929693,40.806196986790184],[-96.63013791961076,40.806233515414533],[-96.631914757551243,40.806270016703529],[-96.633691598748683,40.806306490657029],[-96.633643613326839,40.807656617068673],[-96.633595624650212,40.809006743116754],[-96.635372541004699,40.809043193184408],[-96.637149460611781,40.809079615913681],[-96.638926383469041,40.809116011304447],[-96.640703309574064,40.809152379356547],[-96.640655461463467,40.810502511933294],[-96.640607610107295,40.811852644146711],[-96.642384611371838,40.811888988299749],[-96.644161615879739,40.811925305111245],[-96.645938623628595,40.811961594581057],[-96.647715634615949,40.811997856709063],[-96.64776334213731,40.81064771762378],[-96.649540320401414,40.810683950695072],[-96.649492648839384,40.8120340914951],[-96.649444974043718,40.813384231932147],[-96.651222027462794,40.813420441089569],[-96.651269666296443,40.81207029893902],[-96.651317301898914,40.810720156425546],[-96.653094286627351,40.810756334815061],[-96.654871274584323,40.810792485863466],[-96.656648265767373,40.810828609570635],[-96.656600738045128,40.812178757216678],[-96.658377768412407,40.812214855290712],[-96.660154802001145,40.812250926021925],[-96.660202257802013,40.810900774960615],[-96.661979258648714,40.810936816643164],[-96.662026675272159,40.809586663513684],[-96.66380364337634,40.809622676150077],[-96.663756262711772,40.810972830983886],[-96.665533269988742,40.811008817982639],[-96.665580614694193,40.809658661445781],[-96.667357589223272,40.809694619400688],[-96.667310280477196,40.811044777639282],[-96.667262968522067,40.812394935515599],[-96.669040018181619,40.812430869530509],[-96.669087294174687,40.811080709953671],[-96.670864311078802,40.811116614925666],[-96.67081707104802,40.812466776201738],[-96.67259412711887,40.81250265552913],[-96.674371186391681,40.812538507512542],[-96.674418354497121,40.811188342841895],[-96.676195381006465,40.811224165785845],[-96.67797241071267,40.811259961386824],[-96.677925314533553,40.812610129446895],[-96.679702383397753,40.812645899397531],[-96.681479455454166,40.812681642003632],[-96.681432428012542,40.814031813086189],[-96.681385397380851,40.815381983806986],[-96.68316254456245,40.815417702448968],[-96.68311554671179,40.816767874498375],[-96.68489273305282,40.816803567482047],[-96.684845767988037,40.818153740858911],[-96.684798799737322,40.819503913874129],[-96.684751828300449,40.82085408652771],[-96.686529125757232,40.82088975722634],[-96.688306426398,40.820925400572108],[-96.690083730220309,40.82096101656488],[-96.69013059371909,40.819610838851162],[-96.690177454038988,40.818260660776005],[-96.691954689083133,40.818296246047431],[-96.691907864740642,40.819646425806653],[-96.691861037221727,40.820996605204485],[-96.693638347399826,40.821032166490809],[-96.695415660752161,40.821067700423697],[-96.695368902021883,40.822417882824652],[-96.695322140119558,40.823768064864353],[-96.697099528612185,40.823803574804373],[-96.69705279952548,40.825153758163268],[-96.69700606726866,40.826503941160951],[-96.698783530909878,40.82653942710305],[-96.700560997718981,40.826574885686128],[-96.702338467693551,40.826610316910049],[-96.702385091977888,40.825260128878561],[-96.70416252912419,40.825295531067809],[-96.704209114256855,40.823945341000034],[-96.704255696229424,40.82259515057136],[-96.706033064560259,40.822630522054531],[-96.707810436048547,40.822665866182014],[-96.707856942892505,40.821315672045991],[-96.709634281551033,40.821350987146346],[-96.711411623361883,40.821386274892006],[-96.711365188487633,40.822736472369279],[-96.713142569433558,40.82277173442877],[-96.713096167396827,40.824121933214137],[-96.714873587478337,40.824157169584822],[-96.714827218284029,40.825507369677126],[-96.714780845943977,40.82685756940888]],[[-96.665747290102274,40.855599796230273],[-96.663969091587816,40.855563780377757],[-96.663921637553187,40.856913924590913],[-96.665699872109897,40.856949942147509],[-96.665747290102274,40.855599796230273]],[[-96.667525491833942,40.855635784697874],[-96.669303696780389,40.855671745780406],[-96.669351039475202,40.854321596096575],[-96.671129211593438,40.854357528093786],[-96.67290738692131,40.854393432706928],[-96.672860116307831,40.855743585789696],[-96.674638330883937,40.855779464716178],[-96.676416548665046,40.855815316257015],[-96.676463747196209,40.854465159780496],[-96.676510942525042,40.853115002941898],[-96.678289091428098,40.853150823707132],[-96.678336247518217,40.851800664811655],[-96.678383400408947,40.850450505554171],[-96.680161480440276,40.850486295549132],[-96.680114363584011,40.85183645650006],[-96.681892482846763,40.851872220806285],[-96.681845398830703,40.853222383087498],[-96.683623557325348,40.853258121702318],[-96.683670605304002,40.851907957730184],[-96.685448730953325,40.851943667271605],[-96.68540171901229,40.853293832933367],[-96.687179883889115,40.853329516780526],[-96.688958051953392,40.853365173243638],[-96.690736223202634,40.853400802322554],[-96.690689316193442,40.854750972683902],[-96.690642406001444,40.85610114268372],[-96.692420652517811,40.856136747747421],[-96.692467526666292,40.854786576063006],[-96.694245740319516,40.854822152056364],[-96.694292575246351,40.853471978327271],[-96.696070756035937,40.853507525252766],[-96.696117551745985,40.852157349480407],[-96.696164344281058,40.850807173346716],[-96.696211133641384,40.8494569968517],[-96.694433060961799,40.849421454971598],[-96.694479883179426,40.84807127979694],[-96.692701849708328,40.848035712219051],[-96.692654991459179,40.849385885710745],[-96.69087692513591,40.849350289069314],[-96.690923819416369,40.848000117261876],[-96.689145792305979,40.847964494925542],[-96.689192719433478,40.846614324442065],[-96.687414731535469,40.846578676413486],[-96.687461691505149,40.845228507255143],[-96.685683742819009,40.845192833536984],[-96.685730735625981,40.843842665704948],[-96.683952826151256,40.843806966299873],[-96.683999851790617,40.842456799795293],[-96.685777725244776,40.842492497511216],[-96.685824711675679,40.841142328955797],[-96.687602552299396,40.841177997610373],[-96.6876494995267,40.839827827005543],[-96.689427307319477,40.83986346660128],[-96.691205118294775,40.839899078825766],[-96.692982932450164,40.839934663678847],[-96.694760749783228,40.839970221160414],[-96.694807549769166,40.838620043456281],[-96.696585334262736,40.838655571884985],[-96.696632095061403,40.83730539213839],[-96.698409846714995,40.837340891516718],[-96.698456568331281,40.835990709729117],[-96.698503286777964,40.834640527580319],[-96.696725607142099,40.834605031561445],[-96.696772358424624,40.833254850731109],[-96.694994717965528,40.833219329026512],[-96.695041502079008,40.831869149515803],[-96.695088283018734,40.830518969643769],[-96.695135060784949,40.82916878941046],[-96.693357531499359,40.829133245386892],[-96.693310717735756,40.830483423938198],[-96.691533155628704,40.830447850870144],[-96.689755596700067,40.830412250439743],[-96.689708707761554,40.831762425261651],[-96.687931116014624,40.831726795783091],[-96.686153527451197,40.831691138941181],[-96.686106563328778,40.833041310028229],[-96.684328941950241,40.833005624134508],[-96.682551323760336,40.832969910876415],[-96.680773708761507,40.832934170254106],[-96.680726633443143,40.834284335909594],[-96.67894898563506,40.834248566230656],[-96.67717134102314,40.834212769186486],[-96.67539369960987,40.834176944777234],[-96.673616061397638,40.834141093003034],[-96.673568838866245,40.835491251518405],[-96.671791167853328,40.835455370681608],[-96.670013500046565,40.835419462478875],[-96.670060794586121,40.834069307360409],[-96.66828316599171,40.834033373492247],[-96.668235835448442,40.83538352691032],[-96.668188501694118,40.836733679966066],[-96.669966202298397,40.836769617235063],[-96.669918901341362,40.838119771628989],[-96.66814116472851,40.838083832659457],[-96.666363431327184,40.838047866321673],[-96.664585701139856,40.838011872615795],[-96.66280797416897,40.837975851541948],[-96.662855419158873,40.836625703957885],[-96.66290286093016,40.835275556011275],[-96.661125209190899,40.835239510980941],[-96.661172683746528,40.833889364377335],[-96.659395071230549,40.833853293688755],[-96.657617461937562,40.833817195636527],[-96.657665005272463,40.832467052085192],[-96.657712545382168,40.831116908171111],[-96.657760082266947,40.82976676389432],[-96.655982584190696,40.829730643606489],[-96.655935011311257,40.831080786174056],[-96.655887435204448,40.832430928378812],[-96.655839855870013,40.833781070220773],[-96.655792273307711,40.835131211699931],[-96.65574468751727,40.836481352816293],[-96.65752236559122,40.836517481650972],[-96.657474812579252,40.837867624114075],[-96.655697098498464,40.837831493569809],[-96.655649506251038,40.8391816339605],[-96.657427256341123,40.839217766214418],[-96.657379696876561,40.840567907952],[-96.655601910774749,40.840531773988381],[-96.655554312069341,40.841881913653417],[-96.65733213418531,40.841918049326821],[-96.657284568267158,40.843268190338854],[-96.657236999121807,40.844618330988105],[-96.655459104970177,40.844582191894943],[-96.655411496575937,40.845932330471427],[-96.655363884951569,40.847282468685052],[-96.655316270096847,40.848632606535809],[-96.6552686520115,40.849982744023691],[-96.655221030695316,40.851332881148693],[-96.655173406148023,40.852683017910806],[-96.656951516465128,40.852719167264922],[-96.656903924722599,40.85406930537453],[-96.658682074304991,40.854105429056141],[-96.660460227114129,40.854141525354684],[-96.660412704220292,40.855491666518517],[-96.662190896293012,40.855527737140463],[-96.662238383147525,40.854177594270034],[-96.664016542402777,40.85421363580204],[-96.665794704877442,40.85424964995056],[-96.665747290102274,40.855599796230273],[-96.667525491833942,40.855635784697874]],[[-96.694198902214765,40.856172325424062],[-96.695977155089892,40.856207875713508],[-96.696023957150643,40.8548577006638],[-96.694245740319516,40.854822152056364],[-96.694198902214765,40.856172325424062]],[[-96.651807962251013,40.847210101529882],[-96.653585921984899,40.84724629879554],[-96.65363356963293,40.845896162293272],[-96.651855645922481,40.84585996674025],[-96.651807962251013,40.847210101529882]],[[-96.631818711550778,40.808970265710876],[-96.631866736179617,40.80762014138903],[-96.630089862289623,40.807583638372584],[-96.630041801708828,40.808933760966923],[-96.631818711550778,40.808970265710876]],[[-96.682880509631744,40.823518729319687],[-96.682927523425462,40.822168559078875],[-96.681150196362879,40.822132831984277],[-96.681103146585656,40.82348300053436],[-96.682880509631744,40.823518729319687]],[[-96.699673850769443,40.852228357817168],[-96.697895699671449,40.852192867340591],[-96.697848940000739,40.853543044793525],[-96.697802177157257,40.854893221885199],[-96.699580400336899,40.854928715720405],[-96.699627127138356,40.853578536949378],[-96.699673850769443,40.852228357817168]],[[-96.691720535603949,40.825047141229646],[-96.691673695376863,40.826397319181886],[-96.693451149499737,40.82643288720022],[-96.693404342087277,40.827783066474225],[-96.69518183537788,40.827818608815846],[-96.695228606797812,40.82646842785995],[-96.695275375044943,40.825118246542793],[-96.693497953736951,40.825082707564867],[-96.691720535603949,40.825047141229646]],[[-96.693591552686755,40.822382347210151],[-96.691814206526132,40.822346784240928],[-96.691767372653615,40.823696962915982],[-96.69354475479922,40.823732527568175],[-96.693591552686755,40.822382347210151]],[[-96.659727554907235,40.824402269257149],[-96.66150491547414,40.824438327999673],[-96.661552364272239,40.823088178495425],[-96.663329692074726,40.823124208178207],[-96.665107023093384,40.823160210507375],[-96.665059646262009,40.824510363420345],[-96.66683701647807,40.824546340098195],[-96.666884357325742,40.823196185482793],[-96.668661694769355,40.823232133104334],[-96.668708996424215,40.82188197642553],[-96.670486301094897,40.821917894993277],[-96.672263608971733,40.821953786208127],[-96.674040920052278,40.821989650069973],[-96.674088110559765,40.820639487933654],[-96.674135297866229,40.819289325435257],[-96.67235805874293,40.819253464967588],[-96.670580822822856,40.81921757714948],[-96.668803590108411,40.819181661981098],[-96.667026360602094,40.819145719462547],[-96.667073688606152,40.817795563397787],[-96.66529649828432,40.817759595231394],[-96.665343859049656,40.816409440506405],[-96.663566707911855,40.816373446694804],[-96.663614101433566,40.815023293310752],[-96.661836989479283,40.81498727385663],[-96.660059880742068,40.814951227056802],[-96.660012415283376,40.816301377030371],[-96.661789559988947,40.816337425536091],[-96.661742127281272,40.817687576853025],[-96.661694691356018,40.819037727807441],[-96.659917474706404,40.81900167588973],[-96.659869999587642,40.8203518247755],[-96.659822521248358,40.821701973298666],[-96.658045235865728,40.821665890616657],[-96.65799771832539,40.823016037069671],[-96.659775039688299,40.823052121459213],[-96.659727554907235,40.824402269257149]],[[-96.636909827996831,40.815830257945031],[-96.636861891720557,40.817180385260869],[-96.638639030346681,40.817216790987182],[-96.638686930655396,40.815866661948576],[-96.638734827715112,40.814516532546548],[-96.636957761021677,40.8144801302657],[-96.636909827996831,40.815830257945031]],[[-96.635228663315516,40.813093574322281],[-96.63345163908906,40.813057119079424],[-96.633403637390742,40.814407243673088],[-96.635180697579401,40.814443700641171],[-96.635228663315516,40.813093574322281]],[[-96.63143439722981,40.819771247193422],[-96.633211598034535,40.81980773841159],[-96.633259612758536,40.818457615272415],[-96.631482447925478,40.818421125781022],[-96.63143439722981,40.819771247193422]]],[[[-96.704302275042124,40.82124495978173],[-96.704255696229424,40.82259515057136],[-96.702478331058444,40.822559751732591],[-96.702524945855146,40.821209562618129],[-96.704302275042124,40.82124495978173]]],[[[-96.68784511999786,40.731741915925234],[-96.686070195117296,40.731706329222746],[-96.686116992610124,40.73035613439793],[-96.687891881672172,40.730391719415572],[-96.687938640176441,40.729041522544676],[-96.689713496592191,40.72907707861259],[-96.68966677390425,40.730427277166967],[-96.68962004804871,40.73177747536019],[-96.68784511999786,40.731741915925234]]],[[[-96.688587775553728,40.812824338979759],[-96.688634655947993,40.811474160782467],[-96.690411707964159,40.811509764978702],[-96.690364863534882,40.81285994486101],[-96.688587775553728,40.812824338979759]]],[[[-96.679205199349582,40.724812765761897],[-96.679158271312289,40.726162955280763],[-96.67911134009357,40.727513144438042],[-96.679064405693182,40.728863333233747],[-96.677289568332583,40.728827613578282],[-96.677242594935407,40.730177800321165],[-96.679017468110871,40.730213521667871],[-96.678970527346394,40.731563709740385],[-96.677195618353636,40.73152798670241],[-96.675420712545687,40.731492236397749],[-96.673645809925006,40.731456458826557],[-96.673598758519702,40.732806641459533],[-96.671823823269705,40.73277083492674],[-96.671870910494007,40.731420653988984],[-96.670096014255094,40.73138482188515],[-96.670048891212062,40.732735001126386],[-96.670001764974245,40.734085180005685],[-96.66995463554143,40.735435358523034],[-96.668179635034292,40.735399494059465],[-96.666404637724824,40.735363602326082],[-96.666357433445441,40.736713777084169],[-96.664582403510821,40.736677856380503],[-96.662807376778957,40.736641908406],[-96.661032353252295,40.736605933160789],[-96.661079665006767,40.735255763508341],[-96.659304680512278,40.735219762697049],[-96.659257332933265,40.736569930645054],[-96.657482315824296,40.736533900858902],[-96.657529699227581,40.735183734616633],[-96.657577079418658,40.73383356801196],[-96.655802137167811,40.733797514369542],[-96.655849549966106,40.732447349109329],[-96.655896959550233,40.731097183486639],[-96.655944365920448,40.72974701750146],[-96.657719200720976,40.729783066023394],[-96.657766568065597,40.728432897969064],[-96.657813932199232,40.727082729552329],[-96.65786129312211,40.72573256077321],[-96.659636023704621,40.7257685769153],[-96.661410757495204,40.725804565797311],[-96.661458043597534,40.724454393246688],[-96.661505326494449,40.723104220333823],[-96.663279991882305,40.723140178550409],[-96.665054660472904,40.723176109509204],[-96.665007449182184,40.724526285825881],[-96.664960234690909,40.725876461780459],[-96.666734978091171,40.725912368881325],[-96.666782156776577,40.724562191226703],[-96.668556867569109,40.724598069368135],[-96.670331581557349,40.724633920250056],[-96.67037868543693,40.72328373883731],[-96.670425786123445,40.721933557062655],[-96.672200431698997,40.721969377292766],[-96.673975080464956,40.722005170265632],[-96.674022106359701,40.720654984738417],[-96.675796722513752,40.720690748760539],[-96.675749732418851,40.722040935981148],[-96.677524387558293,40.722076674439151],[-96.679299045880853,40.722112385639491],[-96.679345964375315,40.72076219503596],[-96.681120590077995,40.72079787728898],[-96.682895218958691,40.720833532285361],[-96.682848372065649,40.722183726266678],[-96.682801521996723,40.72353391988657],[-96.681026821511949,40.723498261513633],[-96.68097993246127,40.724848453083723],[-96.679205199349582,40.724812765761897]]],[[[-96.684248436923198,40.733020908030156],[-96.682473482570032,40.732985265105548],[-96.682520354876729,40.731635074015763],[-96.684295273409433,40.731670715252868],[-96.684248436923198,40.733020908030156]]],[[[-96.678923583399524,40.732913897451326],[-96.678970527346394,40.731563709740385],[-96.680745439521573,40.73159940551156],[-96.680698531394668,40.732949594912562],[-96.678923583399524,40.732913897451326]]],[[[-96.67676071742946,40.795022141163159],[-96.676807808031668,40.793671970092234],[-96.678584370436667,40.793707743676585],[-96.678537315766107,40.795057916440697],[-96.67676071742946,40.795022141163159]]],[[[-96.671478139988466,40.79356448538271],[-96.673254692805145,40.793600340945154],[-96.675031248820346,40.793636169181717],[-96.67498412228673,40.794986338558168],[-96.674936992556752,40.796336507572661],[-96.673160364676789,40.796300675944522],[-96.671383739995875,40.7962648169879],[-96.671430941592774,40.794914651366341],[-96.671478139988466,40.79356448538271]]],[[[-96.662879624780587,40.785283845202635],[-96.664655946041051,40.785319827172728],[-96.664608623184677,40.786669988529255],[-96.662832266009119,40.786634004856055],[-96.662879624780587,40.785283845202635]]],[[[-96.650207382877198,40.791781941384983],[-96.648430907788153,40.791745732312783],[-96.648383245545659,40.793095876480152],[-96.646606737763946,40.793059638370295],[-96.644830233217235,40.793023372936688],[-96.644877967309498,40.79167323220075],[-96.643101501924761,40.791636941161201],[-96.643053731907969,40.792987080179493],[-96.641277233838593,40.792950760098861],[-96.639500739011524,40.792914412694905],[-96.637724247429219,40.792878037967796],[-96.63594775909408,40.792841635917661],[-96.634171274008537,40.792805206544664],[-96.632394792175049,40.792768749848932],[-96.630618313596017,40.792732265830615],[-96.630666335077464,40.791382138872024],[-96.628889895677858,40.791345629259254],[-96.6288418382739,40.79269575448987],[-96.627065366211113,40.792659215826824],[-96.627113459537327,40.791309092325477],[-96.627161549602036,40.789958968460361],[-96.628937949822728,40.789995503664933],[-96.630714353302224,40.790032011549798],[-96.632490760038138,40.790068492114798],[-96.634267170028025,40.790104945359808],[-96.636043583269455,40.790141371284655],[-96.636091490483352,40.788791238423002],[-96.637867871055221,40.788827635304898],[-96.637819999759984,40.790177769889233],[-96.639596419497181,40.790214141173358],[-96.639644254873531,40.788864004867648],[-96.641420641935824,40.78890034711111],[-96.641372842478646,40.790250485136923],[-96.643149268701919,40.790286801779743],[-96.643197032239698,40.788936662035134],[-96.644973425782695,40.788972949639586],[-96.64492569816457,40.790323091101719],[-96.646702130864185,40.790359353102673],[-96.648478566798303,40.790395587782463],[-96.650255005964524,40.790431795140961],[-96.650207382877198,40.791781941384983]]],[[[-96.646378509262206,40.849801603675658],[-96.6464263074878,40.848451474758136],[-96.648204293533752,40.848487755867993],[-96.648156531335715,40.849837886502172],[-96.646378509262206,40.849801603675658]]],[[[-96.623945800834832,40.780434963083337],[-96.623993936616486,40.779084839769311],[-96.625770043045009,40.779121415761097],[-96.625721943163256,40.780471540806346],[-96.623945800834832,40.780434963083337]]],[[[-96.612127603019701,40.81261752352259],[-96.61390458801597,40.812654306861091],[-96.615681576294804,40.812691062859088],[-96.615729934321124,40.81134095522426],[-96.617506889922851,40.811377682143558],[-96.617458567853788,40.812727791516444],[-96.617410242507006,40.814077900525085],[-96.617361913882291,40.815428009169494],[-96.615584850401518,40.815391277035822],[-96.615633214988364,40.81404117012962],[-96.613856190750084,40.814004412392194],[-96.61207916979464,40.813967627312977],[-96.610302152124461,40.813930814892117],[-96.610253679652786,40.815280916575972],[-96.610205203893173,40.816631017895304],[-96.60842811758603,40.816594174646148],[-96.606651034569524,40.816557304053049],[-96.606602483590024,40.817907401519548],[-96.604825367901114,40.817870501836559],[-96.604873954846084,40.816520406116148],[-96.604922538495543,40.815170310030993],[-96.603145498030386,40.815133386497777],[-96.601368460862886,40.81509643562233],[-96.601319805288128,40.816446528211564],[-96.599542735458485,40.816409548244181],[-96.599591426995516,40.81505945740485],[-96.597814396430707,40.815022451845437],[-96.597863120624766,40.813672362392282],[-96.599640115230017,40.81370936620057],[-96.601417113137543,40.813746342668232],[-96.603194114344944,40.81378329179514],[-96.604971118849761,40.813820213581117],[-96.605019695908993,40.812470116766512],[-96.605068269673495,40.811120019587165],[-96.606845205559409,40.811156910540404],[-96.608622144737382,40.811193774155022],[-96.610399087204982,40.811230610430847],[-96.610350621308442,40.81258071284374],[-96.612127603019701,40.81261752352259]]],[[[-96.620964307375758,40.814151279289661],[-96.619187273303623,40.814114603578496],[-96.619235562690463,40.812764492833004],[-96.619283848802027,40.811414381723345],[-96.621060810956223,40.811451053963488],[-96.622837776382994,40.81148769886385],[-96.62461474507991,40.81152431642424],[-96.624566566842361,40.81287443273645],[-96.62278956218718,40.812837813443153],[-96.621012560802399,40.812801166808619],[-96.620964307375758,40.814151279289661]]],[[[-96.624518385336827,40.814224548684713],[-96.624566566842361,40.81287443273645],[-96.6263435747655,40.812911024688376],[-96.626295429220917,40.814261142368302],[-96.624518385336827,40.814224548684713]]]]}}
]
}
