{
"type": "FeatureCollection",
"name": "bryan-east__sa_0700",
"crs": { "type": "name", "properties": { "name": "urn:ogc:def:crs:OGC:1.3:CRS84" } },
"features": [
{"type":"Feature","properties":{"band":15},"geometry":{"type":"Polygon","coordinates":[[[-96.660771476418063,40.794698933946584],[-96.660724059226254,40.796049089358277],[-96.658947457006676,40.796013039106356],[-96.658900000664772,40.797363192449325],[-96.660676638818401,40.797399244407472],[-96.66245328018833,40.797435269036868],[-96.6624058925009,40.798785425428562],[-96.662358501599329,40.800135581457802],[-96.66231110748339,40.801485737124615],[-96.660534358295976,40.801449707380002],[-96.658757612325601,40.801413650302749],[-96.656980869574724,40.801377565892999],[-96.65520413004576,40.801341454150894],[-96.655156588940585,40.802691602626645],[-96.655109044610811,40.804041750739657],[-96.655061497056195,40.805391898489916],[-96.653284652915175,40.805355754284264],[-96.653237066185127,40.806705899961216],[-96.65146018932154,40.806669726707732],[-96.651507812001682,40.805319582742683],[-96.65155543145184,40.80396943841474],[-96.649778629715712,40.803933241250448],[-96.648001831211715,40.803897016751797],[-96.646225035942308,40.80386076491893],[-96.646272759996933,40.802510625371077],[-96.646320480814808,40.801160485460144],[-96.644543760668427,40.801124209726972],[-96.644591514189131,40.799774071169729],[-96.644639264471152,40.798423932249364],[-96.646415912741247,40.798460204549087],[-96.648192564247353,40.798496449519902],[-96.648240239421682,40.797146306804429],[-96.648287911362672,40.795796163725981],[-96.648335580070594,40.794446020284546],[-96.648383245545659,40.793095876480152],[-96.650159756559987,40.793132087266123],[-96.65193627080447,40.793168270728081],[-96.651983861196172,40.791818123134448],[-96.653760342742601,40.791854277561043],[-96.655536827514084,40.791890404664606],[-96.657313315508176,40.791926504444994],[-96.657265832894495,40.793276657168327],[-96.657218347060379,40.794626809529028],[-96.658994910130104,40.794662885400825],[-96.660771476418063,40.794698933946584]]]}},
{"type":"Feature","properties":{"band":30},"geometry":{"type":"MultiPolygon","coordinates":[[[[-96.658994910130104,40.794662885400825],[-96.657218347060379,40.794626809529028],[-96.657265832894495,40.793276657168327],[-96.659042360035272,40.79331273133274],[-96.658994910130104,40.794662885400825]]],[[[-96.660724059226254,40.796049089358277],[-96.660771476418063,40.794698933946584],[-96.662548045921838,40.794734955166156],[-96.662500664661906,40.796085112282725],[-96.660724059226254,40.796049089358277]]],[[[-96.648335580070594,40.794446020284546],[-96.648287911362672,40.795796163725981],[-96.648240239421682,40.797146306804429],[-96.646463623850323,40.797110063548956],[-96.64651133172363,40.795759922185781],[-96.644734755320087,40.795723653319257],[-96.644782495887497,40.794373513309537],[-96.64655903636141,40.794409780459553],[-96.648335580070594,40.794446020284546]]],[[[-96.658900000664772,40.797363192449325],[-96.658947457006676,40.796013039106356],[-96.660724059226254,40.796049089358277],[-96.660676638818401,40.797399244407472],[-96.658900000664772,40.797363192449325]]],[[[-96.655109044610811,40.804041750739657],[-96.655156588940585,40.802691602626645],[-96.656933364412836,40.802727716077833],[-96.656885856028779,40.804077865900005],[-96.655109044610811,40.804041750739657]]]]}},
{"type":"Feature","properties":{"band":45},"geometry":{"type":"MultiPolygon","coordinates":[[[[-96.69981011741254,40.796835280797794],[-96.70158679298612,40.796870702481854],[-96.701540199129283,40.798220896417888],[-96.703316913802894,40.798256292446453],[-96.703270352728069,40.799606487696856],[-96.703223788495094,40.800956682586339],[-96.703177221103715,40.802306877114944],[-96.70140039859568,40.802271476060291],[-96.701353792095972,40.803621668552495],[-96.701307182434931,40.804971860683729],[-96.701260569612316,40.806322052453972],[-96.699483642409803,40.806286619032832],[-96.699436990468641,40.80763680876511],[-96.699390335362992,40.808986998136319],[-96.69761333940933,40.80895153401891],[-96.697566645177588,40.810301721350633],[-96.697519947778446,40.811651908321231],[-96.695742883067297,40.811616413502243],[-96.695789616429991,40.810266228211425],[-96.695836346622826,40.808916042559417],[-96.694059357005955,40.808880523757978],[-96.694106119987609,40.807530339425711],[-96.694152879797485,40.806180154732175],[-96.692375965266578,40.806144611953329],[-96.690599053909651,40.806109041835406],[-96.690645882454376,40.804758860146102],[-96.688869010226682,40.804723264373919],[-96.687092141177629,40.804687641264252],[-96.685315275309605,40.804651990817227],[-96.685362208528588,40.803301813824234],[-96.683585381793705,40.803266137728478],[-96.681808558244484,40.803230434296921],[-96.680031737883354,40.803194703529748],[-96.67825492071276,40.803158945427064],[-96.678301994535971,40.801808774833923],[-96.676525216504587,40.801772991089472],[-96.676478106735132,40.803123159989028],[-96.676430993770282,40.804473328526662],[-96.674654147039618,40.804437514058463],[-96.672877303507036,40.804401672253896],[-96.671100463174952,40.804365803113122],[-96.669323626045824,40.804329906636255],[-96.669276366083352,40.805680068024145],[-96.667499496209714,40.805644142511163],[-96.667546792122081,40.804293982823452],[-96.665769961406141,40.804258031674863],[-96.663993133900448,40.804222053190621],[-96.663945766089057,40.805572209474086],[-96.662168905846897,40.805536201950289],[-96.662216309607416,40.80418604737087],[-96.660439488529519,40.80415001421575],[-96.658662670669159,40.80411395372542],[-96.658710143107243,40.802763802195386],[-96.656933364412836,40.802727716077833],[-96.655156588940585,40.802691602626645],[-96.65520413004576,40.801341454150894],[-96.656980869574724,40.801377565892999],[-96.658757612325601,40.801413650302749],[-96.660534358295976,40.801449707380002],[-96.66231110748339,40.801485737124615],[-96.662358501599329,40.800135581457802],[-96.6624058925009,40.798785425428562],[-96.66245328018833,40.797435269036868],[-96.660676638818401,40.797399244407472],[-96.660724059226254,40.796049089358277],[-96.662500664661906,40.796085112282725],[-96.662548045921838,40.794734955166156],[-96.660771476418063,40.794698933946584],[-96.658994910130104,40.794662885400825],[-96.659042360035272,40.79331273133274],[-96.660818890394054,40.793348778172394],[-96.662595423968398,40.793384797687168],[-96.662642798801826,40.79203463984576],[-96.664419299662057,40.792070630332056],[-96.664371960755872,40.793420789876912],[-96.666148500754048,40.793456754741477],[-96.667925043960494,40.793492692280729],[-96.669701590372782,40.793528602494526],[-96.669654356046422,40.79487876677981],[-96.671430941592774,40.794914651366341],[-96.671383739995875,40.7962648169879],[-96.673160364676789,40.796300675944522],[-96.674936992556752,40.796336507572661],[-96.67498412228673,40.794986338558168],[-96.675031248820346,40.793636169181717],[-96.676807808031668,40.793671970092234],[-96.67676071742946,40.795022141163159],[-96.678537315766107,40.795057916440697],[-96.678584370436667,40.793707743676585],[-96.680360936032912,40.793743489934634],[-96.682137504817959,40.793779208866212],[-96.683914076789407,40.79381490047119],[-96.685690651944796,40.793850564749434],[-96.687467230281698,40.793886201700793],[-96.689243811797695,40.793921811325134],[-96.69102039649033,40.793957393622307],[-96.692796984357201,40.793992948592177],[-96.692750217148642,40.79534313485523],[-96.692703446768064,40.796693320757008],[-96.69448010967686,40.796728851762609],[-96.694526844121143,40.795378664179204],[-96.69457357539585,40.794028476234594],[-96.696350169603846,40.794063976549424],[-96.698126766978788,40.794099449536517],[-96.698080107572522,40.795449640840374],[-96.699856744046528,40.795485088177266],[-96.69981011741254,40.796835280797794]],[[-96.692422757858225,40.804794428580628],[-96.692469547276133,40.803444244846609],[-96.690692707822905,40.803408678095401],[-96.690645882454376,40.804758860146102],[-96.692422757858225,40.804794428580628]]],[[[-96.661529714304493,40.773096398064553],[-96.659753722591759,40.773060376808139],[-96.659706320930582,40.774410536313916],[-96.659658916054852,40.775760695457222],[-96.661434979555466,40.775796720123857],[-96.661387607362528,40.777146880609898],[-96.661340231957013,40.778497040733519],[-96.661292853338651,40.779847200494736],[-96.663069027752385,40.779883202965223],[-96.663021681826052,40.781233364068122],[-96.661245471507186,40.781197359893525],[-96.661198086462377,40.782547518929874],[-96.661150698203997,40.783897677603797],[-96.662926980340401,40.783933685186838],[-96.662879624780587,40.785283845202635],[-96.661103306731761,40.785247835915257],[-96.66105591204547,40.786597993864284],[-96.661008514144825,40.787948151450834],[-96.660961113029629,40.789298308674937],[-96.660913708699582,40.79064846553657],[-96.65913725019189,40.7906124221089],[-96.657360794901678,40.790576351359057],[-96.657313315508176,40.791926504444994],[-96.655536827514084,40.791890404664606],[-96.653760342742601,40.791854277561043],[-96.651983861196172,40.791818123134448],[-96.65193627080447,40.793168270728081],[-96.650159756559987,40.793132087266123],[-96.648383245545659,40.793095876480152],[-96.648430907788153,40.791745732312783],[-96.650207382877198,40.791781941384983],[-96.650255005964524,40.790431795140961],[-96.648478566798303,40.790395587782463],[-96.646702130864185,40.790359353102673],[-96.646749822562398,40.789009209924316],[-96.644973425782695,40.788972949639586],[-96.645021150164098,40.78762280781438],[-96.646797511026321,40.78765906638295],[-96.646845196256237,40.786308922478582],[-96.646892878252388,40.784958778211198],[-96.645116589217807,40.784922523074705],[-96.64516430389061,40.783572380160287],[-96.646940557015,40.783608633580819],[-96.648716813372673,40.783644859686646],[-96.648764452994001,40.782294712978697],[-96.648812089384734,40.780944565907831],[-96.647035904840649,40.780908343231097],[-96.647083573904155,40.779558197511768],[-96.64713123973516,40.778208051429466],[-96.645355130227188,40.778171804872024],[-96.645402828723931,40.77682166014236],[-96.647178902333863,40.77685790498419],[-96.647226561700535,40.775507758175962],[-96.647274217835431,40.774157611004775],[-96.647321870738779,40.772807463470642],[-96.645545904808372,40.772771223775209],[-96.645498216014275,40.774121369593949],[-96.643722217427069,40.774085100877592],[-96.643769942111675,40.772734956775544],[-96.641993982651115,40.77269866247179],[-96.642041739987377,40.771348519724576],[-96.642089494085312,40.769998376614218],[-96.640313609636053,40.769962058444861],[-96.640361396378623,40.768611916690418],[-96.640409179880933,40.767261774572788],[-96.638633370434675,40.767225432542851],[-96.638681186574587,40.765875291782244],[-96.64045696014324,40.765911632091964],[-96.640504737165784,40.76456148924796],[-96.640552510948822,40.763211346040762],[-96.640600281492581,40.761861202470399],[-96.642375950681995,40.761897510326413],[-96.644151623107987,40.761933790888804],[-96.644199318676201,40.760583643519276],[-96.642423682118604,40.760547364674238],[-96.64064804879736,40.760511058536878],[-96.640695812863342,40.759160914240191],[-96.640743573690827,40.757810769580338],[-96.640791331280042,40.756460624557356],[-96.642566857011431,40.75649692553916],[-96.642614575504197,40.755146778434657],[-96.640839085631242,40.755110479171215],[-96.64088683674467,40.753760333421944],[-96.640934584620595,40.752410187309536],[-96.642710002783943,40.752446483136431],[-96.642662290761606,40.753796630967074],[-96.64443774801363,40.753832901226332],[-96.644390068612481,40.755183050410935],[-96.646165564953662,40.755219295099891],[-96.64621320849831,40.753869144199562],[-96.647988672213245,40.753905359886623],[-96.647941064525355,40.7552555125014],[-96.647893453609413,40.756605664753287],[-96.647845839465134,40.757955816642323],[-96.649621413986182,40.757992010182726],[-96.649573832477657,40.759342163422247],[-96.64779822209232,40.759305968168491],[-96.647750601490685,40.760656119331763],[-96.647702977660003,40.762006270132154],[-96.647655350600019,40.763356420569657],[-96.647607720310475,40.764706570644265],[-96.649383474177228,40.764742772752122],[-96.65115923127135,40.764778947563194],[-96.652934991590399,40.76481509507736],[-96.654710755131987,40.764851215294449],[-96.654663265119822,40.766201371853185],[-96.656439067758896,40.766237466481613],[-96.656391610406246,40.767587624386316],[-96.658167452143331,40.767623693423417],[-96.658120027455041,40.768973852672922],[-96.659895908290622,40.769009896116039],[-96.659848516271538,40.770360056709201],[-96.661624436206097,40.77039607455567],[-96.661577076861107,40.77174623649131],[-96.661529714304493,40.773096398064553]]],[[[-96.659042360035272,40.79331273133274],[-96.657265832894495,40.793276657168327],[-96.657313315508176,40.791926504444994],[-96.659089806722463,40.79196257690208],[-96.659042360035272,40.79331273133274]]],[[[-96.65378990678785,40.740512245781169],[-96.653742438865947,40.74186240715774],[-96.651967288083213,40.741826288722095],[-96.652014791838369,40.740476129055402],[-96.65378990678785,40.740512245781169]]],[[[-96.64655903636141,40.794409780459553],[-96.644782495887497,40.794373513309537],[-96.644734755320087,40.795723653319257],[-96.644687011514719,40.797073792965875],[-96.646463623850323,40.797110063548956],[-96.646415912741247,40.798460204549087],[-96.644639264471152,40.798423932249364],[-96.644591514189131,40.799774071169729],[-96.644543760668427,40.801124209726972],[-96.646320480814808,40.801160485460144],[-96.646272759996933,40.802510625371077],[-96.646225035942308,40.80386076491893],[-96.648001831211715,40.803897016751797],[-96.649778629715712,40.803933241250448],[-96.649730974318132,40.805283383865294],[-96.647954139866982,40.805247157652246],[-96.646177308650678,40.805210904103696],[-96.644400480671607,40.805174623219784],[-96.642623655932255,40.805138315000654],[-96.64084683443501,40.805101979446455],[-96.640894669565867,40.803751845416485],[-96.640942501452429,40.802401711023244],[-96.639165755089138,40.802365351575745],[-96.639117887259104,40.803715484248208],[-96.637341108199081,40.803679095746439],[-96.635564332388228,40.803642679911306],[-96.633787559828988,40.803606236742979],[-96.633739580915986,40.804956363881786],[-96.631962775665869,40.804919891654379],[-96.630185973672496,40.804883392092762],[-96.63013791961076,40.806233515414533],[-96.628361084929693,40.806196986790184],[-96.628312991659271,40.807547108019499],[-96.628264895126776,40.808897228885023],[-96.630041801708828,40.808933760966923],[-96.629993737868105,40.810283883197513],[-96.629945670767228,40.811634005064391],[-96.628168692274471,40.811597469524663],[-96.628120585954179,40.812947589298787],[-96.629897600405954,40.812984126567535],[-96.629849526784014,40.814334247706903],[-96.628072476370789,40.814297708709084],[-96.626295429220917,40.814261142368302],[-96.6263435747655,40.812911024688376],[-96.624566566842361,40.81287443273645],[-96.62461474507991,40.81152431642424],[-96.622837776382994,40.81148769886385],[-96.621060810956223,40.811451053963488],[-96.621109057837444,40.810100940754268],[-96.619332131638572,40.810064270249541],[-96.619380411200368,40.808714158411583],[-96.619428687487641,40.807364046209486],[-96.619476960500648,40.80601393364325],[-96.61952523023966,40.804663820712868],[-96.619573496704916,40.803313707418376],[-96.617796753519627,40.803277018257745],[-96.617845052651859,40.80192690633541],[-96.617893348508389,40.800576794048887],[-96.61967001981516,40.800613479737024],[-96.619718276460659,40.799263365350185],[-96.621494915104591,40.799300021974176],[-96.62154313254392,40.797949905488458],[-96.623319738524486,40.797986533050768],[-96.623367916762504,40.796636414467606],[-96.623416091733148,40.795286295520491],[-96.623464263436645,40.793936176209435],[-96.625240764897669,40.793972771248548],[-96.627017269623138,40.794009338964365],[-96.626969169773147,40.795359461738116],[-96.628745713687763,40.795396003859906],[-96.628793777610625,40.794045879356744],[-96.630570288857697,40.794082392425551],[-96.632346803361912,40.794118878170615],[-96.632394792175049,40.792768749848932],[-96.634171274008537,40.792805206544664],[-96.634123321120867,40.794155336591821],[-96.63589984213209,40.794191767688993],[-96.635851921920263,40.795541899096875],[-96.637628482109747,40.795578304592837],[-96.63940504554688,40.795614682763208],[-96.639452893901705,40.794264547910714],[-96.639500739011524,40.792914412694905],[-96.641277233838593,40.792950760098861],[-96.641229424655222,40.794300897034965],[-96.643005958651301,40.794337218834613],[-96.643053731907969,40.792987080179493],[-96.643101501924761,40.791636941161201],[-96.644877967309498,40.79167323220075],[-96.644830233217235,40.793023372936688],[-96.646606737763946,40.793059638370295],[-96.648383245545659,40.793095876480152],[-96.648335580070594,40.794446020284546],[-96.64655903636141,40.794409780459553]]],[[[-96.64846457160327,40.740403813782905],[-96.648416996182362,40.741753970025947],[-96.646641855069106,40.741717769765756],[-96.644866717183859,40.741681542230999],[-96.643091582529038,40.741645287421811],[-96.643139265446706,40.740295136323901],[-96.644914364269525,40.740331389416738],[-96.646689466322513,40.740367615236451],[-96.64846457160327,40.740403813782905]]],[[[-96.644723756543272,40.745731998496098],[-96.642948514377878,40.745695738537513],[-96.642996206994866,40.744345588528631],[-96.644771413320981,40.744381846770679],[-96.64654662287802,40.744418077735723],[-96.646499001939844,40.745768231176399],[-96.644723756543272,40.745731998496098]]],[[[-96.64626084881273,40.752518992936309],[-96.64621320849831,40.753869144199562],[-96.64443774801363,40.753832901226332],[-96.644485424182122,40.752482751678741],[-96.642710002783943,40.752446483136431],[-96.64275771157142,40.751096334942737],[-96.640982329259231,40.751060040834005],[-96.641030070660861,40.749709893995366],[-96.642805417124308,40.749746186385984],[-96.642853119442847,40.748396037466193],[-96.644628433294088,40.74843230085807],[-96.644676096534383,40.747082149858564],[-96.646451377772919,40.747118384254172],[-96.64640375037699,40.748468536969064],[-96.646356119751815,40.749818689321067],[-96.646308485897137,40.75116884131014],[-96.64626084881273,40.752518992936309]]],[[[-96.624518385336827,40.814224548684713],[-96.622741344720964,40.814187927658445],[-96.62278956218718,40.812837813443153],[-96.624566566842361,40.81287443273645],[-96.624518385336827,40.814224548684713]]],[[[-96.626247280410553,40.815611259684317],[-96.624470200563096,40.815574664268986],[-96.624518385336827,40.814224548684713],[-96.626295429220917,40.814261142368302],[-96.626247280410553,40.815611259684317]]]]}},
{"type":"Feature","properties":{"band":60},"geometry":{"type":"MultiPolygon","coordinates":[[[[-96.707056277850739,40.792926204511062],[-96.707009801272164,40.794276404551127],[-96.706963321541238,40.795626604230463],[-96.706916838657762,40.796976803549065],[-96.706870352621465,40.79832700250693],[-96.706823863432106,40.799677201104046],[-96.706777371089458,40.80102739934037],[-96.705000578214296,40.800992054630811],[-96.704954046770368,40.802342250833547],[-96.704907512170251,40.803692446675463],[-96.706684376943286,40.803727794730797],[-96.706637875139279,40.805077991884851],[-96.708414779019179,40.805113314274266],[-96.710191686050919,40.805148609324633],[-96.710145253003418,40.806498809460123],[-96.711922199140318,40.806534078840471],[-96.711875798901346,40.807884280284554],[-96.71182939551494,40.809234481368051],[-96.713606416718321,40.809269726743736],[-96.713560046147506,40.81061992913471],[-96.713513672431191,40.811970131165154],[-96.713467295569131,40.813320332835069],[-96.711690166468557,40.813285082454939],[-96.709913040516398,40.813249804727718],[-96.709866588567394,40.81460000269923],[-96.709820133467289,40.815950200310049],[-96.708042938723324,40.815914891894103],[-96.707996444496885,40.817265087473224],[-96.706219216931942,40.817229750035587],[-96.704441992523471,40.817194385247404],[-96.702664771273874,40.817158993108826],[-96.702618165962619,40.81850918330624],[-96.700840911897899,40.818473762141167],[-96.699063660997197,40.818438313624682],[-96.69728641326293,40.818402837756913],[-96.695509168697541,40.818367334538031],[-96.69373192730346,40.818331803968157],[-96.693778712494549,40.81698162216486],[-96.693825494512112,40.81563144000026],[-96.692048328239807,40.815595885444885],[-96.690271165143216,40.815560303541375],[-96.690318015927986,40.814210124381908],[-96.688540891979386,40.814174516815577],[-96.688587775553728,40.812824338979759],[-96.690364863534882,40.81285994486101],[-96.690411707964159,40.811509764978702],[-96.688634655947993,40.811474160782467],[-96.686857607111648,40.811438529242267],[-96.685080561457582,40.811402870358251],[-96.685033609134067,40.812753045181637],[-96.683256530700419,40.812717357265051],[-96.681479455454166,40.812681642003632],[-96.679702383397753,40.812645899397531],[-96.677925314533553,40.812610129446895],[-96.67797241071267,40.811259961386824],[-96.676195381006465,40.811224165785845],[-96.674418354497121,40.811188342841895],[-96.674371186391681,40.812538507512542],[-96.67259412711887,40.81250265552913],[-96.67081707104802,40.812466776201738],[-96.670864311078802,40.811116614925666],[-96.669087294174687,40.811080709953671],[-96.669040018181619,40.812430869530509],[-96.667262968522067,40.812394935515599],[-96.667310280477196,40.811044777639282],[-96.667357589223272,40.809694619400688],[-96.665580614694193,40.809658661445781],[-96.66380364337634,40.809622676150077],[-96.662026675272159,40.809586663513684],[-96.661979258648714,40.810936816643164],[-96.660202257802013,40.810900774960615],[-96.660154802001145,40.812250926021925],[-96.658377768412407,40.812214855290712],[-96.656600738045128,40.812178757216678],[-96.656648265767373,40.810828609570635],[-96.654871274584323,40.810792485863466],[-96.653094286627351,40.810756334815061],[-96.653141883041457,40.809406190226618],[-96.651364934270404,40.809370013549184],[-96.651412563411213,40.808019870309899],[-96.649635653825555,40.807983668006109],[-96.649683315688165,40.806633526117174],[-96.647906445287433,40.806597298189679],[-96.647954139866982,40.805247157652246],[-96.649730974318132,40.805283383865294],[-96.649778629715712,40.803933241250448],[-96.65155543145184,40.80396943841474],[-96.651507812001682,40.805319582742683],[-96.65146018932154,40.806669726707732],[-96.653237066185127,40.806705899961216],[-96.653284652915175,40.805355754284264],[-96.655061497056195,40.805391898489916],[-96.655109044610811,40.804041750739657],[-96.656885856028779,40.804077865900005],[-96.656933364412836,40.802727716077833],[-96.658710143107243,40.802763802195386],[-96.658662670669159,40.80411395372542],[-96.660439488529519,40.80415001421575],[-96.662216309607416,40.80418604737087],[-96.662168905846897,40.805536201950289],[-96.663945766089057,40.805572209474086],[-96.663993133900448,40.804222053190621],[-96.665769961406141,40.804258031674863],[-96.667546792122081,40.804293982823452],[-96.667499496209714,40.805644142511163],[-96.669276366083352,40.805680068024145],[-96.669323626045824,40.804329906636255],[-96.671100463174952,40.804365803113122],[-96.672877303507036,40.804401672253896],[-96.674654147039618,40.804437514058463],[-96.676430993770282,40.804473328526662],[-96.676478106735132,40.803123159989028],[-96.676525216504587,40.801772991089472],[-96.678301994535971,40.801808774833923],[-96.67825492071276,40.803158945427064],[-96.680031737883354,40.803194703529748],[-96.681808558244484,40.803230434296921],[-96.683585381793705,40.803266137728478],[-96.685362208528588,40.803301813824234],[-96.685315275309605,40.804651990817227],[-96.687092141177629,40.804687641264252],[-96.688869010226682,40.804723264373919],[-96.690645882454376,40.804758860146102],[-96.690599053909651,40.806109041835406],[-96.692375965266578,40.806144611953329],[-96.694152879797485,40.806180154732175],[-96.694106119987609,40.807530339425711],[-96.694059357005955,40.808880523757978],[-96.695836346622826,40.808916042559417],[-96.695789616429991,40.810266228211425],[-96.695742883067297,40.811616413502243],[-96.697519947778446,40.811651908321231],[-96.697566645177588,40.810301721350633],[-96.69761333940933,40.80895153401891],[-96.699390335362992,40.808986998136319],[-96.699436990468641,40.80763680876511],[-96.699483642409803,40.806286619032832],[-96.701260569612316,40.806322052453972],[-96.701307182434931,40.804971860683729],[-96.701353792095972,40.803621668552495],[-96.70140039859568,40.802271476060291],[-96.703177221103715,40.802306877114944],[-96.703223788495094,40.800956682586339],[-96.703270352728069,40.799606487696856],[-96.703316913802894,40.798256292446453],[-96.701540199129283,40.798220896417888],[-96.70158679298612,40.796870702481854],[-96.69981011741254,40.796835280797794],[-96.699856744046528,40.795485088177266],[-96.698080107572522,40.795449640840374],[-96.698126766978788,40.794099449536517],[-96.696350169603846,40.794063976549424],[-96.69457357539585,40.794028476234594],[-96.694526844121143,40.795378664179204],[-96.69448010967686,40.796728851762609],[-96.692703446768064,40.796693320757008],[-96.692750217148642,40.79534313485523],[-96.692796984357201,40.793992948592177],[-96.69102039649033,40.793957393622307],[-96.689243811797695,40.793921811325134],[-96.687467230281698,40.793886201700793],[-96.685690651944796,40.793850564749434],[-96.683914076789407,40.79381490047119],[-96.682137504817959,40.793779208866212],[-96.680360936032912,40.793743489934634],[-96.678584370436667,40.793707743676585],[-96.678537315766107,40.795057916440697],[-96.67676071742946,40.795022141163159],[-96.676807808031668,40.793671970092234],[-96.675031248820346,40.793636169181717],[-96.67498412228673,40.794986338558168],[-96.674936992556752,40.796336507572661],[-96.673160364676789,40.796300675944522],[-96.671383739995875,40.7962648169879],[-96.671430941592774,40.794914651366341],[-96.671478139988466,40.79356448538271],[-96.669701590372782,40.793528602494526],[-96.66974882149573,40.792178437847085],[-96.66797231101144,40.792142529332864],[-96.667925043960494,40.793492692280729],[-96.666148500754048,40.793456754741477],[-96.664371960755872,40.793420789876912],[-96.664419299662057,40.792070630332056],[-96.662642798801826,40.79203463984576],[-96.662595423968398,40.793384797687168],[-96.660818890394054,40.793348778172394],[-96.659042360035272,40.79331273133274],[-96.659089806722463,40.79196257690208],[-96.657313315508176,40.791926504444994],[-96.657360794901678,40.790576351359057],[-96.65913725019189,40.7906124221089],[-96.660913708699582,40.79064846553657],[-96.660961113029629,40.789298308674937],[-96.661008514144825,40.787948151450834],[-96.662784904025756,40.787984164147083],[-96.662832266009119,40.786634004856055],[-96.664608623184677,40.786669988529255],[-96.664561297118837,40.788020149523454],[-96.666337693421625,40.78805610757982],[-96.666384983569699,40.786705944883742],[-96.668161347161771,40.786741873919368],[-96.669937713958419,40.786777775635976],[-96.669984929068036,40.785427609177894],[-96.671761263150813,40.785463481877436],[-96.673537600433065,40.785499327258975],[-96.67349045715585,40.786849497111632],[-96.675266833551746,40.786885316870396],[-96.675313940912389,40.785535145322363],[-96.677090284586356,40.785570936067494],[-96.677043213142511,40.786921109309581],[-96.678819595925745,40.786956874429052],[-96.678866631452522,40.785606699494188],[-96.680642981508456,40.785642435602306],[-96.682419334751742,40.785678144391724],[-96.684195691179923,40.785713825862295],[-96.684148763405801,40.787064005867734],[-96.685925158934509,40.787099661706925],[-96.685972050790596,40.785749480013877],[-96.687748413581318,40.785785106846312],[-96.687701557643521,40.787135290225685],[-96.689477959530393,40.787170891423877],[-96.689524779549672,40.785820706359488],[-96.691301148693185,40.78585627855324],[-96.691347929620932,40.784506091443809],[-96.693124266020632,40.78454163463563],[-96.693077521009485,40.785891823427434],[-96.694853896496085,40.785927340981921],[-96.694900605590405,40.784577150509037],[-96.696676948327834,40.784612639063901],[-96.696630275150582,40.785962831216573],[-96.698406656970548,40.785998294131254],[-96.698360016547582,40.787348487601413],[-96.700136437450567,40.787383924873239],[-96.701912861514401,40.787419334823518],[-96.70186628977325,40.788769531286029],[-96.703642752918398,40.788804915589381],[-96.703596213943939,40.79015511336582],[-96.705372716170899,40.790190472019567],[-96.705326209967993,40.791540671108763],[-96.705279700610802,40.792890869837173],[-96.707056277850739,40.792926204511062]],[[-96.669134566961148,40.809730550014621],[-96.669181836541256,40.808380389713335],[-96.667404894760551,40.808344460799781],[-96.667357589223272,40.809694619400688],[-96.669134566961148,40.809730550014621]]],[[[-96.687751587138123,40.734442307860753],[-96.687704815952202,40.735792503286611],[-96.68765804159527,40.737142698351185],[-96.689433112945409,40.737178264521056],[-96.689386371248105,40.738528460908256],[-96.689339626381724,40.739878656934216],[-96.689292878346009,40.741228852598951],[-96.687517699495942,40.741193281377207],[-96.687564483367396,40.739843087396494],[-96.685789343524803,40.739807490583516],[-96.685742523817879,40.741157682878899],[-96.68569570093652,40.742507874812929],[-96.685648874880513,40.743858066385563],[-96.683873630699111,40.743822437237441],[-96.683826765625668,40.745172626761899],[-96.682051488779308,40.745136968646818],[-96.682098389695028,40.743786780810467],[-96.680323151870709,40.743751097104798],[-96.67854791722857,40.743715386120556],[-96.676772685771041,40.74367964785791],[-96.676725677329969,40.745029830622222],[-96.674950413218156,40.744994063388013],[-96.674903365746076,40.746344244097287],[-96.673128068980517,40.746308447889042],[-96.671352775407314,40.746272624400234],[-96.66957748502891,40.74623677363099],[-96.66962464003069,40.744886598009437],[-96.667849388692233,40.744850721658388],[-96.667802197847735,40.746200895581453],[-96.66602691386619,40.746164990251771],[-96.666074140553206,40.744814818028487],[-96.664298895616,40.744778887119857],[-96.662523653883042,40.744742928932659],[-96.660748415356778,40.744706943467037],[-96.660701081143756,40.746057110583273],[-96.658925809985064,40.74602109613442],[-96.657150542038181,40.745985054406148],[-96.657197947933952,40.744634890701079],[-96.655422719042278,40.744598823401013],[-96.655375277305467,40.745948985398584],[-96.65360001578938,40.745912889111864],[-96.653552534992755,40.747263049038025],[-96.651777240852795,40.747226923762142],[-96.651824757492363,40.74587676554615],[-96.650049502416806,40.745840614701564],[-96.650001949934548,40.747190771206107],[-96.649954394228132,40.748540927347904],[-96.649906835297301,40.749891083126933],[-96.648131475911029,40.74985489986522],[-96.648083877905833,40.751205053568526],[-96.646308485897137,40.75116884131014],[-96.646356119751815,40.749818689321067],[-96.64640375037699,40.748468536969064],[-96.646451377772919,40.747118384254172],[-96.644676096534383,40.747082149858564],[-96.644628433294088,40.74843230085807],[-96.642853119442847,40.748396037466193],[-96.642805417124308,40.749746186385984],[-96.641030070660861,40.749709893995366],[-96.641077808825713,40.748359746793604],[-96.641125543754043,40.74700959922874],[-96.639350272217072,40.74697328299483],[-96.639398039750319,40.745623136786044],[-96.637622807293013,40.745586794993471],[-96.637670607426358,40.744236650141936],[-96.639445804045124,40.744272990214121],[-96.639493565101745,40.742922843279032],[-96.637718404319074,40.742886504927192],[-96.637766197971416,40.741536359349226],[-96.63599107626257,40.74149999544381],[-96.636038902505788,40.74014985122411],[-96.637813988383627,40.74018621340803],[-96.637861775555947,40.738836067103648],[-96.639636828844814,40.738872400294881],[-96.639684576951112,40.73752225190723],[-96.641459597650524,40.737558556108283],[-96.643234621584483,40.737594833039068],[-96.643282294805076,40.736244680852153],[-96.643329964793807,40.734894528302284],[-96.645104920312818,40.734930774530476],[-96.645057286146397,40.736280928796418],[-96.646832280717163,40.736317149471425],[-96.648607278514959,40.73635334287701],[-96.648559712769327,40.737703500208426],[-96.650334749617173,40.737739668056726],[-96.65038227953734,40.736389509013065],[-96.652157283781889,40.736425647879415],[-96.652204774656568,40.735075486762128],[-96.65397974629731,40.735111596649034],[-96.653932291246178,40.73646175947593],[-96.65388483297771,40.737811921940263],[-96.65565987948554,40.737848007975188],[-96.655707301927777,40.736497843802475],[-96.657482315824296,40.736533900858902],[-96.659257332933265,40.736569930645054],[-96.659304680512278,40.735219762697049],[-96.661079665006767,40.735255763508341],[-96.661032353252295,40.736605933160789],[-96.662807376778957,40.736641908406],[-96.664582403510821,40.736677856380503],[-96.666357433445441,40.736713777084169],[-96.666404637724824,40.735363602326082],[-96.668179635034292,40.735399494059465],[-96.668132466580431,40.736749670516858],[-96.669907502913361,40.736785536678426],[-96.671682542441772,40.736821375568731],[-96.671729639243836,40.735471195716613],[-96.673504646139079,40.735507005640081],[-96.675279656224745,40.735542788293287],[-96.675232631075417,40.736892971534978],[-96.677007680175819,40.736928728610643],[-96.677054669498375,40.735578543676098],[-96.677101655635354,40.734228358379873],[-96.678876636270004,40.734264084800657],[-96.680651620087531,40.734299783952039],[-96.680698531394668,40.732949594912562],[-96.682473482570032,40.732985265105548],[-96.684248436923198,40.733020908030156],[-96.686023394451752,40.733056523686223],[-96.686070195117296,40.731706329222746],[-96.68784511999786,40.731741915925234],[-96.687798355153248,40.733092112073621],[-96.689573319025286,40.733127673192207],[-96.689526586833765,40.734477870663035],[-96.687751587138123,40.734442307860753]],[[-96.650097051675175,40.744490457834274],[-96.648321835663566,40.744454281423643],[-96.648274250565166,40.745804436578261],[-96.650049502416806,40.745840614701564],[-96.650097051675175,40.744490457834274]],[[-96.673457585163263,40.736857187187631],[-96.673410520996811,40.738207368373352],[-96.675185602737898,40.73824315441491],[-96.675232631075417,40.736892971534978],[-96.673457585163263,40.736857187187631]],[[-96.646499001939844,40.745768231176399],[-96.64654662287802,40.744418077735723],[-96.644771413320981,40.744381846770679],[-96.642996206994866,40.744345588528631],[-96.642948514377878,40.745695738537513],[-96.644723756543272,40.745731998496098],[-96.646499001939844,40.745768231176399]],[[-96.646641855069106,40.741717769765756],[-96.648416996182362,40.741753970025947],[-96.64846457160327,40.740403813782905],[-96.646689466322513,40.740367615236451],[-96.644914364269525,40.740331389416738],[-96.643139265446706,40.740295136323901],[-96.643091582529038,40.741645287421811],[-96.644866717183859,40.741681542230999],[-96.646641855069106,40.741717769765756]],[[-96.653742438865947,40.74186240715774],[-96.65378990678785,40.740512245781169],[-96.652014791838369,40.740476129055402],[-96.651967288083213,40.741826288722095],[-96.653742438865947,40.74186240715774]]],[[[-96.692422757858225,40.804794428580628],[-96.690645882454376,40.804758860146102],[-96.690692707822905,40.803408678095401],[-96.692469547276133,40.803444244846609],[-96.692422757858225,40.804794428580628]]],[[[-96.686116992610124,40.73035613439793],[-96.686070195117296,40.731706329222746],[-96.684295273409433,40.731670715252868],[-96.682520354876729,40.731635074015763],[-96.680745439521573,40.73159940551156],[-96.6807923444685,40.730249215749019],[-96.679017468110871,40.730213521667871],[-96.679064405693182,40.728863333233747],[-96.67911134009357,40.727513144438042],[-96.679158271312289,40.726162955280763],[-96.680933040231835,40.72619864429231],[-96.68088614482339,40.727548835139395],[-96.682660952732448,40.727584498577663],[-96.682707812330378,40.726234306042066],[-96.684482587605515,40.726269940529882],[-96.686257366054789,40.726305547755608],[-96.686210578078629,40.727655743664371],[-96.684435763818342,40.727620134752698],[-96.684388936856777,40.728970328614146],[-96.686163786930493,40.729005939211817],[-96.686116992610124,40.73035613439793]]],[[[-96.687938640176441,40.729041522544676],[-96.686163786930493,40.729005939211817],[-96.686210578078629,40.727655743664371],[-96.687985395510907,40.727691325312513],[-96.687938640176441,40.729041522544676]]],[[[-96.682754668751727,40.724884113145031],[-96.682707812330378,40.726234306042066],[-96.680933040231835,40.72619864429231],[-96.68097993246127,40.724848453083723],[-96.682754668751727,40.724884113145031]]],[[[-96.66150491547414,40.824438327999673],[-96.661457463457225,40.825788477141344],[-96.659680066904912,40.825752416692445],[-96.659632575681073,40.827102563765116],[-96.661410008221239,40.827138625920462],[-96.66136254976594,40.828488774337004],[-96.661315088091058,40.829838922390955],[-96.659537583567868,40.829802856822539],[-96.657760082266947,40.82976676389432],[-96.655982584190696,40.829730643606489],[-96.655935011311257,40.831080786174056],[-96.655887435204448,40.832430928378812],[-96.655839855870013,40.833781070220773],[-96.655792273307711,40.835131211699931],[-96.65574468751727,40.836481352816293],[-96.65752236559122,40.836517481650972],[-96.657474812579252,40.837867624114075],[-96.655697098498464,40.837831493569809],[-96.655649506251038,40.8391816339605],[-96.657427256341123,40.839217766214418],[-96.657379696876561,40.840567907952],[-96.655601910774749,40.840531773988381],[-96.655554312069341,40.841881913653417],[-96.65733213418531,40.841918049326821],[-96.657284568267158,40.843268190338854],[-96.657236999121807,40.844618330988105],[-96.655459104970177,40.844582191894943],[-96.655411496575937,40.845932330471427],[-96.655363884951569,40.847282468685052],[-96.653585921984899,40.84724629879554],[-96.65363356963293,40.845896162293272],[-96.651855645922481,40.84585996674025],[-96.651903326358948,40.844509831587615],[-96.650125441904223,40.844473610373747],[-96.65017315512425,40.843123476571911],[-96.650220865107343,40.841773342407031],[-96.650268571853772,40.840423207879105],[-96.65031627536375,40.839073072988128],[-96.650363975637561,40.837722937734121],[-96.648586274485865,40.837686697721729],[-96.648634007529594,40.836336563819444],[-96.650411672675418,40.836372802117069],[-96.650459366477605,40.835022666137007],[-96.650507057044351,40.833672529793922],[-96.650554744375924,40.832322393087821],[-96.648777187233037,40.832286159934021],[-96.648824907325761,40.830936024579394],[-96.648872624181379,40.829585888861693],[-96.647095142265144,40.829549631777844],[-96.647142891874864,40.828199497412712],[-96.645365449188674,40.828163214687024],[-96.645413231547636,40.82681308167561],[-96.643635828090993,40.826776773310748],[-96.643683643194308,40.825426641654211],[-96.641906278966729,40.825390307652818],[-96.641954126809537,40.824040177352344],[-96.640176801810497,40.824003817717077],[-96.64012891798501,40.825353946296964],[-96.638351560251593,40.825317557586793],[-96.638399480059519,40.823967430728793],[-96.636622161559018,40.82393101638764],[-96.634844846311452,40.823894574693746],[-96.634796854539431,40.825244698104093],[-96.633019506565574,40.825208227331856],[-96.631242161849741,40.825171729205877],[-96.631290225584863,40.823821609248355],[-96.629512920110699,40.823785085497143],[-96.629561016564324,40.822434966904147],[-96.629609109755521,40.82108484794739],[-96.627831879498572,40.821048300303097],[-96.627880005401224,40.819698182711981],[-96.629657199684544,40.819734728626841],[-96.629705286351665,40.818384608942516],[-96.629753369757111,40.8170344888944],[-96.627976247413699,40.8169979464382],[-96.62619912833415,40.816961376636456],[-96.626150972991454,40.818311493224691],[-96.624373821209957,40.818274894345663],[-96.624422012520895,40.81692477948932],[-96.622644899976336,40.816888154996917],[-96.622693123984106,40.81553804150969],[-96.622741344720964,40.814187927658445],[-96.624518385336827,40.814224548684713],[-96.624470200563096,40.815574664268986],[-96.626247280410553,40.815611259684317],[-96.626295429220917,40.814261142368302],[-96.628072476370789,40.814297708709084],[-96.629849526784014,40.814334247706903],[-96.629897600405954,40.812984126567535],[-96.628120585954179,40.812947589298787],[-96.628168692274471,40.811597469524663],[-96.629945670767228,40.811634005064391],[-96.629993737868105,40.810283883197513],[-96.630041801708828,40.808933760966923],[-96.628264895126776,40.808897228885023],[-96.628312991659271,40.807547108019499],[-96.628361084929693,40.806196986790184],[-96.63013791961076,40.806233515414533],[-96.631914757551243,40.806270016703529],[-96.633691598748683,40.806306490657029],[-96.633643613326839,40.807656617068673],[-96.633595624650212,40.809006743116754],[-96.635372541004699,40.809043193184408],[-96.637149460611781,40.809079615913681],[-96.638926383469041,40.809116011304447],[-96.640703309574064,40.809152379356547],[-96.640655461463467,40.810502511933294],[-96.640607610107295,40.811852644146711],[-96.642384611371838,40.811888988299749],[-96.644161615879739,40.811925305111245],[-96.644113833199555,40.813275440399991],[-96.644066047278159,40.814625575325557],[-96.645843126951974,40.814661868230218],[-96.645795373755263,40.8160120045101],[-96.64574761731933,40.817362140426837],[-96.64752477216733,40.817398409419631],[-96.647572492634453,40.816048271786585],[-96.649349614750477,40.816084511717236],[-96.651126740100864,40.816120724301896],[-96.652903868683211,40.816156909540439],[-96.652951478012895,40.814806766403379],[-96.654728573857383,40.814842922584575],[-96.65468100049506,40.816193067432692],[-96.656458135533995,40.816229197978529],[-96.656410594914675,40.817579344173701],[-96.658187769148569,40.817615449081522],[-96.658140261277069,40.818965596622576],[-96.658092750182888,40.820315743800961],[-96.659869999587642,40.8203518247755],[-96.659822521248358,40.821701973298666],[-96.658045235865728,40.821665890616657],[-96.65799771832539,40.823016037069671],[-96.659775039688299,40.823052121459213],[-96.659727554907235,40.824402269257149],[-96.66150491547414,40.824438327999673]],[[-96.647190638245519,40.826849362684449],[-96.647238381377377,40.825499227593077],[-96.645461010665343,40.825462948301016],[-96.645413231547636,40.82681308167561],[-96.647190638245519,40.826849362684449]],[[-96.631818711550778,40.808970265710876],[-96.631866736179617,40.80762014138903],[-96.630089862289623,40.807583638372584],[-96.630041801708828,40.808933760966923],[-96.631818711550778,40.808970265710876]],[[-96.642288970845783,40.814589255076626],[-96.642241145717094,40.815939387920153],[-96.644018258115338,40.815975709887901],[-96.644066047278159,40.814625575325557],[-96.642288970845783,40.814589255076626]],[[-96.633211598034535,40.81980773841159],[-96.633259612758536,40.818457615272415],[-96.631482447925478,40.818421125781022],[-96.63143439722981,40.819771247193422],[-96.633211598034535,40.81980773841159]]],[[[-96.658167452143331,40.767623693423417],[-96.656391610406246,40.767587624386316],[-96.656439067758896,40.766237466481613],[-96.65821487361589,40.7662735338114],[-96.658167452143331,40.767623693423417]]],[[[-96.661671792339732,40.769045912257646],[-96.661624436206097,40.77039607455567],[-96.659848516271538,40.770360056709201],[-96.659895908290622,40.769009896116039],[-96.661671792339732,40.769045912257646]]],[[[-96.649668992268587,40.756641856580416],[-96.649621413986182,40.757992010182726],[-96.647845839465134,40.757955816642323],[-96.647893453609413,40.756605664753287],[-96.647941064525355,40.7552555125014],[-96.647988672213245,40.753905359886623],[-96.648036276673324,40.752555206909001],[-96.649811707761486,40.752591393596674],[-96.649764139155991,40.753941548287379],[-96.651539609324118,40.753977709401667],[-96.651492073350482,40.755327865441451],[-96.651444534153654,40.756678021118489],[-96.649668992268587,40.756641856580416]]],[[[-96.651349446089355,40.759378331384383],[-96.649573832477657,40.759342163422247],[-96.649621413986182,40.757992010182726],[-96.651396991733364,40.758028176432809],[-96.651349446089355,40.759378331384383]]],[[[-96.654758241924057,40.76350105837308],[-96.654710755131987,40.764851215294449],[-96.652934991590399,40.76481509507736],[-96.65115923127135,40.764778947563194],[-96.649383474177228,40.764742772752122],[-96.647607720310475,40.764706570644265],[-96.647655350600019,40.763356420569657],[-96.647702977660003,40.762006270132154],[-96.647750601490685,40.760656119331763],[-96.649526247742727,40.760692316298943],[-96.649478659781181,40.762042468812822],[-96.65125434512926,40.762078640199306],[-96.651206789812647,40.763428794062627],[-96.652982514257204,40.763464939865742],[-96.654758241924057,40.76350105837308]]],[[[-96.656439067758896,40.766237466481613],[-96.654663265119822,40.766201371853185],[-96.654710755131987,40.764851215294449],[-96.65648652189364,40.764887308214341],[-96.656439067758896,40.766237466481613]]],[[[-96.642710002783943,40.752446483136431],[-96.644485424182122,40.752482751678741],[-96.64443774801363,40.753832901226332],[-96.642662290761606,40.753796630967074],[-96.642710002783943,40.752446483136431]]],[[[-96.646165564953662,40.755219295099891],[-96.644390068612481,40.755183050410935],[-96.64443774801363,40.753832901226332],[-96.64621320849831,40.753869144199562],[-96.646165564953662,40.755219295099891]]],[[[-96.644151623107987,40.761933790888804],[-96.642375950681995,40.761897510326413],[-96.640600281492581,40.761861202470399],[-96.640552510948822,40.763211346040762],[-96.640504737165784,40.76456148924796],[-96.64045696014324,40.765911632091964],[-96.638681186574587,40.765875291782244],[-96.638633370434675,40.767225432542851],[-96.636857564230851,40.767189063214424],[-96.636905416248126,40.765838924175327],[-96.636953265020779,40.764488784772894],[-96.637001110549065,40.763138645007153],[-96.63704895283324,40.761788504878098],[-96.637096791873546,40.760438364385742],[-96.638872418714854,40.760474725107336],[-96.638920218646319,40.759124582530518],[-96.638968015336843,40.757774439590477],[-96.640743573690827,40.757810769580338],[-96.640695812863342,40.759160914240191],[-96.64064804879736,40.760511058536878],[-96.642423682118604,40.760547364674238],[-96.644199318676201,40.760583643519276],[-96.644151623107987,40.761933790888804]]],[[[-96.640218026429139,40.772662340864102],[-96.640265819652967,40.771312199836082],[-96.638489902559328,40.771275852645083],[-96.638537728427295,40.769925712974278],[-96.63858555105233,40.7685755729402],[-96.638633370434675,40.767225432542851],[-96.640409179880933,40.767261774572788],[-96.640361396378623,40.768611916690418],[-96.640313609636053,40.769962058444861],[-96.642089494085312,40.769998376614218],[-96.642041739987377,40.771348519724576],[-96.641993982651115,40.77269866247179],[-96.640218026429139,40.772662340864102]]],[[[-96.647274217835431,40.774157611004775],[-96.645498216014275,40.774121369593949],[-96.645545904808372,40.772771223775209],[-96.647321870738779,40.772807463470642],[-96.647274217835431,40.774157611004775]]],[[[-96.643722217427069,40.774085100877592],[-96.641946222076285,40.774048804855866],[-96.641993982651115,40.77269866247179],[-96.643769942111675,40.772734956775544],[-96.643722217427069,40.774085100877592]]],[[[-96.645498216014275,40.774121369593949],[-96.645450523986213,40.775471515049659],[-96.643674489506097,40.775435244616553],[-96.643722217427069,40.774085100877592],[-96.645498216014275,40.774121369593949]]],[[[-96.648430907788153,40.791745732312783],[-96.648383245545659,40.793095876480152],[-96.646606737763946,40.793059638370295],[-96.644830233217235,40.793023372936688],[-96.644877967309498,40.79167323220075],[-96.643101501924761,40.791636941161201],[-96.643053731907969,40.792987080179493],[-96.641277233838593,40.792950760098861],[-96.639500739011524,40.792914412694905],[-96.637724247429219,40.792878037967796],[-96.63594775909408,40.792841635917661],[-96.634171274008537,40.792805206544664],[-96.632394792175049,40.792768749848932],[-96.630618313596017,40.792732265830615],[-96.630666335077464,40.791382138872024],[-96.628889895677858,40.791345629259254],[-96.6288418382739,40.79269575448987],[-96.627065366211113,40.792659215826824],[-96.627113459537327,40.791309092325477],[-96.627161549602036,40.789958968460361],[-96.628937949822728,40.789995503664933],[-96.630714353302224,40.790032011549798],[-96.632490760038138,40.790068492114798],[-96.634267170028025,40.790104945359808],[-96.636043583269455,40.790141371284655],[-96.636091490483352,40.788791238423002],[-96.637867871055221,40.788827635304898],[-96.637819999759984,40.790177769889233],[-96.639596419497181,40.790214141173358],[-96.639644254873531,40.788864004867648],[-96.641420641935824,40.78890034711111],[-96.641372842478646,40.790250485136923],[-96.643149268701919,40.790286801779743],[-96.643197032239698,40.788936662035134],[-96.644973425782695,40.788972949639586],[-96.64492569816457,40.790323091101719],[-96.646702130864185,40.790359353102673],[-96.648478566798303,40.790395587782463],[-96.650255005964524,40.790431795140961],[-96.650207382877198,40.791781941384983],[-96.648430907788153,40.791745732312783]]],[[[-96.640934584620595,40.752410187309536],[-96.64088683674467,40.753760333421944],[-96.640839085631242,40.755110479171215],[-96.642614575504197,40.755146778434657],[-96.642566857011431,40.75649692553916],[-96.640791331280042,40.756460624557356],[-96.639015808786681,40.756424296287221],[-96.637240289533764,40.756387940728914],[-96.637288115601095,40.755037798783391],[-96.637335938425807,40.753687656474611],[-96.637383758008156,40.752337513802551],[-96.639159169694523,40.752373864198191],[-96.639206950184075,40.751023719442124],[-96.639254727434192,40.749673574322884],[-96.641030070660861,40.749709893995366],[-96.640982329259231,40.751060040834005],[-96.64275771157142,40.751096334942737],[-96.642710002783943,40.752446483136431],[-96.640934584620595,40.752410187309536]]],[[[-96.625721943163256,40.780471540806346],[-96.623945800834832,40.780434963083337],[-96.623993936616486,40.779084839769311],[-96.625770043045009,40.779121415761097],[-96.625721943163256,40.780471540806346]]],[[[-96.62461474507991,40.81152431642424],[-96.624566566842361,40.81287443273645],[-96.62278956218718,40.812837813443153],[-96.622741344720964,40.814187927658445],[-96.620964307375758,40.814151279289661],[-96.619187273303623,40.814114603578496],[-96.619138980641267,40.815464713959805],[-96.619090684703139,40.816814823976955],[-96.61731358197936,40.816778117449665],[-96.61553648253404,40.816741383577721],[-96.613759386369608,40.816704622361243],[-96.613807790201392,40.815354517558895],[-96.612030733284328,40.815317730738904],[-96.61207916979464,40.813967627312977],[-96.610302152124461,40.813930814892117],[-96.610253679652786,40.815280916575972],[-96.608476629309195,40.815244075070247],[-96.60842811758603,40.816594174646148],[-96.606651034569524,40.816557304053049],[-96.606699582255956,40.815207206221871],[-96.604922538495543,40.815170310030993],[-96.604971118849761,40.813820213581117],[-96.605019695908993,40.812470116766512],[-96.605068269673495,40.811120019587165],[-96.606845205559409,40.811156910540404],[-96.608622144737382,40.811193774155022],[-96.610399087204982,40.811230610430847],[-96.612176032959752,40.811267419367752],[-96.612224459615049,40.809917314848505],[-96.614001372700272,40.80995409470578],[-96.613952981999276,40.811304200965616],[-96.615729934321124,40.81134095522426],[-96.615778289067549,40.809990847225151],[-96.617555208714464,40.810027572406455],[-96.619332131638572,40.810064270249541],[-96.621109057837444,40.810100940754268],[-96.621060810956223,40.811451053963488],[-96.622837776382994,40.81148769886385],[-96.62461474507991,40.81152431642424]]],[[[-96.626295429220917,40.814261142368302],[-96.624518385336827,40.814224548684713],[-96.624566566842361,40.81287443273645],[-96.6263435747655,40.812911024688376],[-96.626295429220917,40.814261142368302]]],[[[-96.601319805288128,40.816446528211564],[-96.599542735458485,40.816409548244181],[-96.599591426995516,40.81505945740485],[-96.599640115230017,40.81370936620057],[-96.601417113137543,40.813746342668232],[-96.603194114344944,40.81378329179514],[-96.603145498030386,40.815133386497777],[-96.601368460862886,40.81509643562233],[-96.601319805288128,40.816446528211564]]]]}}
]
}
