{
"type": "FeatureCollection",
"name": "downtown__wk_2000",
"crs": { "type": "name", "properties": { "name": "urn:ogc:def:crs:OGC:1.3:CRS84" } },
"features": [
{"type":"Feature","properties":{"band":15},"geometry":{"type":"MultiPolygon","coordinates":[[[[-96.708321837861078,40.807813710843611],[-96.710098816806266,40.807849009234978],[-96.710052377459235,40.809199208649162],[-96.71182939551494,40.809234481368051],[-96.711782988980815,40.810584682090955],[-96.713560046147506,40.81061992913471],[-96.713513672431191,40.811970131165154],[-96.713467295569131,40.813320332835069],[-96.715244427815691,40.813355555867965],[-96.715198083778503,40.814705758844319],[-96.713420915561088,40.814670534144433],[-96.713374532406817,40.816020735093232],[-96.713328146106079,40.817370935681481],[-96.711550909086398,40.81733568029631],[-96.711504483661031,40.818685878855511],[-96.709727213812812,40.818650594449601],[-96.70968074925797,40.820000790978334],[-96.707903446581724,40.819965477549175],[-96.707856942892505,40.821315672045991],[-96.70607960738873,40.821280329591076],[-96.70612614705999,40.81993013676675],[-96.704348850695212,40.819894768631208],[-96.704302275042124,40.82124495978173],[-96.702524945855146,40.821209562618129],[-96.702478331058444,40.822559751732591],[-96.700700969049763,40.822524325538396],[-96.70074761983021,40.821174138100375],[-96.69897029696979,40.821138686228622],[-96.697192977276288,40.82110320700302],[-96.697239696854169,40.819753022560555],[-96.695462416310619,40.819717517661495],[-96.695509168697541,40.818367334538031],[-96.69555591791314,40.817017151053328],[-96.695602663957672,40.815666967207399],[-96.697379836574058,40.815702467066124],[-96.697426543476908,40.814352281178977],[-96.697473247211619,40.813002094930674],[-96.699250351056648,40.813037564083544],[-96.699297015657237,40.811687375795536],[-96.699343677092614,40.810337187146473],[-96.699390335362992,40.808986998136319],[-96.701167334481397,40.809022434911505],[-96.701213953627885,40.807672243863237],[-96.702990919949173,40.807707651620291],[-96.703037499976645,40.806357458535324],[-96.704814433500346,40.806392837276761],[-96.704860974413648,40.805042642156543],[-96.706637875139279,40.805077991884851],[-96.706591370181002,40.806428188678133],[-96.708368310016169,40.806463512739299],[-96.708321837861078,40.807813710843611]]],[[[-96.715244427815691,40.813355555867965],[-96.715290768709352,40.812005352531138],[-96.717067868130812,40.812040546551039],[-96.717021563205819,40.813390751553499],[-96.715244427815691,40.813355555867965]]]]}},
{"type":"Feature","properties":{"band":30},"geometry":{"type":"MultiPolygon","coordinates":[[[[-96.710191686050919,40.805148609324633],[-96.711968596232055,40.805183877035802],[-96.713745509560169,40.805219117407646],[-96.713699148424411,40.806569320880193],[-96.711922199140318,40.806534078840471],[-96.711875798901346,40.807884280284554],[-96.71182939551494,40.809234481368051],[-96.710052377459235,40.809199208649162],[-96.710098816806266,40.807849009234978],[-96.708321837861078,40.807813710843611],[-96.708368310016169,40.806463512739299],[-96.706591370181002,40.806428188678133],[-96.706637875139279,40.805077991884851],[-96.704860974413648,40.805042642156543],[-96.704814433500346,40.806392837276761],[-96.703037499976645,40.806357458535324],[-96.702990919949173,40.807707651620291],[-96.701213953627885,40.807672243863237],[-96.701167334481397,40.809022434911505],[-96.699390335362992,40.808986998136319],[-96.699343677092614,40.810337187146473],[-96.699297015657237,40.811687375795536],[-96.699250351056648,40.813037564083544],[-96.697473247211619,40.813002094930674],[-96.697426543476908,40.814352281178977],[-96.697379836574058,40.815702467066124],[-96.695602663957672,40.815666967207399],[-96.69555591791314,40.817017151053328],[-96.695509168697541,40.818367334538031],[-96.695462416310619,40.819717517661495],[-96.697239696854169,40.819753022560555],[-96.697192977276288,40.82110320700302],[-96.69897029696979,40.821138686228622],[-96.70074761983021,40.821174138100375],[-96.700700969049763,40.822524325538396],[-96.702478331058444,40.822559751732591],[-96.702524945855146,40.821209562618129],[-96.704302275042124,40.82124495978173],[-96.704348850695212,40.819894768631208],[-96.70612614705999,40.81993013676675],[-96.70607960738873,40.821280329591076],[-96.707856942892505,40.821315672045991],[-96.707810436048547,40.822665866182014],[-96.706033064560259,40.822630522054531],[-96.705986518574392,40.823980714157152],[-96.704209114256855,40.823945341000034],[-96.70416252912419,40.825295531067809],[-96.702385091977888,40.825260128878561],[-96.702338467693551,40.826610316910049],[-96.700560997718981,40.826574885686128],[-96.698783530909878,40.82653942710305],[-96.698736831475742,40.827889611418819],[-96.696959331841526,40.827854123797415],[-96.69700606726866,40.826503941160951],[-96.69705279952548,40.825153758163268],[-96.695275375044943,40.825118246542793],[-96.693497953736951,40.825082707564867],[-96.691720535603949,40.825047141229646],[-96.689943120648337,40.82501154753723],[-96.689896244431651,40.826361723805086],[-96.688118796666515,40.826326101069967],[-96.686341352083915,40.826290450976664],[-96.686294400703787,40.827640623510227],[-96.688071881277949,40.827676275290585],[-96.688024962706606,40.829026449149637],[-96.686247446138466,40.828990795682181],[-96.686200488387684,40.830340967492496],[-96.684422939008812,40.830305284975921],[-96.684375942073714,40.831655454736072],[-96.682598359884636,40.831619743167892],[-96.682551323760336,40.832969910876415],[-96.680773708761507,40.832934170254106],[-96.68082078088635,40.831584004236788],[-96.679043205081328,40.83154823794289],[-96.677265632471986,40.831512444286368],[-96.677312773399095,40.83016228129334],[-96.675535239985294,40.830126461969328],[-96.673757709771792,40.830090615284249],[-96.673804919490664,40.828740455320428],[-96.672027428474379,40.828704582971959],[-96.671980182761061,40.830054741238257],[-96.670202658955517,40.830018839831489],[-96.66842513835762,40.829982911064072],[-96.668472456059121,40.828632756196733],[-96.668519770550802,40.827282600967067],[-96.670297219163203,40.827318526334317],[-96.670344494456216,40.825968369042393],[-96.672121910286435,40.826004265352893],[-96.672074670982767,40.827354424343511],[-96.67385212600702,40.827390294994508],[-96.673899329321102,40.826040134306496],[-96.675676751557816,40.82607597590308],[-96.675723915682497,40.824725813156952],[-96.67577107660783,40.823375650048803],[-96.675818234334088,40.822025486578653],[-96.677595551814761,40.822061295734017],[-96.677642670361834,40.820711130207336],[-96.677689785712772,40.819360964318712],[-96.677736897867774,40.818010798068173],[-96.679514110610427,40.818046574790571],[-96.679561183596491,40.816696406485057],[-96.681338363558851,40.816732154165997],[-96.681385397380851,40.815381983806986],[-96.68316254456245,40.815417702448968],[-96.68320953922526,40.81406753003786],[-96.684986653625586,40.8141032196434],[-96.685033609134067,40.812753045181637],[-96.686810690752637,40.812788705753256],[-96.688587775553728,40.812824338979759],[-96.690364863534882,40.81285994486101],[-96.692141954693696,40.812895523396875],[-96.692188763157716,40.811545341830836],[-96.693965821526234,40.811580891338735],[-96.694012590852225,40.810230707729012],[-96.692235568446762,40.810195159903472],[-96.692282370561102,40.808844977614754],[-96.694059357005955,40.808880523757978],[-96.694106119987609,40.807530339425711],[-96.695883073646073,40.807565856546205],[-96.695929797499957,40.806215670171788],[-96.697706718371535,40.806251158272062],[-96.697753403102496,40.804900969856966],[-96.699530291186704,40.804936428939513],[-96.699576936799602,40.803586238485153],[-96.701353792095972,40.803621668552495],[-96.703130650553661,40.803657071282643],[-96.703177221103715,40.802306877114944],[-96.704954046770368,40.802342250833547],[-96.705000578214296,40.800992054630811],[-96.706777371089458,40.80102739934037],[-96.706730875593266,40.802377597215965],[-96.708507707569936,40.802412916262071],[-96.710284542697963,40.802448207971707],[-96.710238115949025,40.803798408828477],[-96.710191686050919,40.805148609324633]],[[-96.693591552686755,40.822382347210151],[-96.691814206526132,40.822346784240928],[-96.691767372653615,40.823696962915982],[-96.69354475479922,40.823732527568175],[-96.693591552686755,40.822382347210151]]],[[[-96.711782988980815,40.810584682090955],[-96.71182939551494,40.809234481368051],[-96.713606416718321,40.809269726743736],[-96.713560046147506,40.81061992913471],[-96.711782988980815,40.810584682090955]]],[[[-96.713513672431191,40.811970131165154],[-96.715290768709352,40.812005352531138],[-96.715244427815691,40.813355555867965],[-96.713467295569131,40.813320332835069],[-96.713513672431191,40.811970131165154]]],[[[-96.715059032803183,40.818756365610419],[-96.713281756658631,40.818721135909158],[-96.711504483661031,40.818685878855511],[-96.711550909086398,40.81733568029631],[-96.713328146106079,40.817370935681481],[-96.713374532406817,40.816020735093232],[-96.713420915561088,40.814670534144433],[-96.715198083778503,40.814705758844319],[-96.715151736597505,40.816055961460187],[-96.715105386272469,40.817406163715553],[-96.715059032803183,40.818756365610419]]],[[[-96.707903446581724,40.819965477549175],[-96.70968074925797,40.820000790978334],[-96.709727213812812,40.818650594449601],[-96.711504483661031,40.818685878855511],[-96.711458055086268,40.820036077054077],[-96.711411623361883,40.821386274892006],[-96.709634281551033,40.821350987146346],[-96.707856942892505,40.821315672045991],[-96.707903446581724,40.819965477549175]]]]}},
{"type":"Feature","properties":{"band":45},"geometry":{"type":"MultiPolygon","coordinates":[[[[-96.702005995521716,40.784718940815772],[-96.702052557788349,40.783368743270579],[-96.703828877256456,40.783404120875268],[-96.703782350905428,40.784754320095026],[-96.702005995521716,40.784718940815772]]],[[[-96.705233188099086,40.794241068204798],[-96.707009801272164,40.794276404551127],[-96.706963321541238,40.795626604230463],[-96.705186672432632,40.795591266211616],[-96.705140153611154,40.796941463857635],[-96.70509363163444,40.798291661142841],[-96.706870352621465,40.79832700250693],[-96.706823863432106,40.799677201104046],[-96.706777371089458,40.80102739934037],[-96.705000578214296,40.800992054630811],[-96.704954046770368,40.802342250833547],[-96.703177221103715,40.802306877114944],[-96.703130650553661,40.803657071282643],[-96.701353792095972,40.803621668552495],[-96.699576936799602,40.803586238485153],[-96.699530291186704,40.804936428939513],[-96.697753403102496,40.804900969856966],[-96.697706718371535,40.806251158272062],[-96.695929797499957,40.806215670171788],[-96.695976518184722,40.804865483436203],[-96.696023235700608,40.80351529633942],[-96.697800084667008,40.803550781080737],[-96.697846763065328,40.802200591943411],[-96.697893438297697,40.800850402444979],[-96.697940110364357,40.799500212585457],[-96.697986779265563,40.798150022364844],[-96.699763487616025,40.798185473057316],[-96.69981011741254,40.796835280797794],[-96.70158679298612,40.796870702481854],[-96.701633383682832,40.795520508184879],[-96.699856744046528,40.795485088177266],[-96.699903367518203,40.794134895195754],[-96.699949987827821,40.792784701853222],[-96.701726555596906,40.792820118508111],[-96.701773136814751,40.791469923128339],[-96.701819714873452,40.790119727387641],[-96.70186628977325,40.788769531286029],[-96.701912861514401,40.787419334823518],[-96.703689288736641,40.787454717452093],[-96.703642752918398,40.788804915589381],[-96.703596213943939,40.79015511336582],[-96.703549671813022,40.79150531078141],[-96.705326209967993,40.791540671108763],[-96.705279700610802,40.792890869837173],[-96.705233188099086,40.794241068204798]]],[[[-96.711504483661031,40.818685878855511],[-96.713281756658631,40.818721135909158],[-96.713235364064204,40.820071335776277],[-96.711458055086268,40.820036077054077],[-96.711504483661031,40.818685878855511]]],[[[-96.709587810691815,40.822701182953637],[-96.707810436048547,40.822665866182014],[-96.707856942892505,40.821315672045991],[-96.709634281551033,40.821350987146346],[-96.709587810691815,40.822701182953637]]],[[[-96.707810436048547,40.822665866182014],[-96.707763926049594,40.824016059957259],[-96.707717412895391,40.825366253371712],[-96.70593996943083,40.825330905898909],[-96.705986518574392,40.823980714157152],[-96.706033064560259,40.822630522054531],[-96.707810436048547,40.822665866182014]]],[[[-96.686904520288408,40.810088352369732],[-96.688681533162409,40.810123982223701],[-96.68872840719726,40.808773803303446],[-96.690505387290727,40.808809404129853],[-96.692282370561102,40.808844977614754],[-96.692235568446762,40.810195159903472],[-96.694012590852225,40.810230707729012],[-96.693965821526234,40.811580891338735],[-96.692188763157716,40.811545341830836],[-96.692141954693696,40.812895523396875],[-96.690364863534882,40.81285994486101],[-96.688587775553728,40.812824338979759],[-96.686810690752637,40.812788705753256],[-96.685033609134067,40.812753045181637],[-96.684986653625586,40.8141032196434],[-96.68320953922526,40.81406753003786],[-96.68316254456245,40.815417702448968],[-96.681385397380851,40.815381983806986],[-96.681338363558851,40.816732154165997],[-96.679561183596491,40.816696406485057],[-96.679514110610427,40.818046574790571],[-96.677736897867774,40.818010798068173],[-96.67778400682711,40.816660631455711],[-96.676006833253155,40.816624829078073],[-96.676053974987653,40.815274663797972],[-96.677831112591008,40.815310464481342],[-96.679608253389574,40.815346237817728],[-96.679655319989905,40.813996068788548],[-96.677878215159751,40.813960297145059],[-96.677925314533553,40.812610129446895],[-96.679702383397753,40.812645899397531],[-96.681479455454166,40.812681642003632],[-96.683256530700419,40.812717357265051],[-96.683303518988211,40.81136718413056],[-96.685080561457582,40.811402870358251],[-96.685127510596416,40.810052695173248],[-96.686904520288408,40.810088352369732]]],[[[-96.69518183537788,40.827818608815846],[-96.695228606797812,40.82646842785995],[-96.695275375044943,40.825118246542793],[-96.69705279952548,40.825153758163268],[-96.69700606726866,40.826503941160951],[-96.696959331841526,40.827854123797415],[-96.696912593243781,40.829204306072683],[-96.695135060784949,40.82916878941046],[-96.69518183537788,40.827818608815846]]],[[[-96.689943120648337,40.82501154753723],[-96.691720535603949,40.825047141229646],[-96.691673695376863,40.826397319181886],[-96.689896244431651,40.826361723805086],[-96.689943120648337,40.82501154753723]]],[[[-96.68984936503486,40.827711899711453],[-96.68980248245775,40.829062075256353],[-96.689755596700067,40.830412250439743],[-96.689708707761554,40.831762425261651],[-96.687931116014624,40.831726795783091],[-96.686153527451197,40.831691138941181],[-96.686106563328778,40.833041310028229],[-96.684328941950241,40.833005624134508],[-96.682551323760336,40.832969910876415],[-96.682598359884636,40.831619743167892],[-96.684375942073714,40.831655454736072],[-96.684422939008812,40.830305284975921],[-96.686200488387684,40.830340967492496],[-96.686247446138466,40.828990795682181],[-96.688024962706606,40.829026449149637],[-96.688071881277949,40.827676275290585],[-96.686294400703787,40.827640623510227],[-96.686341352083915,40.826290450976664],[-96.688118796666515,40.826326101069967],[-96.689896244431651,40.826361723805086],[-96.68984936503486,40.827711899711453]]],[[[-96.68082078088635,40.831584004236788],[-96.680773708761507,40.832934170254106],[-96.680726633443143,40.834284335909594],[-96.67894898563506,40.834248566230656],[-96.67717134102314,40.834212769186486],[-96.67539369960987,40.834176944777234],[-96.675440882935732,40.832826784203306],[-96.673663280725521,40.832790934125562],[-96.673616061397638,40.834141093003034],[-96.673568838866245,40.835491251518405],[-96.671791167853328,40.835455370681608],[-96.670013500046565,40.835419462478875],[-96.668235835448442,40.83538352691032],[-96.668188501694118,40.836733679966066],[-96.669966202298397,40.836769617235063],[-96.669918901341362,40.838119771628989],[-96.66814116472851,40.838083832659457],[-96.666363431327184,40.838047866321673],[-96.664585701139856,40.838011872615795],[-96.66280797416897,40.837975851541948],[-96.662855419158873,40.836625703957885],[-96.661077731414451,40.836589657221914],[-96.661125209190899,40.835239510980941],[-96.65934756067243,40.835203438585495],[-96.659395071230549,40.833853293688755],[-96.657617461937562,40.833817195636527],[-96.657665005272463,40.832467052085192],[-96.655887435204448,40.832430928378812],[-96.655935011311257,40.831080786174056],[-96.655982584190696,40.829730643606489],[-96.654205089341588,40.829694495959153],[-96.654252694985871,40.828344354739265],[-96.654300297400837,40.826994213156517],[-96.656077720268428,40.827030357383002],[-96.656125283467233,40.825680213727104],[-96.6579026735741,40.825716328887651],[-96.65795019756159,40.824366183160009],[-96.659727554907235,40.824402269257149],[-96.66150491547414,40.824438327999673],[-96.661552364272239,40.823088178495425],[-96.663329692074726,40.823124208178207],[-96.665107023093384,40.823160210507375],[-96.665059646262009,40.824510363420345],[-96.66683701647807,40.824546340098195],[-96.666884357325742,40.823196185482793],[-96.668661694769355,40.823232133104334],[-96.668708996424215,40.82188197642553],[-96.670486301094897,40.821917894993277],[-96.672263608971733,40.821953786208127],[-96.674040920052278,40.821989650069973],[-96.674088110559765,40.820639487933654],[-96.674135297866229,40.819289325435257],[-96.675912540190311,40.819325158552346],[-96.675959688320788,40.817974993996202],[-96.677736897867774,40.818010798068173],[-96.677689785712772,40.819360964318712],[-96.677642670361834,40.820711130207336],[-96.677595551814761,40.822061295734017],[-96.675818234334088,40.822025486578653],[-96.67577107660783,40.823375650048803],[-96.675723915682497,40.824725813156952],[-96.675676751557816,40.82607597590308],[-96.673899329321102,40.826040134306496],[-96.67385212600702,40.827390294994508],[-96.672074670982767,40.827354424343511],[-96.672121910286435,40.826004265352893],[-96.670344494456216,40.825968369042393],[-96.670297219163203,40.827318526334317],[-96.668519770550802,40.827282600967067],[-96.668472456059121,40.828632756196733],[-96.66842513835762,40.829982911064072],[-96.670202658955517,40.830018839831489],[-96.671980182761061,40.830054741238257],[-96.672027428474379,40.828704582971959],[-96.673804919490664,40.828740455320428],[-96.673757709771792,40.830090615284249],[-96.675535239985294,40.830126461969328],[-96.677312773399095,40.83016228129334],[-96.677265632471986,40.831512444286368],[-96.679043205081328,40.83154823794289],[-96.68082078088635,40.831584004236788]]],[[[-96.682363147350102,40.838370578092679],[-96.682316095268035,40.839720743992252],[-96.682269039993685,40.841070909530011],[-96.680491208940268,40.841035158759091],[-96.680538300229813,40.839684994912936],[-96.68058538832463,40.838334830704902],[-96.682363147350102,40.838370578092679]]],[[[-96.674324015086682,40.813888671821168],[-96.674371186391681,40.812538507512542],[-96.676148248864052,40.81257433215184],[-96.676101113524538,40.813924498155892],[-96.674324015086682,40.813888671821168]]],[[[-96.674135297866229,40.819289325435257],[-96.67235805874293,40.819253464967588],[-96.670580822822856,40.81921757714948],[-96.67062807887821,40.81786741768429],[-96.670675331728162,40.816517257856916],[-96.670722581372956,40.81516709766737],[-96.672499709376183,40.815202980390843],[-96.672546919848628,40.813852818141036],[-96.674324015086682,40.813888671821168],[-96.674276840581896,40.815238835767758],[-96.674229662877039,40.816588999352298],[-96.674182481971911,40.81793916257481],[-96.674135297866229,40.819289325435257]]]]}},
{"type":"Feature","properties":{"band":60},"geometry":{"type":"MultiPolygon","coordinates":[[[[-96.706952052006415,40.744283488361702],[-96.706905652904695,40.745633699714077],[-96.705130334939071,40.745598396251765],[-96.705083896843462,40.746948605572165],[-96.705037455599125,40.748298814531907],[-96.706812845262903,40.748334121337081],[-96.706766436722347,40.749684331607682],[-96.704991011205848,40.749649023130985],[-96.704944563663375,40.750999231369406],[-96.704898112971478,40.752349439247126],[-96.706673610200681,40.752384751067098],[-96.706627192219088,40.753734960255883],[-96.706580771090003,40.755085169084062],[-96.706534346813186,40.756435377551611],[-96.704758741996727,40.756400060716231],[-96.702983140330687,40.75636471658872],[-96.702936641171576,40.75771492135047],[-96.702890138859416,40.759065125751455],[-96.70466581226195,40.75910047322548],[-96.704619342668352,40.760450678939058],[-96.704572869923609,40.761800884291894],[-96.702797124774875,40.761765533471085],[-96.702750613002024,40.763115736789722],[-96.704526394027525,40.763151089284023],[-96.7044799149798,40.764501293915423],[-96.704433432780206,40.765851498186095],[-96.704386947428546,40.767201702096017],[-96.70434045892452,40.768551905645197],[-96.70429396726793,40.76990210883362],[-96.704247472458505,40.771252311661307],[-96.706023471948498,40.771287646891615],[-96.705977009879987,40.772637851031185],[-96.707753048414858,40.772673160626397],[-96.707706619092122,40.774023366076712],[-96.7076601866207,40.775373571166377],[-96.705884076290076,40.775338258228224],[-96.705837604768206,40.77668846128568],[-96.70579113009471,40.7780386639824],[-96.707567312230793,40.778073980263791],[-96.707520870311825,40.779424184271491],[-96.709297091503942,40.779459474910219],[-96.709250682344376,40.780809680227769],[-96.711026942593008,40.780844945221176],[-96.710980566197691,40.782195151847375],[-96.709204270037304,40.78215988518469],[-96.709157854582543,40.783510089781025],[-96.70738152565599,40.783474794130626],[-96.70733507113691,40.784824996695633],[-96.709111435979821,40.784860294016717],[-96.709065014228898,40.786210497891808],[-96.710841418139026,40.786245769562676],[-96.71079502916109,40.787595974746658],[-96.709018589329517,40.787560701406264],[-96.708972161281466,40.788910904560083],[-96.710748637036914,40.788946179570075],[-96.710702241766242,40.790296384032906],[-96.710655843348846,40.79164658813518],[-96.710609441784442,40.792996791876845],[-96.712386028473347,40.79303204456847],[-96.712339659695587,40.794382249618124],[-96.712293287772795,40.795732454307242],[-96.710516629213771,40.795697198278418],[-96.710470218206979,40.797047400938311],[-96.710423804052255,40.798397603237589],[-96.71220053449116,40.798432862603896],[-96.71215415313182,40.799783066211404],[-96.710377386749329,40.799747805176253],[-96.710330966297988,40.801098006754287],[-96.710284542697963,40.802448207971707],[-96.708507707569936,40.802412916262071],[-96.706730875593266,40.802377597215965],[-96.706777371089458,40.80102739934037],[-96.706823863432106,40.799677201104046],[-96.706870352621465,40.79832700250693],[-96.70509363163444,40.798291661142841],[-96.705140153611154,40.796941463857635],[-96.705186672432632,40.795591266211616],[-96.706963321541238,40.795626604230463],[-96.707009801272164,40.794276404551127],[-96.705233188099086,40.794241068204798],[-96.705279700610802,40.792890869837173],[-96.705326209967993,40.791540671108763],[-96.703549671813022,40.79150531078141],[-96.703596213943939,40.79015511336582],[-96.703642752918398,40.788804915589381],[-96.703689288736641,40.787454717452093],[-96.701912861514401,40.787419334823518],[-96.70186628977325,40.788769531286029],[-96.701819714873452,40.790119727387641],[-96.701773136814751,40.791469923128339],[-96.701726555596906,40.792820118508111],[-96.699949987827821,40.792784701853222],[-96.699903367518203,40.794134895195754],[-96.699856744046528,40.795485088177266],[-96.701633383682832,40.795520508184879],[-96.70158679298612,40.796870702481854],[-96.69981011741254,40.796835280797794],[-96.699763487616025,40.798185473057316],[-96.697986779265563,40.798150022364844],[-96.697940110364357,40.799500212585457],[-96.697893438297697,40.800850402444979],[-96.697846763065328,40.802200591943411],[-96.697800084667008,40.803550781080737],[-96.696023235700608,40.80351529633942],[-96.695976518184722,40.804865483436203],[-96.695929797499957,40.806215670171788],[-96.694152879797485,40.806180154732175],[-96.694199636435812,40.804829969677378],[-96.69424638990283,40.803479784261327],[-96.694293140198795,40.802129598484051],[-96.694339887323935,40.800779412345527],[-96.694386631278476,40.799429225845778],[-96.694433372062718,40.798079038984802],[-96.696210074080298,40.798114544340621],[-96.696256775755487,40.796764355438029],[-96.69448010967686,40.796728851762609],[-96.694526844121143,40.795378664179204],[-96.69457357539585,40.794028476234594],[-96.696350169603846,40.794063976549424],[-96.696396861777529,40.792713786563404],[-96.694620303501182,40.79267828792878],[-96.694667028437408,40.791328099261776],[-96.69471375020477,40.789977910233581],[-96.694760468803509,40.788627720844204],[-96.694807184233866,40.787277531093658],[-96.694853896496085,40.785927340981921],[-96.696630275150582,40.785962831216573],[-96.696676948327834,40.784612639063901],[-96.694900605590405,40.784577150509037],[-96.694947311517083,40.783226959674998],[-96.694994014276361,40.78187676847979],[-96.696770285186915,40.781912253675266],[-96.696816948869255,40.78056206043933],[-96.69686360938708,40.779211866842324],[-96.696910266740673,40.777861672884235],[-96.696956920930262,40.776511478565105],[-96.697003571956088,40.775161283884898],[-96.697050219818408,40.773811088843658],[-96.698826278470023,40.773846536654219],[-96.698872887273623,40.77249633957404],[-96.700648913190378,40.772531758399495],[-96.70069548294012,40.7711815592818],[-96.698919492916616,40.771146142132885],[-96.697143506053465,40.77111069767804],[-96.695367522353095,40.771075225917428],[-96.695414196616667,40.769725031472142],[-96.693638251971606,40.769689534086226],[-96.693684958957874,40.768339340960104],[-96.695460867715269,40.768374836665728],[-96.695507535649128,40.76702464149826],[-96.693731662776997,40.766989147472842],[-96.69195579307177,40.766953626145799],[-96.692002529606526,40.765603433978811],[-96.692049262972191,40.764253241450618],[-96.693825060914705,40.76428875941486],[-96.693871755233815,40.762938564844163],[-96.692095993169019,40.76290304856122],[-96.692142720197211,40.761552855310647],[-96.693918446386732,40.761588369912346],[-96.693965134373713,40.760238174619403],[-96.692189444057036,40.760202661698862],[-96.692236164748749,40.758852467725902],[-96.694011819194984,40.75888797896534],[-96.694058500850815,40.757537782950152],[-96.694105179341435,40.756187586573873],[-96.692329596628767,40.756152078696438],[-96.692376307817568,40.754801883639942],[-96.694151854667084,40.754837389836489],[-96.695927404681314,40.754872868743021],[-96.697702957857842,40.754908320359391],[-96.697749558296607,40.753558119903126],[-96.699525078771543,40.753593542552245],[-96.69957164019165,40.752243340058122],[-96.69779615557573,40.752207919085905],[-96.697842749695468,40.750857717907742],[-96.69606730409528,40.750822271325909],[-96.696113930909803,40.749472071464844],[-96.697889340656076,40.749507516368617],[-96.699664753561237,40.749542933987264],[-96.699711305511201,40.74819273041053],[-96.701486685720852,40.748228119068486],[-96.701533198665004,40.746877913455549],[-96.69975785430492,40.746842526472918],[-96.699804399942664,40.745492322174471],[-96.698029094585451,40.745456909585698],[-96.698075672911926,40.744106706602885],[-96.698122248080466,40.742756503259152],[-96.698168820091297,40.741406299554519],[-96.698215388944703,40.740056095488995],[-96.69644023010801,40.740020662329677],[-96.696486831638737,40.73867045958076],[-96.694711711795946,40.738635000824296],[-96.694758345999148,40.737284799393152],[-96.696533430010092,40.737320256470895],[-96.696580025222303,40.735970053000067],[-96.698355076562706,40.736005481127044],[-96.700130131059581,40.736040881981765],[-96.700083607506954,40.737391088806056],[-96.701858700988055,40.737426464063205],[-96.703633797620995,40.737461812046568],[-96.70358734257951,40.738812021858479],[-96.703540884388303,40.740162231309718],[-96.703494423047204,40.741512440400243],[-96.703447958555927,40.742862649130082],[-96.705223201685129,40.742897976529036],[-96.70699844796232,40.742933276648742],[-96.706952052006415,40.744283488361702]],[[-96.698313372961337,40.788698680710532],[-96.696536919299447,40.788663214438643],[-96.696490236625095,40.79001340550802],[-96.698266726211585,40.790048873458609],[-96.700043218961866,40.790084314085185],[-96.700089829786748,40.788734119659708],[-96.698313372961337,40.788698680710532]],[[-96.702005995521716,40.784718940815772],[-96.703782350905428,40.784754320095026],[-96.703828877256456,40.783404120875268],[-96.702052557788349,40.783368743270579],[-96.702005995521716,40.784718940815772]],[[-96.695600862023653,40.764324250080058],[-96.697376666296591,40.764359713446062],[-96.69742328885954,40.763009515516629],[-96.695647520464803,40.762974053829339],[-96.695600862023653,40.764324250080058]]],[[[-96.710238115949025,40.803798408828477],[-96.712014990176854,40.803833674870553],[-96.713791867551393,40.803868913574576],[-96.713745509560169,40.805219117407646],[-96.711968596232055,40.805183877035802],[-96.710191686050919,40.805148609324633],[-96.710238115949025,40.803798408828477]]],[[[-96.691114772565371,40.739914199196541],[-96.689339626381724,40.739878656934216],[-96.687564483367396,40.739843087396494],[-96.687611264067087,40.738492893054492],[-96.68765804159527,40.737142698351185],[-96.689433112945409,40.737178264521056],[-96.691208187464383,40.737213803418108],[-96.691161481598201,40.738564001487902],[-96.692936595114958,40.738599514793293],[-96.692889921915906,40.739949714183318],[-96.691114772565371,40.739914199196541]]],[[[-96.697050219818408,40.773811088843658],[-96.695274164330073,40.773775613724744],[-96.695320844924311,40.772425420001639],[-96.697096864517448,40.772460893441384],[-96.697050219818408,40.773811088843658]]],[[[-96.683303518988211,40.81136718413056],[-96.683256530700419,40.812717357265051],[-96.681479455454166,40.812681642003632],[-96.679702383397753,40.812645899397531],[-96.677925314533553,40.812610129446895],[-96.677878215159751,40.813960297145059],[-96.679655319989905,40.813996068788548],[-96.679608253389574,40.815346237817728],[-96.677831112591008,40.815310464481342],[-96.676053974987653,40.815274663797972],[-96.676006833253155,40.816624829078073],[-96.67778400682711,40.816660631455711],[-96.677736897867774,40.818010798068173],[-96.675959688320788,40.817974993996202],[-96.674182481971911,40.81793916257481],[-96.674229662877039,40.816588999352298],[-96.674276840581896,40.815238835767758],[-96.674324015086682,40.813888671821168],[-96.672546919848628,40.813852818141036],[-96.672499709376183,40.815202980390843],[-96.670722581372956,40.81516709766737],[-96.670675331728162,40.816517257856916],[-96.67062807887821,40.81786741768429],[-96.670580822822856,40.81921757714948],[-96.668803590108411,40.819181661981098],[-96.667026360602094,40.819145719462547],[-96.667073688606152,40.817795563397787],[-96.66529649828432,40.817759595231394],[-96.665343859049656,40.816409440506405],[-96.663566707911855,40.816373446694804],[-96.663614101433566,40.815023293310752],[-96.661836989479283,40.81498727385663],[-96.660059880742068,40.814951227056802],[-96.660012415283376,40.816301377030371],[-96.661789559988947,40.816337425536091],[-96.661742127281272,40.817687576853025],[-96.661694691356018,40.819037727807441],[-96.659917474706404,40.81900167588973],[-96.659869999587642,40.8203518247755],[-96.659822521248358,40.821701973298666],[-96.658045235865728,40.821665890616657],[-96.65799771832539,40.823016037069671],[-96.656220400185916,40.822979925326969],[-96.654443085272348,40.822943786231249],[-96.652665773587088,40.82290761978264],[-96.65271339906684,40.821557478459972],[-96.650936126591645,40.821521286371329],[-96.649158857349391,40.82148506693138],[-96.647381591342523,40.821448820140276],[-96.645604328573469,40.821412545998157],[-96.643827069044661,40.821376244505181],[-96.642049812758543,40.821339915661468],[-96.640272559717545,40.821303559467189],[-96.63849530992411,40.821267175922458],[-96.636718063380656,40.821230765027451],[-96.634940820089653,40.82119432678229],[-96.634988802096316,40.819844202281203],[-96.635036780848381,40.818494077416531],[-96.633259612758536,40.818457615272415],[-96.633307624225736,40.817107491769598],[-96.635084756346089,40.817143952188296],[-96.635132728589682,40.815793826596511],[-96.633355632436377,40.815757367903153],[-96.633403637390742,40.814407243673088],[-96.631626580458132,40.81437075936163],[-96.629849526784014,40.814334247706903],[-96.628072476370789,40.814297708709084],[-96.628024363524048,40.815647827755555],[-96.626247280410553,40.815611259684317],[-96.626295429220917,40.814261142368302],[-96.6263435747655,40.812911024688376],[-96.626391717044555,40.811560906644573],[-96.628168692274471,40.811597469524663],[-96.629945670767228,40.811634005064391],[-96.631722652520409,40.811670513263593],[-96.633499637531557,40.811706994122126],[-96.635276625798269,40.811743447639849],[-96.637053617318074,40.811779873816626],[-96.638830612088555,40.811816272652294],[-96.638782721526084,40.813166402781121],[-96.640559755505322,40.813202775996807],[-96.640607610107295,40.811852644146711],[-96.642384611371838,40.811888988299749],[-96.642336792730632,40.81323912186982],[-96.644113833199555,40.813275440399991],[-96.645890876909661,40.813311731587206],[-96.645938623628595,40.811961594581057],[-96.647715634615949,40.811997856709063],[-96.649492648839384,40.8120340914951],[-96.651269666296443,40.81207029893902],[-96.651317301898914,40.810720156425546],[-96.653094286627351,40.810756334815061],[-96.653141883041457,40.809406190226618],[-96.654918835040803,40.809442339564228],[-96.654966392271433,40.808092192902215],[-96.656743311541163,40.808128313190444],[-96.658520234034029,40.808164406139866],[-96.660297159747628,40.808200471750325],[-96.662074088679518,40.8082365100217],[-96.662026675272159,40.809586663513684],[-96.66380364337634,40.809622676150077],[-96.663756262711772,40.810972830983886],[-96.665533269988742,40.811008817982639],[-96.665580614694193,40.809658661445781],[-96.665627956188416,40.808308504546567],[-96.667404894760551,40.808344460799781],[-96.669181836541256,40.808380389713335],[-96.670958781528071,40.808416291287074],[-96.672735729718568,40.808452165520862],[-96.672688532053584,40.809802329219039],[-96.674465519403256,40.809838177809233],[-96.674512681110329,40.808488012414543],[-96.676289635700883,40.808523831967982],[-96.678066593487841,40.808559624181051],[-96.67811368008438,40.807209455035348],[-96.679890605109051,40.807245218215328],[-96.681667533324998,40.807280954055919],[-96.68344446472976,40.807316662557007],[-96.685221399320938,40.807352343718428],[-96.686998337096085,40.807387997540047],[-96.686951430283131,40.808738175135666],[-96.68872840719726,40.808773803303446],[-96.688681533162409,40.810123982223701],[-96.686904520288408,40.810088352369732],[-96.685127510596416,40.810052695173248],[-96.685080561457582,40.811402870358251],[-96.683303518988211,40.81136718413056]],[[-96.676101113524538,40.813924498155892],[-96.676148248864052,40.81257433215184],[-96.674371186391681,40.812538507512542],[-96.674324015086682,40.813888671821168],[-96.676101113524538,40.813924498155892]],[[-96.649254242519689,40.818784790050351],[-96.647477048463116,40.818748546689598],[-96.647429321521599,40.820098683596484],[-96.649206551552112,40.820134928672381],[-96.649254242519689,40.818784790050351]],[[-96.647620209864769,40.814698133790486],[-96.645843126951974,40.814661868230218],[-96.645795373755263,40.8160120045101],[-96.647572492634453,40.816048271786585],[-96.647620209864769,40.814698133790486]]],[[[-96.687931116014624,40.831726795783091],[-96.687884187893502,40.833076968557457],[-96.686106563328778,40.833041310028229],[-96.686153527451197,40.831691138941181],[-96.687931116014624,40.831726795783091]]],[[[-96.685683742819009,40.845192833536984],[-96.687461691505149,40.845228507255143],[-96.687414731535469,40.846578676413486],[-96.689192719433478,40.846614324442065],[-96.689145792305979,40.847964494925542],[-96.687367768379588,40.847928845210198],[-96.687320802037263,40.849279013645244],[-96.685542745266773,40.849243334862905],[-96.685495739704734,40.850593501248113],[-96.687273832508239,40.850629181718659],[-96.687226859792275,40.85197934943043],[-96.687179883889115,40.853329516780526],[-96.688958051953392,40.853365173243638],[-96.688911108903369,40.854715341919167],[-96.688864162668125,40.856065510233094],[-96.690642406001444,40.85610114268372],[-96.6905954926264,40.857451312322013],[-96.688817213247376,40.857415678185433],[-96.687038937054098,40.857380016660791],[-96.685260664048968,40.85734432774823],[-96.685213639346983,40.858694491963021],[-96.686991948399736,40.858730182564202],[-96.686944956556985,40.860080348105896],[-96.686897961525545,40.86143051328591],[-96.686850963305204,40.86278067810423],[-96.688629383704708,40.862816346378523],[-96.688582418352894,40.864166512522708],[-96.688535449814111,40.865516678305241],[-96.688488478088118,40.866866843726129],[-96.686709949508327,40.866831170388892],[-96.684931424118403,40.866795469654654],[-96.68488437707525,40.868145631337029],[-96.684837326839514,40.869495792657595],[-96.683058732510489,40.869460061145702],[-96.683011643012563,40.870810220413937],[-96.681233015809681,40.870774459810946],[-96.681280141376732,40.869424302234513],[-96.679501553440701,40.869388515924186],[-96.677722968704813,40.869352702214847],[-96.677770163206802,40.868002547663821],[-96.677817354506459,40.866652392750716],[-96.67603884510261,40.86661655503368],[-96.67599161773947,40.867966708251231],[-96.675944387171526,40.869316861106647],[-96.674165808843256,40.869280992599727],[-96.674213075476914,40.867930841441222],[-96.672434536421591,40.867894947233935],[-96.672481835911015,40.866544797411372],[-96.670703336128128,40.866508877506369],[-96.670656000575931,40.8678590256295],[-96.670608661811627,40.869209173390281],[-96.668830093113144,40.869173222688055],[-96.668877467942409,40.867823076628071],[-96.667098938523438,40.867787100229769],[-96.665320412321478,40.867751096434773],[-96.66536785606047,40.866400953417724],[-96.665415296580264,40.86505081003812],[-96.66719375066063,40.865086810426561],[-96.668972207957509,40.865122783420865],[-96.669019573143842,40.863772636273673],[-96.667241151904364,40.863736664981239],[-96.667288549931826,40.862386519173469],[-96.669066935116376,40.862422488764068],[-96.66911429387531,40.861072340892093],[-96.670892646220679,40.861108281390557],[-96.670845323514484,40.862458430962995],[-96.67262371512372,40.862494345770102],[-96.672671001776919,40.8611441944985],[-96.672718285221691,40.85979404286465],[-96.672765565458249,40.858443890868571],[-96.674543852123776,40.858479773190311],[-96.676322141994788,40.858515628123818],[-96.676369346931324,40.85716547237147],[-96.674591093106486,40.857129619134334],[-96.674638330883937,40.855779464716178],[-96.676416548665046,40.855815316257015],[-96.676463747196209,40.854465159780496],[-96.676510942525042,40.853115002941898],[-96.676558134651799,40.851764845741215],[-96.674780024987228,40.851728999288866],[-96.674827249946119,40.850378843422149],[-96.674874471701003,40.849028687193304],[-96.676652509300098,40.849064530253656],[-96.676699691822108,40.847714371966795],[-96.676746871143052,40.846364213317884],[-96.67679404726313,40.845014054306937],[-96.678571979982877,40.845049864904382],[-96.678619116880355,40.843699703836982],[-96.676841220182638,40.843663894933933],[-96.675063326685247,40.843628058656755],[-96.67511053242373,40.842277900617361],[-96.675157734959669,40.840927742215861],[-96.67693555642083,40.840963575101874],[-96.678713381081835,40.840999380616324],[-96.678760508386333,40.839649218463066],[-96.680538300229813,40.839684994912936],[-96.680491208940268,40.841035158759091],[-96.682269039993685,40.841070909530011],[-96.682316095268035,40.839720743992252],[-96.682363147350102,40.838370578092679],[-96.68058538832463,40.838334830704902],[-96.678807632493644,40.838299055947871],[-96.678854753404039,40.836948893070733],[-96.680632473224975,40.836984666134995],[-96.680679554931046,40.835634501203224],[-96.678901871117773,40.835598729831659],[-96.677124190500919,40.83556293109357],[-96.67717134102314,40.834212769186486],[-96.67894898563506,40.834248566230656],[-96.680726633443143,40.834284335909594],[-96.680773708761507,40.832934170254106],[-96.682551323760336,40.832969910876415],[-96.684328941950241,40.833005624134508],[-96.686106563328778,40.833041310028229],[-96.686059596020158,40.834391480753638],[-96.686012625525123,40.835741651117395],[-96.687790322099758,40.835777313021467],[-96.687743384426639,40.837127484711097],[-96.689521120194371,40.837163120934164],[-96.689474215348071,40.838513293948488],[-96.689427307319477,40.83986346660128],[-96.6876494995267,40.839827827005543],[-96.687602552299396,40.841177997610373],[-96.687555601886856,40.84252816785358],[-96.685777725244776,40.842492497511216],[-96.685730735625981,40.843842665704948],[-96.685683742819009,40.845192833536984]],[[-96.678336247518217,40.851800664811655],[-96.678383400408947,40.850450505554171],[-96.676605323576752,40.850414688178468],[-96.676558134651799,40.851764845741215],[-96.678336247518217,40.851800664811655]],[[-96.674496607935566,40.859829926884125],[-96.674449360541601,40.861180080215767],[-96.67622772251228,40.86121593854223],[-96.676274933855197,40.859865783514067],[-96.674496607935566,40.859829926884125]]],[[[-96.689333481714414,40.842563810822256],[-96.689286564137461,40.843913982390411],[-96.687508648288855,40.843878337735177],[-96.687555601886856,40.84252816785358],[-96.689333481714414,40.842563810822256]]],[[[-96.682332846582128,40.737035836206076],[-96.684107908411221,40.737071484193557],[-96.684061059222003,40.738421675525196],[-96.682285961562769,40.738386025849955],[-96.680510867082319,40.738350348901164],[-96.680557787931605,40.73700016094633],[-96.682332846582128,40.737035836206076]]],[[[-96.621012560802399,40.812801166808619],[-96.62278956218718,40.812837813443153],[-96.622837776382994,40.81148769886385],[-96.62461474507991,40.81152431642424],[-96.624566566842361,40.81287443273645],[-96.624518385336827,40.814224548684713],[-96.622741344720964,40.814187927658445],[-96.620964307375758,40.814151279289661],[-96.621012560802399,40.812801166808619]]],[[[-96.615681576294804,40.812691062859088],[-96.615633214988364,40.81404117012962],[-96.613856190750084,40.814004412392194],[-96.61390458801597,40.812654306861091],[-96.615681576294804,40.812691062859088]]]]}}
]
}
