{
"type": "FeatureCollection",
"name": "downtown__wk_2100",
"crs": { "type": "name", "properties": { "name": "urn:ogc:def:crs:OGC:1.3:CRS84" } },
"features": [
{"type":"Feature","properties":{"band":15},"geometry":{"type":"MultiPolygon","coordinates":[[[[-96.715244427815691,40.813355555867965],[-96.715198083778503,40.814705758844319],[-96.713420915561088,40.814670534144433],[-96.713374532406817,40.816020735093232],[-96.713328146106079,40.817370935681481],[-96.711550909086398,40.81733568029631],[-96.711504483661031,40.818685878855511],[-96.709727213812812,40.818650594449601],[-96.70968074925797,40.820000790978334],[-96.707903446581724,40.819965477549175],[-96.707856942892505,40.821315672045991],[-96.70607960738873,40.821280329591076],[-96.70612614705999,40.81993013676675],[-96.704348850695212,40.819894768631208],[-96.70257155748979,40.81985937314267],[-96.702618165962619,40.81850918330624],[-96.700840911897899,40.818473762141167],[-96.700887553185623,40.817123573619988],[-96.699110338261121,40.81708812678103],[-96.699157012358839,40.815737939576294],[-96.697379836574058,40.815702467066124],[-96.697426543476908,40.814352281178977],[-96.697473247211619,40.813002094930674],[-96.699250351056648,40.813037564083544],[-96.699297015657237,40.811687375795536],[-96.701074086701269,40.811722815925044],[-96.70112071217261,40.810372625598781],[-96.702897750415161,40.810408036707436],[-96.702944336762087,40.809057844344331],[-96.70472134220266,40.809093226434648],[-96.704767889430101,40.807743032036129],[-96.706544862068213,40.807778385110616],[-96.708321837861078,40.807813710843611],[-96.708275362553678,40.809163908587195],[-96.706498350800672,40.809128581182314],[-96.706451836378122,40.81047877689322],[-96.7082288840937,40.810514105970057],[-96.710005934962069,40.81054940770268],[-96.711782988980815,40.810584682090955],[-96.711736579298787,40.811934882453244],[-96.713513672431191,40.811970131165154],[-96.713467295569131,40.813320332835069],[-96.715244427815691,40.813355555867965]]],[[[-96.717021563205819,40.813390751553499],[-96.715244427815691,40.813355555867965],[-96.715290768709352,40.812005352531138],[-96.717067868130812,40.812040546551039],[-96.717021563205819,40.813390751553499]]]]}},
{"type":"Feature","properties":{"band":45},"geometry":{"type":"MultiPolygon","coordinates":[[[[-96.708414779019179,40.805113314274266],[-96.708368310016169,40.806463512739299],[-96.710145253003418,40.806498809460123],[-96.710098816806266,40.807849009234978],[-96.711875798901346,40.807884280284554],[-96.71182939551494,40.809234481368051],[-96.713606416718321,40.809269726743736],[-96.713560046147506,40.81061992913471],[-96.713513672431191,40.811970131165154],[-96.711736579298787,40.811934882453244],[-96.711782988980815,40.810584682090955],[-96.710005934962069,40.81054940770268],[-96.7082288840937,40.810514105970057],[-96.706451836378122,40.81047877689322],[-96.706498350800672,40.809128581182314],[-96.708275362553678,40.809163908587195],[-96.708321837861078,40.807813710843611],[-96.706544862068213,40.807778385110616],[-96.704767889430101,40.807743032036129],[-96.70472134220266,40.809093226434648],[-96.702944336762087,40.809057844344331],[-96.702897750415161,40.810408036707436],[-96.70112071217261,40.810372625598781],[-96.701074086701269,40.811722815925044],[-96.699297015657237,40.811687375795536],[-96.697519947778446,40.811651908321231],[-96.697566645177588,40.810301721350633],[-96.69761333940933,40.80895153401891],[-96.699390335362992,40.808986998136319],[-96.699436990468641,40.80763680876511],[-96.701213953627885,40.807672243863237],[-96.701260569612316,40.806322052453972],[-96.703037499976645,40.806357458535324],[-96.703084076844718,40.805007265089444],[-96.704860974413648,40.805042642156543],[-96.704907512170251,40.803692446675463],[-96.706684376943286,40.803727794730797],[-96.706637875139279,40.805077991884851],[-96.708414779019179,40.805113314274266]]],[[[-96.704302275042124,40.82124495978173],[-96.702524945855146,40.821209562618129],[-96.70074761983021,40.821174138100375],[-96.69897029696979,40.821138686228622],[-96.699016980566839,40.819788500107201],[-96.697239696854169,40.819753022560555],[-96.69728641326293,40.818402837756913],[-96.695509168697541,40.818367334538031],[-96.69555591791314,40.817017151053328],[-96.695602663957672,40.815666967207399],[-96.695649406831379,40.814316783000237],[-96.697426543476908,40.814352281178977],[-96.697379836574058,40.815702467066124],[-96.699157012358839,40.815737939576294],[-96.699110338261121,40.81708812678103],[-96.700887553185623,40.817123573619988],[-96.700840911897899,40.818473762141167],[-96.702618165962619,40.81850918330624],[-96.70257155748979,40.81985937314267],[-96.704348850695212,40.819894768631208],[-96.70612614705999,40.81993013676675],[-96.70607960738873,40.821280329591076],[-96.706033064560259,40.822630522054531],[-96.704255696229424,40.82259515057136],[-96.704302275042124,40.82124495978173]]]]}},
{"type":"Feature","properties":{"band":60},"geometry":{"type":"MultiPolygon","coordinates":[[[[-96.695509168697541,40.818367334538031],[-96.69728641326293,40.818402837756913],[-96.697239696854169,40.819753022560555],[-96.695462416310619,40.819717517661495],[-96.695509168697541,40.818367334538031]]],[[[-96.69897029696979,40.821138686228622],[-96.697192977276288,40.82110320700302],[-96.697239696854169,40.819753022560555],[-96.699016980566839,40.819788500107201],[-96.69897029696979,40.821138686228622]]],[[[-96.704255696229424,40.82259515057136],[-96.702478331058444,40.822559751732591],[-96.700700969049763,40.822524325538396],[-96.70074761983021,40.821174138100375],[-96.702524945855146,40.821209562618129],[-96.704302275042124,40.82124495978173],[-96.704255696229424,40.82259515057136]]]]}}
]
}
