{
"type": "FeatureCollection",
"name": "downtown__sa_1900",
"crs": { "type": "name", "properties": { "name": "urn:ogc:def:crs:OGC:1.3:CRS84" } },
"features": [
{"type":"Feature","properties":{"band":15},"geometry":{"type":"MultiPolygon","coordinates":[[[[-96.715244427815691,40.813355555867965],[-96.715198083778503,40.814705758844319],[-96.713420915561088,40.814670534144433],[-96.713374532406817,40.816020735093232],[-96.713328146106079,40.817370935681481],[-96.711550909086398,40.81733568029631],[-96.711504483661031,40.818685878855511],[-96.709727213812812,40.818650594449601],[-96.70968074925797,40.820000790978334],[-96.707903446581724,40.819965477549175],[-96.707856942892505,40.821315672045991],[-96.70607960738873,40.821280329591076],[-96.70612614705999,40.81993013676675],[-96.704348850695212,40.819894768631208],[-96.70257155748979,40.81985937314267],[-96.702618165962619,40.81850918330624],[-96.700840911897899,40.818473762141167],[-96.700887553185623,40.817123573619988],[-96.699110338261121,40.81708812678103],[-96.699157012358839,40.815737939576294],[-96.697379836574058,40.815702467066124],[-96.697426543476908,40.814352281178977],[-96.697473247211619,40.813002094930674],[-96.699250351056648,40.813037564083544],[-96.699297015657237,40.811687375795536],[-96.701074086701269,40.811722815925044],[-96.70112071217261,40.810372625598781],[-96.702897750415161,40.810408036707436],[-96.702944336762087,40.809057844344331],[-96.70472134220266,40.809093226434648],[-96.704767889430101,40.807743032036129],[-96.706544862068213,40.807778385110616],[-96.708321837861078,40.807813710843611],[-96.708275362553678,40.809163908587195],[-96.706498350800672,40.809128581182314],[-96.706451836378122,40.81047877689322],[-96.7082288840937,40.810514105970057],[-96.710005934962069,40.81054940770268],[-96.711782988980815,40.810584682090955],[-96.711736579298787,40.811934882453244],[-96.713513672431191,40.811970131165154],[-96.713467295569131,40.813320332835069],[-96.715244427815691,40.813355555867965]]],[[[-96.717021563205819,40.813390751553499],[-96.715244427815691,40.813355555867965],[-96.715290768709352,40.812005352531138],[-96.717067868130812,40.812040546551039],[-96.717021563205819,40.813390751553499]]]]}}
]
}
