{
"type": "FeatureCollection",
"name": "n27th-superior__wk_1800",
"crs": { "type": "name", "properties": { "name": "urn:ogc:def:crs:OGC:1.3:CRS84" } },
"features": [
{"type":"Feature","properties":{"band":15},"geometry":{"type":"Polygon","coordinates":[[[-96.683576506154353,40.854608285312629],[-96.683529451790804,40.855958448561168],[-96.68530768556036,40.855994163171687],[-96.685260664048968,40.85734432774823],[-96.687038937054098,40.857380016660791],[-96.686991948399736,40.858730182564202],[-96.686944956556985,40.860080348105896],[-96.686897961525545,40.86143051328591],[-96.68511958037017,40.861394819307328],[-96.683341202406126,40.861359097937076],[-96.683294132076099,40.862709259376466],[-96.681515721251372,40.862673508923294],[-96.681468611670383,40.864023668309393],[-96.679690167985456,40.863987888770765],[-96.679643019148642,40.865338046102117],[-96.677864542604013,40.865302237475547],[-96.676086069261231,40.865266401454001],[-96.676133290215546,40.863916247512194],[-96.677911727499691,40.863952081838328],[-96.677958909193791,40.862601925839051],[-96.67618050796581,40.862566093208265],[-96.67622772251228,40.86121593854223],[-96.676274933855197,40.859865783514067],[-96.674496607935566,40.859829926884125],[-96.672718285221691,40.85979404286465],[-96.672765565458249,40.858443890868571],[-96.674543852123776,40.858479773190311],[-96.674591093106486,40.857129619134334],[-96.674638330883937,40.855779464716178],[-96.676416548665046,40.855815316257015],[-96.676463747196209,40.854465159780496],[-96.676510942525042,40.853115002941898],[-96.678289091428098,40.853150823707132],[-96.680067243530814,40.853186617089058],[-96.681845398830703,40.853222383087498],[-96.681798311619886,40.854572545006825],[-96.683576506154353,40.854608285312629]],[[-96.681751221214057,40.8559227065643],[-96.681704127613003,40.857272867759882],[-96.68348239423446,40.85730861144787],[-96.683529451790804,40.855958448561168],[-96.681751221214057,40.8559227065643]]]}},
{"type":"Feature","properties":{"band":30},"geometry":{"type":"MultiPolygon","coordinates":[[[[-96.70014091276505,40.838726546630639],[-96.700187601538445,40.837376363525685],[-96.700234287144426,40.836026180059605],[-96.700280969583218,40.834675996232413],[-96.702058655555376,40.834711437517576],[-96.702012009124715,40.836061623021877],[-96.703789734269748,40.83609703861579],[-96.703743120685161,40.837447225434929],[-96.701965359529311,40.837411808165136],[-96.701918706768936,40.838761992947333],[-96.70014091276505,40.838726546630639]]],[[[-96.703603260955163,40.841497783726396],[-96.705381133321353,40.841533178650572],[-96.705334543105948,40.84288336570058],[-96.707112454654023,40.842918734924517],[-96.707065897301035,40.84426892328721],[-96.707019336789173,40.845619111289032],[-96.708797323545795,40.84565445648245],[-96.708750795903427,40.847004645795856],[-96.708704265104117,40.84835483474842],[-96.708657731147639,40.849705023340157],[-96.710435829154861,40.849740346169348],[-96.710389328077142,40.851090536071624],[-96.70861119403375,40.851055211571051],[-96.706833063148011,40.851019859687341],[-96.706786486838098,40.852370045884655],[-96.708564653762195,40.85240539944111],[-96.708518110332747,40.853755586950314],[-96.708471563745164,40.855105774098654],[-96.708425013999175,40.85645596088613],[-96.708378461094568,40.857806147312736],[-96.706600149992539,40.857770787064638],[-96.704821842051814,40.857735399427064],[-96.704775213887402,40.859085582145347],[-96.702996873060357,40.859050165442767],[-96.702950205679414,40.860400346124301],[-96.702903535131782,40.861750526444752],[-96.701125125364143,40.861715078997548],[-96.699346718765881,40.861679604157409],[-96.697568315339439,40.861644101924462],[-96.695789915087232,40.861608572298863],[-96.694011518011735,40.861573015280747],[-96.693964664013734,40.862923186841364],[-96.692186234061424,40.862887600747229],[-96.692139340825648,40.864237770262697],[-96.690360877997023,40.864202155090041],[-96.688582418352894,40.864166512522708],[-96.688535449814111,40.865516678305241],[-96.690313945518568,40.865552322558941],[-96.69026700985539,40.866902489666252],[-96.688488478088118,40.866866843726129],[-96.686709949508327,40.866831170388892],[-96.686662938529906,40.868181333760333],[-96.68488437707525,40.868145631337029],[-96.684837326839514,40.869495792657595],[-96.684790273410954,40.870845953616346],[-96.683011643012563,40.870810220413937],[-96.682964550319113,40.872160379320313],[-96.681185887044663,40.872124617025442],[-96.681233015809681,40.870774459810946],[-96.679454391804754,40.870738671807516],[-96.679501553440701,40.869388515924186],[-96.677722968704813,40.869352702214847],[-96.677675771000224,40.870702856403788],[-96.675897153398537,40.870667013599899],[-96.675944387171526,40.869316861106647],[-96.674165808843256,40.869280992599727],[-96.674118539002137,40.87063114339599],[-96.674071265953287,40.871981293830061],[-96.672292618694271,40.871945394527927],[-96.672339927813468,40.870595245792217],[-96.67056131983496,40.870559320788701],[-96.668782715069057,40.870523368385612],[-96.667004113518217,40.870487388583058],[-96.667051527629454,40.869137244587677],[-96.66527296536303,40.869101239089282],[-96.663494406316275,40.869065206193042],[-96.663541889338944,40.867715065243203],[-96.663589369139714,40.86636492393076],[-96.66536785606047,40.866400953417724],[-96.665415296580264,40.86505081003812],[-96.665462733881142,40.863700666295991],[-96.667241151904364,40.863736664981239],[-96.667288549931826,40.862386519173469],[-96.667335944743272,40.861036373003238],[-96.667383336338958,40.859686226470558],[-96.665605026472505,40.859650232894438],[-96.665652450900055,40.858300087702226],[-96.663874180298663,40.858264068441507],[-96.662095912917422,40.858228021793416],[-96.662048416395876,40.859578163575932],[-96.662000916651493,40.860928304995802],[-96.660222580397146,40.860892227546849],[-96.660270116190603,40.859542087833837],[-96.658491819210596,40.859505984703368],[-96.656713525458315,40.859469854184667],[-96.656665917567466,40.860819990480081],[-96.656618306446219,40.862170126412636],[-96.65483994382501,40.862133965084297],[-96.654792293419888,40.863484098943104],[-96.653013897978823,40.863447908512065],[-96.653061584436912,40.862097776365431],[-96.651283228284342,40.862061560256173],[-96.651330947557142,40.860711429459933],[-96.649552630692568,40.86067518767512],[-96.649600382775219,40.859325058230446],[-96.647822105198145,40.859288790772744],[-96.646043830863448,40.859252495927691],[-96.646091651795686,40.857902369552868],[-96.64431341675018,40.857866049039025],[-96.644361270479806,40.856515924019305],[-96.646139469483373,40.856552242814779],[-96.64618728392675,40.855202115713432],[-96.646235095126073,40.853851988248842],[-96.648013225296879,40.853888276225753],[-96.648060997217527,40.852538146681063],[-96.649839094594569,40.852574405560212],[-96.649886827241417,40.851224273936829],[-96.648108765897049,40.851188016773193],[-96.648156531335715,40.849837886502172],[-96.646378509262206,40.849801603675658],[-96.6464263074878,40.848451474758136],[-96.644648324684667,40.848415166271415],[-96.644600490431756,40.849765293470988],[-96.642822474846795,40.849728955888281],[-96.642870345126752,40.848378830407967],[-96.641092368816544,40.848342467167917],[-96.641140271873169,40.846992343044732],[-96.642918212159032,40.847028704564302],[-96.644696155692316,40.847065038708564],[-96.644743983454987,40.845714910782441],[-96.646521894210821,40.845751215833459],[-96.648299808208989,40.845787493510201],[-96.648347560686688,40.844437361786596],[-96.650125441904223,40.844473610373747],[-96.65017315512425,40.843123476571911],[-96.650220865107343,40.841773342407031],[-96.651998677527928,40.841809560193383],[-96.651951003560683,40.843159696071986],[-96.653728855231606,40.843195888199929],[-96.65550671013456,40.843232052955599],[-96.655459104970177,40.844582191894943],[-96.657236999121807,40.844618330988105],[-96.657189426749042,40.845968471274581],[-96.658967360149816,40.846004584702591],[-96.658919820573558,40.84735472633502],[-96.657141851148609,40.847318611198254],[-96.657094272320236,40.848668750759138],[-96.658872277771792,40.848704867604724],[-96.658824731744318,40.85005500851171],[-96.657046690263698,40.850018889957212],[-96.656999104978752,40.851369028792476],[-96.655221030695316,40.851332881148693],[-96.655173406148023,40.852683017910806],[-96.656951516465128,40.852719167264922],[-96.658729630011166,40.852755289237422],[-96.658777182490851,40.851405149055935],[-96.660555263229185,40.851441241938929],[-96.660507746783665,40.852791383828155],[-96.662285866780209,40.852827451036987],[-96.662333347191307,40.851477307441321],[-96.662380824381046,40.85012716348303],[-96.66415887553228,40.850163199899576],[-96.66411143437476,40.851513345562957],[-96.665889524777143,40.851549356303686],[-96.665842116435655,40.852899503308365],[-96.665794704877442,40.85424964995056],[-96.667572870569074,40.854285636715453],[-96.669351039475202,40.854321596096575],[-96.671129211593438,40.854357528093786],[-96.67290738692131,40.854393432706928],[-96.672954654327597,40.853043279261961],[-96.67473279682406,40.853079154793448],[-96.676510942525042,40.853115002941898],[-96.676558134651799,40.851764845741215],[-96.678336247518217,40.851800664811655],[-96.678383400408947,40.850450505554171],[-96.680161480440276,40.850486295549132],[-96.680208594099838,40.849136134236289],[-96.680255704562938,40.847785972561525],[-96.680302811829847,40.846435810524831],[-96.678524839887231,40.846400025609789],[-96.678571979982877,40.845049864904382],[-96.678619116880355,40.843699703836982],[-96.678666250579937,40.842349542407632],[-96.678713381081835,40.840999380616324],[-96.680491208940268,40.841035158759091],[-96.680538300229813,40.839684994912936],[-96.68058538832463,40.838334830704902],[-96.680632473224975,40.836984666134995],[-96.682410196240113,40.837020411831311],[-96.684187922447066,40.837056130159517],[-96.684140909567617,40.838406298111074],[-96.685918674974744,40.838441990759939],[-96.685871694918916,40.839792160038698],[-96.684093893498556,40.839756465700887],[-96.684046874239641,40.841106632928962],[-96.685824711675679,40.841142328955797],[-96.687602552299396,40.841177997610373],[-96.6876494995267,40.839827827005543],[-96.689427307319477,40.83986346660128],[-96.691205118294775,40.839899078825766],[-96.692982932450164,40.839934663678847],[-96.694760749783228,40.839970221160414],[-96.694713946622073,40.841320398503207],[-96.696491803147524,40.841355930294348],[-96.698269662845988,40.841391434712385],[-96.69831639397259,40.840041254008362],[-96.700094220823999,40.840076729374459],[-96.70187205084332,40.840112177368468],[-96.701825391752251,40.841462361428555],[-96.703603260955163,40.841497783726396]],[[-96.676463747196209,40.854465159780496],[-96.676416548665046,40.855815316257015],[-96.674638330883937,40.855779464716178],[-96.674591093106486,40.857129619134334],[-96.674543852123776,40.858479773190311],[-96.672765565458249,40.858443890868571],[-96.672718285221691,40.85979404286465],[-96.674496607935566,40.859829926884125],[-96.676274933855197,40.859865783514067],[-96.67622772251228,40.86121593854223],[-96.67618050796581,40.862566093208265],[-96.677958909193791,40.862601925839051],[-96.677911727499691,40.863952081838328],[-96.676133290215546,40.863916247512194],[-96.676086069261231,40.865266401454001],[-96.677864542604013,40.865302237475547],[-96.679643019148642,40.865338046102117],[-96.679690167985456,40.863987888770765],[-96.681468611670383,40.864023668309393],[-96.681515721251372,40.862673508923294],[-96.683294132076099,40.862709259376466],[-96.683341202406126,40.861359097937076],[-96.68511958037017,40.861394819307328],[-96.686897961525545,40.86143051328591],[-96.686944956556985,40.860080348105896],[-96.686991948399736,40.858730182564202],[-96.687038937054098,40.857380016660791],[-96.685260664048968,40.85734432774823],[-96.68530768556036,40.855994163171687],[-96.683529451790804,40.855958448561168],[-96.683576506154353,40.854608285312629],[-96.681798311619886,40.854572545006825],[-96.681845398830703,40.853222383087498],[-96.680067243530814,40.853186617089058],[-96.678289091428098,40.853150823707132],[-96.676510942525042,40.853115002941898],[-96.676463747196209,40.854465159780496]],[[-96.686850963305204,40.86278067810423],[-96.688629383704708,40.862816346378523],[-96.690407807290939,40.862851987259567],[-96.6904547334006,40.86150181906752],[-96.688676345869837,40.861466179872693],[-96.686897961525545,40.86143051328591],[-96.686850963305204,40.86278067810423]],[[-96.687179883889115,40.853329516780526],[-96.687226859792275,40.85197934943043],[-96.689004991818408,40.852015004206486],[-96.690783127029292,40.85205063159966],[-96.690736223202634,40.853400802322554],[-96.69251439763444,40.853436404017145],[-96.692467526666292,40.854786576063006],[-96.694245740319516,40.854822152056364],[-96.694292575246351,40.853471978327271],[-96.696070756035937,40.853507525252766],[-96.696117551745985,40.852157349480407],[-96.696164344281058,40.850807173346716],[-96.696211133641384,40.8494569968517],[-96.694433060961799,40.849421454971598],[-96.694479883179426,40.84807127979694],[-96.694526702220372,40.846721104260908],[-96.692748704778381,40.846685538365925],[-96.692701849708328,40.848035712219051],[-96.690923819416369,40.848000117261876],[-96.690970710515259,40.846649945092921],[-96.689192719433478,40.846614324442065],[-96.689239643377235,40.845264153597022],[-96.689286564137461,40.843913982390411],[-96.687508648288855,40.843878337735177],[-96.685730735625981,40.843842665704948],[-96.683952826151256,40.843806966299873],[-96.683905797321287,40.845157132442694],[-96.683858765300485,40.846507298223742],[-96.683811730088621,40.847857463643031],[-96.685589747639654,40.847893168115974],[-96.685542745266773,40.849243334862905],[-96.683764691685411,40.849207628700526],[-96.683717650090614,40.850557793396248],[-96.685495739704734,40.850593501248113],[-96.685448730953325,40.851943667271605],[-96.68540171901229,40.853293832933367],[-96.687179883889115,40.853329516780526]],[[-96.696304702838802,40.84675664277777],[-96.696351482676391,40.845406465198849],[-96.694573518084866,40.845370928363522],[-96.694526702220372,40.846721104260908],[-96.696304702838802,40.84675664277777]]],[[[-96.68269242256099,40.828919406665513],[-96.682645392818088,40.830269575097581],[-96.680867849817943,40.830233837857605],[-96.680914915556528,40.828883671116607],[-96.68269242256099,40.828919406665513]]],[[[-96.683529451790804,40.855958448561168],[-96.68348239423446,40.85730861144787],[-96.681704127613003,40.857272867759882],[-96.681751221214057,40.8559227065643],[-96.683529451790804,40.855958448561168]]],[[[-96.641092368816544,40.848342467167917],[-96.641044462509782,40.84969259092771],[-96.639266453423133,40.849656198589408],[-96.639314395756443,40.848306076551467],[-96.641092368816544,40.848342467167917]]],[[[-96.640948640144885,40.852392837356973],[-96.640900724086251,40.853742960026437],[-96.639122606905303,40.853706562522213],[-96.639170558997805,40.852356441574806],[-96.640948640144885,40.852392837356973]]]]}},
{"type":"Feature","properties":{"band":45},"geometry":{"type":"MultiPolygon","coordinates":[[[[-96.71182939551494,40.809234481368051],[-96.713606416718321,40.809269726743736],[-96.713560046147506,40.81061992913471],[-96.713513672431191,40.811970131165154],[-96.713467295569131,40.813320332835069],[-96.715244427815691,40.813355555867965],[-96.715198083778503,40.814705758844319],[-96.715151736597505,40.816055961460187],[-96.715105386272469,40.817406163715553],[-96.713328146106079,40.817370935681481],[-96.713281756658631,40.818721135909158],[-96.713235364064204,40.820071335776277],[-96.711458055086268,40.820036077054077],[-96.711411623361883,40.821386274892006],[-96.709634281551033,40.821350987146346],[-96.709587810691815,40.822701182953637],[-96.707810436048547,40.822665866182014],[-96.707763926049594,40.824016059957259],[-96.707717412895391,40.825366253371712],[-96.70593996943083,40.825330905898909],[-96.705986518574392,40.823980714157152],[-96.704209114256855,40.823945341000034],[-96.70416252912419,40.825295531067809],[-96.704115940831173,40.826645720774643],[-96.70589341712936,40.826681097279781],[-96.705846861669741,40.828031288299798],[-96.707624377120339,40.828066639118184],[-96.707577854498979,40.829416831450224],[-96.707531328721416,40.830767023421437],[-96.707484799787423,40.832117215031815],[-96.705707176339487,40.832081859194538],[-96.705660608244813,40.833432048770995],[-96.707438267696716,40.833467406281372],[-96.707391732449082,40.834817597170087],[-96.709169431064595,40.834852928986145],[-96.70912292866889,40.836203121185946],[-96.709076423118191,40.837553313024983],[-96.707298652482038,40.837517977864998],[-96.707252107762145,40.838868167671173],[-96.707205559884329,40.840218357116491],[-96.708983402550899,40.840253695620682],[-96.70893688753381,40.841603886377335],[-96.708890369360745,40.842954076773196],[-96.708843848031492,40.844304266808223],[-96.708797323545795,40.84565445648245],[-96.707019336789173,40.845619111289032],[-96.707065897301035,40.84426892328721],[-96.707112454654023,40.842918734924517],[-96.705334543105948,40.84288336570058],[-96.705381133321353,40.841533178650572],[-96.703603260955163,40.841497783726396],[-96.701825391752251,40.841462361428555],[-96.70187205084332,40.840112177368468],[-96.700094220823999,40.840076729374459],[-96.69831639397259,40.840041254008362],[-96.698269662845988,40.841391434712385],[-96.696491803147524,40.841355930294348],[-96.694713946622073,40.841320398503207],[-96.694760749783228,40.839970221160414],[-96.692982932450164,40.839934663678847],[-96.693029768450572,40.838584487657215],[-96.694807549769166,40.838620043456281],[-96.696585334262736,40.838655571884985],[-96.696632095061403,40.83730539213839],[-96.698409846714995,40.837340891516718],[-96.698456568331281,40.835990709729117],[-96.700234287144426,40.836026180059605],[-96.700187601538445,40.837376363525685],[-96.70014091276505,40.838726546630639],[-96.701918706768936,40.838761992947333],[-96.701965359529311,40.837411808165136],[-96.703743120685161,40.837447225434929],[-96.703789734269748,40.83609703861579],[-96.702012009124715,40.836061623021877],[-96.702058655555376,40.834711437517576],[-96.700280969583218,40.834675996232413],[-96.698503286777964,40.834640527580319],[-96.696725607142099,40.834605031561445],[-96.696772358424624,40.833254850731109],[-96.694994717965528,40.833219329026512],[-96.695041502079008,40.831869149515803],[-96.695088283018734,40.830518969643769],[-96.695135060784949,40.82916878941046],[-96.69518183537788,40.827818608815846],[-96.695228606797812,40.82646842785995],[-96.695275375044943,40.825118246542793],[-96.693497953736951,40.825082707564867],[-96.691720535603949,40.825047141229646],[-96.691673695376863,40.826397319181886],[-96.689896244431651,40.826361723805086],[-96.68984936503486,40.827711899711453],[-96.68980248245775,40.829062075256353],[-96.691580005389497,40.829097674002142],[-96.691533155628704,40.830447850870144],[-96.689755596700067,40.830412250439743],[-96.689708707761554,40.831762425261651],[-96.687931116014624,40.831726795783091],[-96.687884187893502,40.833076968557457],[-96.686106563328778,40.833041310028229],[-96.686059596020158,40.834391480753638],[-96.686012625525123,40.835741651117395],[-96.687790322099758,40.835777313021467],[-96.687743384426639,40.837127484711097],[-96.689521120194371,40.837163120934164],[-96.689474215348071,40.838513293948488],[-96.689427307319477,40.83986346660128],[-96.6876494995267,40.839827827005543],[-96.687602552299396,40.841177997610373],[-96.685824711675679,40.841142328955797],[-96.684046874239641,40.841106632928962],[-96.684093893498556,40.839756465700887],[-96.685871694918916,40.839792160038698],[-96.685918674974744,40.838441990759939],[-96.684140909567617,40.838406298111074],[-96.684187922447066,40.837056130159517],[-96.682410196240113,40.837020411831311],[-96.680632473224975,40.836984666134995],[-96.680679554931046,40.835634501203224],[-96.678901871117773,40.835598729831659],[-96.677124190500919,40.83556293109357],[-96.67717134102314,40.834212769186486],[-96.67539369960987,40.834176944777234],[-96.675440882935732,40.832826784203306],[-96.673663280725521,40.832790934125562],[-96.673710496850163,40.831440774885962],[-96.675488063060797,40.831476623267356],[-96.675535239985294,40.830126461969328],[-96.673757709771792,40.830090615284249],[-96.671980182761061,40.830054741238257],[-96.670202658955517,40.830018839831489],[-96.66842513835762,40.829982911064072],[-96.668472456059121,40.828632756196733],[-96.666694974664992,40.828596801770239],[-96.666742325147951,40.827246648241918],[-96.668519770550802,40.827282600967067],[-96.670297219163203,40.827318526334317],[-96.670344494456216,40.825968369042393],[-96.672121910286435,40.826004265352893],[-96.672169146385656,40.824654106000111],[-96.673946529433195,40.824689973256412],[-96.673993726343497,40.823339811844221],[-96.67577107660783,40.823375650048803],[-96.675818234334088,40.822025486578653],[-96.674040920052278,40.821989650069973],[-96.674088110559765,40.820639487933654],[-96.674135297866229,40.819289325435257],[-96.675912540190311,40.819325158552346],[-96.675959688320788,40.817974993996202],[-96.677736897867774,40.818010798068173],[-96.67778400682711,40.816660631455711],[-96.679561183596491,40.816696406485057],[-96.681338363558851,40.816732154165997],[-96.681385397380851,40.815381983806986],[-96.681432428012542,40.814031813086189],[-96.68320953922526,40.81406753003786],[-96.684986653625586,40.8141032196434],[-96.684939694931913,40.815453393743546],[-96.686716848486824,40.815489057690563],[-96.686763771211105,40.814138881902686],[-96.688540891979386,40.814174516815577],[-96.68849400522474,40.815524694289891],[-96.690271165143216,40.815560303541375],[-96.692048328239807,40.815595885444885],[-96.692095143054487,40.814245704601561],[-96.693872273356419,40.814281257474377],[-96.693919049027713,40.812931074587198],[-96.695696146534516,40.812966598431849],[-96.695742883067297,40.811616413502243],[-96.695789616429991,40.810266228211425],[-96.697566645177588,40.810301721350633],[-96.69761333940933,40.80895153401891],[-96.699390335362992,40.808986998136319],[-96.699436990468641,40.80763680876511],[-96.701213953627885,40.807672243863237],[-96.701260569612316,40.806322052453972],[-96.703037499976645,40.806357458535324],[-96.703084076844718,40.805007265089444],[-96.704860974413648,40.805042642156543],[-96.704907512170251,40.803692446675463],[-96.706684376943286,40.803727794730797],[-96.706637875139279,40.805077991884851],[-96.708414779019179,40.805113314274266],[-96.708368310016169,40.806463512739299],[-96.710145253003418,40.806498809460123],[-96.710098816806266,40.807849009234978],[-96.711875798901346,40.807884280284554],[-96.71182939551494,40.809234481368051]],[[-96.673899329321102,40.826040134306496],[-96.675676751557816,40.82607597590308],[-96.675723915682497,40.824725813156952],[-96.673946529433195,40.824689973256412],[-96.673899329321102,40.826040134306496]],[[-96.68269242256099,40.828919406665513],[-96.680914915556528,40.828883671116607],[-96.680867849817943,40.830233837857605],[-96.682645392818088,40.830269575097581],[-96.68269242256099,40.828919406665513]],[[-96.691767372653615,40.823696962915982],[-96.69354475479922,40.823732527568175],[-96.693591552686755,40.822382347210151],[-96.691814206526132,40.822346784240928],[-96.691767372653615,40.823696962915982]]],[[[-96.708378461094568,40.857806147312736],[-96.708331905031073,40.859156333378472],[-96.706553557878465,40.859120971457294],[-96.706600149992539,40.857770787064638],[-96.708378461094568,40.857806147312736]]],[[[-96.694573518084866,40.845370928363522],[-96.696351482676391,40.845406465198849],[-96.696304702838802,40.84675664277777],[-96.694526702220372,40.846721104260908],[-96.694573518084866,40.845370928363522]]],[[[-96.69087692513591,40.849350289069314],[-96.690923819416369,40.848000117261876],[-96.692701849708328,40.848035712219051],[-96.692748704778381,40.846685538365925],[-96.694526702220372,40.846721104260908],[-96.694479883179426,40.84807127979694],[-96.694433060961799,40.849421454971598],[-96.694386235567251,40.850771629784866],[-96.692608130030621,40.850736058841001],[-96.692654991459179,40.849385885710745],[-96.69087692513591,40.849350289069314]]],[[[-96.689239643377235,40.845264153597022],[-96.689192719433478,40.846614324442065],[-96.690970710515259,40.846649945092921],[-96.690923819416369,40.848000117261876],[-96.689145792305979,40.847964494925542],[-96.687367768379588,40.847928845210198],[-96.687320802037263,40.849279013645244],[-96.685542745266773,40.849243334862905],[-96.685589747639654,40.847893168115974],[-96.683811730088621,40.847857463643031],[-96.683858765300485,40.846507298223742],[-96.683905797321287,40.845157132442694],[-96.683952826151256,40.843806966299873],[-96.685730735625981,40.843842665704948],[-96.687508648288855,40.843878337735177],[-96.689286564137461,40.843913982390411],[-96.689239643377235,40.845264153597022]]],[[[-96.683717650090614,40.850557793396248],[-96.683764691685411,40.849207628700526],[-96.685542745266773,40.849243334862905],[-96.685495739704734,40.850593501248113],[-96.683717650090614,40.850557793396248]]],[[[-96.685495739704734,40.850593501248113],[-96.687273832508239,40.850629181718659],[-96.687226859792275,40.85197934943043],[-96.687179883889115,40.853329516780526],[-96.68540171901229,40.853293832933367],[-96.685448730953325,40.851943667271605],[-96.685495739704734,40.850593501248113]]],[[[-96.690783127029292,40.85205063159966],[-96.689004991818408,40.852015004206486],[-96.689051928498685,40.850664834807759],[-96.690830027673627,40.850700460515249],[-96.690783127029292,40.85205063159966]]],[[[-96.690360877997023,40.864202155090041],[-96.690313945518568,40.865552322558941],[-96.688535449814111,40.865516678305241],[-96.688582418352894,40.864166512522708],[-96.690360877997023,40.864202155090041]]],[[[-96.688441503174687,40.868217008785358],[-96.688394525073576,40.869567173482928],[-96.686615924361348,40.869531496770044],[-96.686662938529906,40.868181333760333],[-96.686709949508327,40.866831170388892],[-96.688488478088118,40.866866843726129],[-96.688441503174687,40.868217008785358]]],[[[-96.690032283759422,40.873653319778825],[-96.689985328982516,40.875003484716501],[-96.689938371019139,40.876353649292547],[-96.688159586743964,40.876317991545577],[-96.688112589511519,40.877668154073035],[-96.686333772343431,40.877632467231606],[-96.684554958367201,40.877596752982839],[-96.684507885776526,40.87894691177064],[-96.682729038910551,40.878911168423748],[-96.682681927038857,40.880261325158727],[-96.68090304728365,40.88022555271121],[-96.679124170728116,40.880189752854172],[-96.677345297374714,40.880153925587784],[-96.677392517504373,40.878803773933548],[-96.675613683441043,40.87876792095409],[-96.673834852584463,40.878732040566852],[-96.672056024937092,40.878696132771992],[-96.672103350110859,40.877345985847811],[-96.670324561757454,40.877310052345408],[-96.668545776617904,40.877274091436966],[-96.666766994694655,40.877238103122608],[-96.666814424895847,40.875887960939714],[-96.666861851878551,40.874537818394316],[-96.666909275643022,40.873187675486399],[-96.665130605168542,40.873151664877447],[-96.665178061786804,40.871801523310623],[-96.665225515184872,40.870451381381223],[-96.667004113518217,40.870487388583058],[-96.668782715069057,40.870523368385612],[-96.67056131983496,40.870559320788701],[-96.672339927813468,40.870595245792217],[-96.672292618694271,40.871945394527927],[-96.674071265953287,40.871981293830061],[-96.674118539002137,40.87063114339599],[-96.674165808843256,40.869280992599727],[-96.675944387171526,40.869316861106647],[-96.675897153398537,40.870667013599899],[-96.677675771000224,40.870702856403788],[-96.677722968704813,40.869352702214847],[-96.679501553440701,40.869388515924186],[-96.679454391804754,40.870738671807516],[-96.681233015809681,40.870774459810946],[-96.681185887044663,40.872124617025442],[-96.682964550319113,40.872160379320313],[-96.683011643012563,40.870810220413937],[-96.684790273410954,40.870845953616346],[-96.684743216789329,40.872196114213288],[-96.686521886452852,40.87223182170424],[-96.688300559307251,40.87226750179304],[-96.688253571641582,40.873617665405575],[-96.690032283759422,40.873653319778825]]],[[[-96.680208594099838,40.849136134236289],[-96.680161480440276,40.850486295549132],[-96.678383400408947,40.850450505554171],[-96.676605323576752,40.850414688178468],[-96.676558134651799,40.851764845741215],[-96.674780024987228,40.851728999288866],[-96.674827249946119,40.850378843422149],[-96.674874471701003,40.849028687193304],[-96.676652509300098,40.849064530253656],[-96.676699691822108,40.847714371966795],[-96.676746871143052,40.846364213317884],[-96.67679404726313,40.845014054306937],[-96.678571979982877,40.845049864904382],[-96.678524839887231,40.846400025609789],[-96.680302811829847,40.846435810524831],[-96.680255704562938,40.847785972561525],[-96.680208594099838,40.849136134236289]]],[[[-96.680632473224975,40.836984666134995],[-96.68058538832463,40.838334830704902],[-96.678807632493644,40.838299055947871],[-96.678854753404039,40.836948893070733],[-96.680632473224975,40.836984666134995]]],[[[-96.680491208940268,40.841035158759091],[-96.678713381081835,40.840999380616324],[-96.678760508386333,40.839649218463066],[-96.680538300229813,40.839684994912936],[-96.680491208940268,40.841035158759091]]],[[[-96.675063326685247,40.843628058656755],[-96.673285436390657,40.843592195005584],[-96.673332678148213,40.842242038663095],[-96.67511053242373,40.842277900617361],[-96.675157734959669,40.840927742215861],[-96.67693555642083,40.840963575101874],[-96.678713381081835,40.840999380616324],[-96.678666250579937,40.842349542407632],[-96.678619116880355,40.843699703836982],[-96.676841220182638,40.843663894933933],[-96.675063326685247,40.843628058656755]]],[[[-96.663282279259874,40.824474359387459],[-96.663234863228624,40.825824510234213],[-96.661457463457225,40.825788477141344],[-96.66150491547414,40.824438327999673],[-96.663282279259874,40.824474359387459]]],[[[-96.661410008221239,40.827138625920462],[-96.66136254976594,40.828488774337004],[-96.661315088091058,40.829838922390955],[-96.659537583567868,40.829802856822539],[-96.657760082266947,40.82976676389432],[-96.655982584190696,40.829730643606489],[-96.655935011311257,40.831080786174056],[-96.654157480467731,40.831044636816195],[-96.65237995285402,40.831008460097706],[-96.652427597722038,40.82965832095249],[-96.654205089341588,40.829694495959153],[-96.654252694985871,40.828344354739265],[-96.654300297400837,40.826994213156517],[-96.656077720268428,40.827030357383002],[-96.657855146362664,40.827066474252582],[-96.6579026735741,40.825716328887651],[-96.659680066904912,40.825752416692445],[-96.659632575681073,40.827102563765116],[-96.661410008221239,40.827138625920462]]],[[[-96.657284568267158,40.843268190338854],[-96.659062429626914,40.843304300349537],[-96.659014896500864,40.84465444270743],[-96.657236999121807,40.844618330988105],[-96.655459104970177,40.844582191894943],[-96.65550671013456,40.843232052955599],[-96.653728855231606,40.843195888199929],[-96.651951003560683,40.843159696071986],[-96.651998677527928,40.841809560193383],[-96.650220865107343,40.841773342407031],[-96.650268571853772,40.840423207879105],[-96.65031627536375,40.839073072988128],[-96.652094015759914,40.839109287347213],[-96.652141680025167,40.837759150379689],[-96.652189341056925,40.836409013049199],[-96.652236998855457,40.835058875355742],[-96.652284653420963,40.833708737299325],[-96.654062253030332,40.83374491744167],[-96.655839855870013,40.833781070220773],[-96.655792273307711,40.835131211699931],[-96.65574468751727,40.836481352816293],[-96.655697098498464,40.837831493569809],[-96.655649506251038,40.8391816339605],[-96.657427256341123,40.839217766214418],[-96.657379696876561,40.840567907952],[-96.65733213418531,40.841918049326821],[-96.657284568267158,40.843268190338854]]],[[[-96.648395309924751,40.843087229699854],[-96.65017315512425,40.843123476571911],[-96.650125441904223,40.844473610373747],[-96.648347560686688,40.844437361786596],[-96.648299808208989,40.845787493510201],[-96.646521894210821,40.845751215833459],[-96.644743983454987,40.845714910782441],[-96.644696155692316,40.847065038708564],[-96.642918212159032,40.847028704564302],[-96.641140271873169,40.846992343044732],[-96.641092368816544,40.848342467167917],[-96.642870345126752,40.848378830407967],[-96.642822474846795,40.849728955888281],[-96.644600490431756,40.849765293470988],[-96.644648324684667,40.848415166271415],[-96.6464263074878,40.848451474758136],[-96.646378509262206,40.849801603675658],[-96.648156531335715,40.849837886502172],[-96.648108765897049,40.851188016773193],[-96.649886827241417,40.851224273936829],[-96.649839094594569,40.852574405560212],[-96.648060997217527,40.852538146681063],[-96.646282903081598,40.852501860421029],[-96.646235095126073,40.853851988248842],[-96.644456968199066,40.853815672889894],[-96.644409120962692,40.855165798636264],[-96.644361270479806,40.856515924019305],[-96.64431341675018,40.857866049039025],[-96.646091651795686,40.857902369552868],[-96.646043830863448,40.859252495927691],[-96.645996006686403,40.860602621939258],[-96.644217699549685,40.86056629798847],[-96.64243939566046,40.860529946649322],[-96.642487291930905,40.859179824076065],[-96.640709027337934,40.859143447069783],[-96.640661095021173,40.860493567921942],[-96.638882797634267,40.860457161806487],[-96.637104503502172,40.860420728303097],[-96.635326212627348,40.860384267411909],[-96.635278168913402,40.861734382729352],[-96.633499845250512,40.861697892724195],[-96.631721524850008,40.861661375330236],[-96.631673405775956,40.863011486829876],[-96.629895052590598,40.862974940318267],[-96.62811670267277,40.862938366416863],[-96.628068508229603,40.864288474093243],[-96.626290125530105,40.864251871070557],[-96.626241891762646,40.865601976651234],[-96.62446347628196,40.865565344504724],[-96.622685064076649,40.865528684966243],[-96.622733369951504,40.864178582852887],[-96.62095499707732,40.864141897658214],[-96.621003335725518,40.862791796916198],[-96.62105167109398,40.861441695809923],[-96.619273373598574,40.861404986698474],[-96.617495079385094,40.861368250199405],[-96.617543483565314,40.860018152203537],[-96.61576522868144,40.859981390056255],[-96.615813665620351,40.858631293435224],[-96.617591884461433,40.858668053843303],[-96.617640282073708,40.857317955118702],[-96.617688676402352,40.855967856029721],[-96.619466826448502,40.856004585577288],[-96.621244979775568,40.8560412877424],[-96.621293298749166,40.854691184814946],[-96.623071419318464,40.854727857862358],[-96.623119698980048,40.853377752835634],[-96.623167975366101,40.852027647444785],[-96.624946027145512,40.852064289643295],[-96.626724082197754,40.852100904462802],[-96.626772283249949,40.850750795241872],[-96.628550305542916,40.850787380951203],[-96.630328331103556,40.850823939282513],[-96.63210635992948,40.850860470235681],[-96.632154449629084,40.84951035546176],[-96.630376456830902,40.849473826236974],[-96.630424579293219,40.848123712827601],[-96.632202536066103,40.848160240324084],[-96.632250619240821,40.846810124822632],[-96.63402854325291,40.846846623216486],[-96.634076587144861,40.845496505624396],[-96.635854478395657,40.845532974918093],[-96.635902483009758,40.844182855236816],[-96.637680341498765,40.844219295432886],[-96.63772830683989,40.842869173663857],[-96.639506132566581,40.8429055847648],[-96.641283961544843,40.842941968494628],[-96.641331851603496,40.841591842917801],[-96.643109647816274,40.841628197556162],[-96.643061793772233,40.842978324853192],[-96.644839629246306,40.843014653840342],[-96.646617467964631,40.843050955455951],[-96.648395309924751,40.843087229699854]],[[-96.639314395756443,40.848306076551467],[-96.639266453423133,40.849656198589408],[-96.641044462509782,40.84969259092771],[-96.641092368816544,40.848342467167917],[-96.639314395756443,40.848306076551467]],[[-96.640948640144885,40.852392837356973],[-96.639170558997805,40.852356441574806],[-96.639122606905303,40.853706562522213],[-96.640900724086251,40.853742960026437],[-96.640948640144885,40.852392837356973]]]]}},
{"type":"Feature","properties":{"band":60},"geometry":{"type":"MultiPolygon","coordinates":[[[[-96.705186672432632,40.795591266211616],[-96.705140153611154,40.796941463857635],[-96.706916838657762,40.796976803549065],[-96.706870352621465,40.79832700250693],[-96.706823863432106,40.799677201104046],[-96.706777371089458,40.80102739934037],[-96.706730875593266,40.802377597215965],[-96.708507707569936,40.802412916262071],[-96.710284542697963,40.802448207971707],[-96.710238115949025,40.803798408828477],[-96.710191686050919,40.805148609324633],[-96.711968596232055,40.805183877035802],[-96.713745509560169,40.805219117407646],[-96.713699148424411,40.806569320880193],[-96.711922199140318,40.806534078840471],[-96.711875798901346,40.807884280284554],[-96.710098816806266,40.807849009234978],[-96.710145253003418,40.806498809460123],[-96.708368310016169,40.806463512739299],[-96.708414779019179,40.805113314274266],[-96.706637875139279,40.805077991884851],[-96.706684376943286,40.803727794730797],[-96.704907512170251,40.803692446675463],[-96.704860974413648,40.805042642156543],[-96.703084076844718,40.805007265089444],[-96.703037499976645,40.806357458535324],[-96.701260569612316,40.806322052453972],[-96.701213953627885,40.807672243863237],[-96.699436990468641,40.80763680876511],[-96.699390335362992,40.808986998136319],[-96.69761333940933,40.80895153401891],[-96.697566645177588,40.810301721350633],[-96.695789616429991,40.810266228211425],[-96.695742883067297,40.811616413502243],[-96.695696146534516,40.812966598431849],[-96.693919049027713,40.812931074587198],[-96.693872273356419,40.814281257474377],[-96.692095143054487,40.814245704601561],[-96.692048328239807,40.815595885444885],[-96.690271165143216,40.815560303541375],[-96.68849400522474,40.815524694289891],[-96.688540891979386,40.814174516815577],[-96.686763771211105,40.814138881902686],[-96.686716848486824,40.815489057690563],[-96.684939694931913,40.815453393743546],[-96.684986653625586,40.8141032196434],[-96.68320953922526,40.81406753003786],[-96.681432428012542,40.814031813086189],[-96.681479455454166,40.812681642003632],[-96.683256530700419,40.812717357265051],[-96.683303518988211,40.81136718413056],[-96.685080561457582,40.811402870358251],[-96.685127510596416,40.810052695173248],[-96.686904520288408,40.810088352369732],[-96.688681533162409,40.810123982223701],[-96.68872840719726,40.808773803303446],[-96.688775278052745,40.807423624021737],[-96.690552222188529,40.807459223163335],[-96.690599053909651,40.806109041835406],[-96.688822145729148,40.806073444378555],[-96.688869010226682,40.804723264373919],[-96.690645882454376,40.804758860146102],[-96.690692707822905,40.803408678095401],[-96.69073953001552,40.802058495683326],[-96.68896272968621,40.80202290328031],[-96.687185932535002,40.801987283542367],[-96.687232823442741,40.800637104139163],[-96.689009584648659,40.800672722191337],[-96.689056436433233,40.799322540740945],[-96.690833164873922,40.799358129775072],[-96.69087997754022,40.798007946278908],[-96.690926787031557,40.796657762421383],[-96.690973593348176,40.795307578202511],[-96.692750217148642,40.79534313485523],[-96.692703446768064,40.796693320757008],[-96.69448010967686,40.796728851762609],[-96.694526844121143,40.795378664179204],[-96.69457357539585,40.794028476234594],[-96.696350169603846,40.794063976549424],[-96.696396861777529,40.792713786563404],[-96.694620303501182,40.79267828792878],[-96.694667028437408,40.791328099261776],[-96.69471375020477,40.789977910233581],[-96.694760468803509,40.788627720844204],[-96.694807184233866,40.787277531093658],[-96.696583598807877,40.787313023008167],[-96.698360016547582,40.787348487601413],[-96.698313372961337,40.788698680710532],[-96.696536919299447,40.788663214438643],[-96.696490236625095,40.79001340550802],[-96.698266726211585,40.790048873458609],[-96.700043218961866,40.790084314085185],[-96.700089829786748,40.788734119659708],[-96.70186628977325,40.788769531286029],[-96.701819714873452,40.790119727387641],[-96.703596213943939,40.79015511336582],[-96.703549671813022,40.79150531078141],[-96.703503126525376,40.792855507836144],[-96.70345657808079,40.794205704530022],[-96.705233188099086,40.794241068204798],[-96.705186672432632,40.795591266211616]]],[[[-96.713652784143875,40.807919523992219],[-96.713606416718321,40.809269726743736],[-96.71182939551494,40.809234481368051],[-96.711875798901346,40.807884280284554],[-96.713652784143875,40.807919523992219]]],[[[-96.715290768709352,40.812005352531138],[-96.715244427815691,40.813355555867965],[-96.713467295569131,40.813320332835069],[-96.713513672431191,40.811970131165154],[-96.715290768709352,40.812005352531138]]],[[[-96.715105386272469,40.817406163715553],[-96.715059032803183,40.818756365610419],[-96.713281756658631,40.818721135909158],[-96.713328146106079,40.817370935681481],[-96.715105386272469,40.817406163715553]]],[[[-96.700280969583218,40.834675996232413],[-96.700234287144426,40.836026180059605],[-96.698456568331281,40.835990709729117],[-96.698503286777964,40.834640527580319],[-96.700280969583218,40.834675996232413]]],[[[-96.69518183537788,40.827818608815846],[-96.695135060784949,40.82916878941046],[-96.693357531499359,40.829133245386892],[-96.693404342087277,40.827783066474225],[-96.69518183537788,40.827818608815846]]],[[[-96.679655319989905,40.813996068788548],[-96.681432428012542,40.814031813086189],[-96.681385397380851,40.815381983806986],[-96.681338363558851,40.816732154165997],[-96.679561183596491,40.816696406485057],[-96.679608253389574,40.815346237817728],[-96.679655319989905,40.813996068788548]]],[[[-96.674040920052278,40.821989650069973],[-96.675818234334088,40.822025486578653],[-96.67577107660783,40.823375650048803],[-96.673993726343497,40.823339811844221],[-96.673946529433195,40.824689973256412],[-96.672169146385656,40.824654106000111],[-96.672121910286435,40.826004265352893],[-96.670344494456216,40.825968369042393],[-96.670297219163203,40.827318526334317],[-96.668519770550802,40.827282600967067],[-96.666742325147951,40.827246648241918],[-96.666694974664992,40.828596801770239],[-96.668472456059121,40.828632756196733],[-96.66842513835762,40.829982911064072],[-96.670202658955517,40.830018839831489],[-96.671980182761061,40.830054741238257],[-96.673757709771792,40.830090615284249],[-96.675535239985294,40.830126461969328],[-96.675488063060797,40.831476623267356],[-96.673710496850163,40.831440774885962],[-96.673663280725521,40.832790934125562],[-96.675440882935732,40.832826784203306],[-96.67539369960987,40.834176944777234],[-96.67717134102314,40.834212769186486],[-96.677124190500919,40.83556293109357],[-96.675346513082928,40.835527104989097],[-96.675299323354693,40.836877264838904],[-96.677077036779821,40.836913092638646],[-96.677029879859589,40.838263253821736],[-96.675252130424894,40.838227424326632],[-96.675204934293305,40.839577583452289],[-96.673427152048632,40.83954172489166],[-96.673379916700782,40.840891881958463],[-96.67160210164667,40.840855994329779],[-96.669824289799692,40.840820079329973],[-96.669776979214561,40.842170232637059],[-96.667999134561313,40.842134288565546],[-96.666221293120344,40.842098317121909],[-96.666173907288936,40.843448466663794],[-96.664396033044852,40.843412466144791],[-96.66434860797817,40.844762613620787],[-96.662570700931482,40.844726584023896],[-96.662523236624651,40.846076729432582],[-96.662475769097469,40.847426874478657],[-96.660697793223989,40.847390814095213],[-96.658919820573558,40.84735472633502],[-96.658967360149816,40.846004584702591],[-96.657189426749042,40.845968471274581],[-96.657236999121807,40.844618330988105],[-96.659014896500864,40.84465444270743],[-96.659062429626914,40.843304300349537],[-96.657284568267158,40.843268190338854],[-96.65733213418531,40.841918049326821],[-96.657379696876561,40.840567907952],[-96.657427256341123,40.839217766214418],[-96.655649506251038,40.8391816339605],[-96.655697098498464,40.837831493569809],[-96.65574468751727,40.836481352816293],[-96.655792273307711,40.835131211699931],[-96.655839855870013,40.833781070220773],[-96.654062253030332,40.83374491744167],[-96.652284653420963,40.833708737299325],[-96.652236998855457,40.835058875355742],[-96.652189341056925,40.836409013049199],[-96.652141680025167,40.837759150379689],[-96.652094015759914,40.839109287347213],[-96.65031627536375,40.839073072988128],[-96.650268571853772,40.840423207879105],[-96.650220865107343,40.841773342407031],[-96.65017315512425,40.843123476571911],[-96.648395309924751,40.843087229699854],[-96.646617467964631,40.843050955455951],[-96.644839629246306,40.843014653840342],[-96.643061793772233,40.842978324853192],[-96.643109647816274,40.841628197556162],[-96.641331851603496,40.841591842917801],[-96.641283961544843,40.842941968494628],[-96.639506132566581,40.8429055847648],[-96.63772830683989,40.842869173663857],[-96.637680341498765,40.844219295432886],[-96.635902483009758,40.844182855236816],[-96.635950484367171,40.842832735191926],[-96.635998482468139,40.84148261478343],[-96.636046477312931,40.840132494011343],[-96.637824227760362,40.84016892903518],[-96.637872183340221,40.83881880617556],[-96.639649901031916,40.838855212108363],[-96.639697817351745,40.837505087162654],[-96.641475502287207,40.837541464006947],[-96.643253190470787,40.83757781348514],[-96.643301031530569,40.836227684734851],[-96.645078686954733,40.836264005128186],[-96.64685634562187,40.836300298156438],[-96.646904111430644,40.834950165607012],[-96.646951873999114,40.833600032694441],[-96.646999633327511,40.832249899418713],[-96.645222082661817,40.832213611542066],[-96.64526987474602,40.830863479620255],[-96.647047389416102,40.830899765779861],[-96.647095142265144,40.829549631777844],[-96.647142891874864,40.828199497412712],[-96.645365449188674,40.828163214687024],[-96.645413231547636,40.82681308167561],[-96.643635828090993,40.826776773310748],[-96.643683643194308,40.825426641654211],[-96.641906278966729,40.825390307652818],[-96.641954126809537,40.824040177352344],[-96.640176801810497,40.824003817717077],[-96.64012891798501,40.825353946296964],[-96.638351560251593,40.825317557586793],[-96.638399480059519,40.823967430728793],[-96.636622161559018,40.82393101638764],[-96.634844846311452,40.823894574693746],[-96.634796854539431,40.825244698104093],[-96.633019506565574,40.825208227331856],[-96.631242161849741,40.825171729205877],[-96.631290225584863,40.823821609248355],[-96.629512920110699,40.823785085497143],[-96.629561016564324,40.822434966904147],[-96.629609109755521,40.82108484794739],[-96.627831879498572,40.821048300303097],[-96.627880005401224,40.819698182711981],[-96.629657199684544,40.819734728626841],[-96.629705286351665,40.818384608942516],[-96.629753369757111,40.8170344888944],[-96.631530495361929,40.817071004004916],[-96.631482447925478,40.818421125781022],[-96.63143439722981,40.819771247193422],[-96.633211598034535,40.81980773841159],[-96.633259612758536,40.818457615272415],[-96.633307624225736,40.817107491769598],[-96.633355632436377,40.815757367903153],[-96.631578539539404,40.815720881865118],[-96.629801449901137,40.815684368482536],[-96.628024363524048,40.815647827755555],[-96.626247280410553,40.815611259684317],[-96.624470200563096,40.815574664268986],[-96.624518385336827,40.814224548684713],[-96.622741344720964,40.814187927658445],[-96.62278956218718,40.812837813443153],[-96.624566566842361,40.81287443273645],[-96.62461474507991,40.81152431642424],[-96.622837776382994,40.81148769886385],[-96.621060810956223,40.811451053963488],[-96.621109057837444,40.810100940754268],[-96.619332131638572,40.810064270249541],[-96.619380411200368,40.808714158411583],[-96.619428687487641,40.807364046209486],[-96.619476960500648,40.80601393364325],[-96.621253778848171,40.806050598942178],[-96.623030600467274,40.806087236906478],[-96.622982399350548,40.807437352941825],[-96.622934194964415,40.808787468613176],[-96.624711091752147,40.808824082708],[-96.624662920049758,40.810174199748097],[-96.626439856058326,40.810210788236887],[-96.626487991807068,40.808860669465332],[-96.628264895126776,40.808897228885023],[-96.628216795331923,40.810247349386749],[-96.629993737868105,40.810283883197513],[-96.629945670767228,40.811634005064391],[-96.631722652520409,40.811670513263593],[-96.633499637531557,40.811706994122126],[-96.635276625798269,40.811743447639849],[-96.635324585027917,40.810393320593889],[-96.637101540590152,40.810429745046875],[-96.638878499402807,40.81046614216006],[-96.638830612088555,40.811816272652294],[-96.640607610107295,40.811852644146711],[-96.642384611371838,40.811888988299749],[-96.642336792730632,40.81323912186982],[-96.642288970845783,40.814589255076626],[-96.644066047278159,40.814625575325557],[-96.645843126951974,40.814661868230218],[-96.645795373755263,40.8160120045101],[-96.64574761731933,40.817362140426837],[-96.64752477216733,40.817398409419631],[-96.647572492634453,40.816048271786585],[-96.649349614750477,40.816084511717236],[-96.651126740100864,40.816120724301896],[-96.652903868683211,40.816156909540439],[-96.652951478012895,40.814806766403379],[-96.654728573857383,40.814842922584575],[-96.65468100049506,40.816193067432692],[-96.656458135533995,40.816229197978529],[-96.656410594914675,40.817579344173701],[-96.658187769148569,40.817615449081522],[-96.658140261277069,40.818965596622576],[-96.658092750182888,40.820315743800961],[-96.659869999587642,40.8203518247755],[-96.659822521248358,40.821701973298666],[-96.659775039688299,40.823052121459213],[-96.661552364272239,40.823088178495425],[-96.663329692074726,40.823124208178207],[-96.665107023093384,40.823160210507375],[-96.666884357325742,40.823196185482793],[-96.668661694769355,40.823232133104334],[-96.668708996424215,40.82188197642553],[-96.670486301094897,40.821917894993277],[-96.670533563561818,40.820567736252485],[-96.672310835459058,40.820603625768925],[-96.67235805874293,40.819253464967588],[-96.674135297866229,40.819289325435257],[-96.674088110559765,40.820639487933654],[-96.674040920052278,40.821989650069973]],[[-96.657617461937562,40.833817195636527],[-96.657665005272463,40.832467052085192],[-96.655887435204448,40.832430928378812],[-96.655839855870013,40.833781070220773],[-96.657617461937562,40.833817195636527]],[[-96.657569915377223,40.835167338825123],[-96.65934756067243,40.835203438585495],[-96.659395071230549,40.833853293688755],[-96.657617461937562,40.833817195636527],[-96.657569915377223,40.835167338825123]],[[-96.659300046891076,40.836553583119567],[-96.661077731414451,40.836589657221914],[-96.661125209190899,40.835239510980941],[-96.65934756067243,40.835203438585495],[-96.659300046891076,40.836553583119567]],[[-96.647190638245519,40.826849362684449],[-96.647238381377377,40.825499227593077],[-96.645461010665343,40.825462948301016],[-96.645413231547636,40.82681308167561],[-96.647190638245519,40.826849362684449]],[[-96.66136254976594,40.828488774337004],[-96.661410008221239,40.827138625920462],[-96.659632575681073,40.827102563765116],[-96.659680066904912,40.825752416692445],[-96.6579026735741,40.825716328887651],[-96.657855146362664,40.827066474252582],[-96.656077720268428,40.827030357383002],[-96.654300297400837,40.826994213156517],[-96.654252694985871,40.828344354739265],[-96.654205089341588,40.829694495959153],[-96.652427597722038,40.82965832095249],[-96.65237995285402,40.831008460097706],[-96.654157480467731,40.831044636816195],[-96.655935011311257,40.831080786174056],[-96.655982584190696,40.829730643606489],[-96.657760082266947,40.82976676389432],[-96.659537583567868,40.829802856822539],[-96.661315088091058,40.829838922390955],[-96.66136254976594,40.828488774337004]],[[-96.663234863228624,40.825824510234213],[-96.663282279259874,40.824474359387459],[-96.66150491547414,40.824438327999673],[-96.661457463457225,40.825788477141344],[-96.663234863228624,40.825824510234213]]],[[[-96.675723915682497,40.824725813156952],[-96.675676751557816,40.82607597590308],[-96.673899329321102,40.826040134306496],[-96.673946529433195,40.824689973256412],[-96.675723915682497,40.824725813156952]]],[[[-96.658919820573558,40.84735472633502],[-96.658872277771792,40.848704867604724],[-96.657094272320236,40.848668750759138],[-96.657141851148609,40.847318611198254],[-96.658919820573558,40.84735472633502]]]]}}
]
}
