{
"type": "FeatureCollection",
"name": "n27th-superior__wk_0600",
"crs": { "type": "name", "properties": { "name": "urn:ogc:def:crs:OGC:1.3:CRS84" } },
"features": [
{"type":"Feature","properties":{"band":15},"geometry":{"type":"MultiPolygon","coordinates":[[[[-96.683576506154353,40.854608285312629],[-96.683529451790804,40.855958448561168],[-96.68530768556036,40.855994163171687],[-96.685260664048968,40.85734432774823],[-96.687038937054098,40.857380016660791],[-96.686991948399736,40.858730182564202],[-96.686944956556985,40.860080348105896],[-96.686897961525545,40.86143051328591],[-96.68511958037017,40.861394819307328],[-96.685072546094858,40.862744982436837],[-96.683294132076099,40.862709259376466],[-96.681515721251372,40.862673508923294],[-96.681468611670383,40.864023668309393],[-96.681421498892675,40.865373827333556],[-96.679643019148642,40.865338046102117],[-96.677864542604013,40.865302237475547],[-96.676086069261231,40.865266401454001],[-96.676133290215546,40.863916247512194],[-96.677911727499691,40.863952081838328],[-96.677958909193791,40.862601925839051],[-96.67618050796581,40.862566093208265],[-96.67622772251228,40.86121593854223],[-96.676274933855197,40.859865783514067],[-96.674496607935566,40.859829926884125],[-96.672718285221691,40.85979404286465],[-96.672765565458249,40.858443890868571],[-96.674543852123776,40.858479773190311],[-96.674591093106486,40.857129619134334],[-96.674638330883937,40.855779464716178],[-96.676416548665046,40.855815316257015],[-96.676463747196209,40.854465159780496],[-96.676510942525042,40.853115002941898],[-96.678289091428098,40.853150823707132],[-96.680067243530814,40.853186617089058],[-96.681845398830703,40.853222383087498],[-96.681798311619886,40.854572545006825],[-96.683576506154353,40.854608285312629]],[[-96.681751221214057,40.8559227065643],[-96.681704127613003,40.857272867759882],[-96.68348239423446,40.85730861144787],[-96.683529451790804,40.855958448561168],[-96.681751221214057,40.8559227065643]]],[[[-96.683152901920806,40.866759741523587],[-96.681374382917994,40.866723985995812],[-96.681421498892675,40.865373827333556],[-96.683199981833681,40.865409581169743],[-96.683152901920806,40.866759741523587]]],[[[-96.674307599122756,40.865230538037615],[-96.672529132191016,40.865194647226538],[-96.672576425261838,40.863844496679448],[-96.674354856135437,40.863880385792534],[-96.674307599122756,40.865230538037615]]]]}},
{"type":"Feature","properties":{"band":30},"geometry":{"type":"MultiPolygon","coordinates":[[[[-96.687508648288855,40.843878337735177],[-96.685730735625981,40.843842665704948],[-96.685683742819009,40.845192833536984],[-96.683905797321287,40.845157132442694],[-96.683858765300485,40.846507298223742],[-96.685636746823647,40.846543001007333],[-96.687414731535469,40.846578676413486],[-96.687367768379588,40.847928845210198],[-96.687320802037263,40.849279013645244],[-96.685542745266773,40.849243334862905],[-96.685495739704734,40.850593501248113],[-96.687273832508239,40.850629181718659],[-96.687226859792275,40.85197934943043],[-96.687179883889115,40.853329516780526],[-96.687132904798545,40.85467968376895],[-96.688911108903369,40.854715341919167],[-96.688958051953392,40.853365173243638],[-96.690736223202634,40.853400802322554],[-96.690689316193442,40.854750972683902],[-96.690642406001444,40.85610114268372],[-96.692420652517811,40.856136747747421],[-96.692467526666292,40.854786576063006],[-96.694245740319516,40.854822152056364],[-96.694198902214765,40.856172325424062],[-96.695977155089892,40.856207875713508],[-96.696023957150643,40.8548577006638],[-96.696070756035937,40.853507525252766],[-96.697848940000739,40.853543044793525],[-96.697802177157257,40.854893221885199],[-96.699580400336899,40.854928715720405],[-96.699627127138356,40.853578536949378],[-96.699673850769443,40.852228357817168],[-96.699720571230444,40.850878178323761],[-96.699767288521585,40.849527998469171],[-96.699814002643109,40.848177818253404],[-96.699860713595257,40.846827637676483],[-96.699907421378285,40.845477456738379],[-96.698129450441684,40.84544197465717],[-96.698176191080776,40.844091795036796],[-96.698222928548802,40.842741615055196],[-96.700000827437933,40.842777093778714],[-96.699954125992434,40.844127275439121],[-96.701732064072729,40.844162728465463],[-96.701685395483779,40.845512911442299],[-96.701638723728408,40.846863094058058],[-96.70341673702822,40.846898523060908],[-96.703370098136475,40.848248706991988],[-96.703323456080241,40.849598890562021],[-96.703276810859265,40.850949073771012],[-96.703230162473318,40.852299256618956],[-96.701452005037567,40.852263820910004],[-96.701405317446287,40.85361400172021],[-96.703183510922145,40.853649439105851],[-96.703136856205504,40.85499962123167],[-96.704915088889607,40.855035032907473],[-96.704868467052478,40.856385216347761],[-96.703090198323167,40.856349802996448],[-96.703043537274851,40.857699984400149],[-96.701265235664096,40.857664541984029],[-96.701218535399747,40.859014721349688],[-96.699440200908015,40.858979249866252],[-96.697661869587606,40.858943750992616],[-96.695883541440978,40.858908224728893],[-96.695836729852331,40.860258398694555],[-96.694058368830582,40.860222843358706],[-96.69228001098773,40.860187260631776],[-96.692233124115376,40.86153743087025],[-96.6904547334006,40.86150181906752],[-96.688676345869837,40.861466179872693],[-96.68872330484848,40.860116013005232],[-96.688770260640922,40.858765845776148],[-96.686991948399736,40.858730182564202],[-96.687038937054098,40.857380016660791],[-96.685260664048968,40.85734432774823],[-96.68530768556036,40.855994163171687],[-96.683529451790804,40.855958448561168],[-96.683576506154353,40.854608285312629],[-96.681798311619886,40.854572545006825],[-96.681845398830703,40.853222383087498],[-96.680067243530814,40.853186617089058],[-96.678289091428098,40.853150823707132],[-96.676510942525042,40.853115002941898],[-96.676558134651799,40.851764845741215],[-96.678336247518217,40.851800664811655],[-96.678383400408947,40.850450505554171],[-96.678430550100529,40.849100345934694],[-96.680208594099838,40.849136134236289],[-96.680255704562938,40.847785972561525],[-96.678477696593205,40.847750185953231],[-96.678524839887231,40.846400025609789],[-96.678571979982877,40.845049864904382],[-96.678619116880355,40.843699703836982],[-96.678666250579937,40.842349542407632],[-96.676888389901777,40.842313735198921],[-96.67693555642083,40.840963575101874],[-96.678713381081835,40.840999380616324],[-96.678760508386333,40.839649218463066],[-96.680538300229813,40.839684994912936],[-96.68058538832463,40.838334830704902],[-96.678807632493644,40.838299055947871],[-96.678854753404039,40.836948893070733],[-96.680632473224975,40.836984666134995],[-96.680679554931046,40.835634501203224],[-96.682457241938337,40.835670245208135],[-96.684234932137173,40.835705961846244],[-96.684187922447066,40.837056130159517],[-96.685965651843404,40.8370918211195],[-96.685918674974744,40.838441990759939],[-96.687696443569038,40.838477656039117],[-96.6876494995267,40.839827827005543],[-96.689427307319477,40.83986346660128],[-96.689380396108334,40.84121363889254],[-96.689333481714414,40.842563810822256],[-96.689286564137461,40.843913982390411],[-96.687508648288855,40.843878337735177]],[[-96.685871694918916,40.839792160038698],[-96.685824711675679,40.841142328955797],[-96.687602552299396,40.841177997610373],[-96.6876494995267,40.839827827005543],[-96.685871694918916,40.839792160038698]]],[[[-96.692842405382038,40.843985189575349],[-96.694620330773134,40.844020752104768],[-96.694573518084866,40.845370928363522],[-96.692795556669523,40.845335364151346],[-96.692842405382038,40.843985189575349]]],[[[-96.703183510922145,40.853649439105851],[-96.703230162473318,40.852299256618956],[-96.70500832307431,40.852334664943896],[-96.70496170756347,40.85368484910618],[-96.703183510922145,40.853649439105851]]],[[[-96.688488478088118,40.866866843726129],[-96.686709949508327,40.866831170388892],[-96.686662938529906,40.868181333760333],[-96.68488437707525,40.868145631337029],[-96.684837326839514,40.869495792657595],[-96.684790273410954,40.870845953616346],[-96.684743216789329,40.872196114213288],[-96.686521886452852,40.87223182170424],[-96.686474862712416,40.873581983628732],[-96.688253571641582,40.873617665405575],[-96.688206580787238,40.874967828656423],[-96.688159586743964,40.876317991545577],[-96.686380805657961,40.876282306392412],[-96.68460202776356,40.876246593833194],[-96.682823253063233,40.876210853868081],[-96.682776147585272,40.877561011326868],[-96.682729038910551,40.878911168423748],[-96.682681927038857,40.880261325158727],[-96.68090304728365,40.88022555271121],[-96.679124170728116,40.880189752854172],[-96.677345297374714,40.880153925587784],[-96.677392517504373,40.878803773933548],[-96.675613683441043,40.87876792095409],[-96.673834852584463,40.878732040566852],[-96.672056024937092,40.878696132771992],[-96.672103350110859,40.877345985847811],[-96.670324561757454,40.877310052345408],[-96.668545776617904,40.877274091436966],[-96.66859317073974,40.875923947551584],[-96.666814424895847,40.875887960939714],[-96.666861851878551,40.874537818394316],[-96.666909275643022,40.873187675486399],[-96.665130605168542,40.873151664877447],[-96.665178061786804,40.871801523310623],[-96.665225515184872,40.870451381381223],[-96.667004113518217,40.870487388583058],[-96.667051527629454,40.869137244587677],[-96.66527296536303,40.869101239089282],[-96.663494406316275,40.869065206193042],[-96.663541889338944,40.867715065243203],[-96.663589369139714,40.86636492393076],[-96.66536785606047,40.866400953417724],[-96.665415296580264,40.86505081003812],[-96.665462733881142,40.863700666295991],[-96.667241151904364,40.863736664981239],[-96.667288549931826,40.862386519173469],[-96.667335944743272,40.861036373003238],[-96.667383336338958,40.859686226470558],[-96.665605026472505,40.859650232894438],[-96.665652450900055,40.858300087702226],[-96.663874180298663,40.858264068441507],[-96.662095912917422,40.858228021793416],[-96.662048416395876,40.859578163575932],[-96.662000916651493,40.860928304995802],[-96.660222580397146,40.860892227546849],[-96.660270116190603,40.859542087833837],[-96.658491819210596,40.859505984703368],[-96.656713525458315,40.859469854184667],[-96.656665917567466,40.860819990480081],[-96.656618306446219,40.862170126412636],[-96.65483994382501,40.862133965084297],[-96.654792293419888,40.863484098943104],[-96.653013897978823,40.863447908512065],[-96.653061584436912,40.862097776365431],[-96.651283228284342,40.862061560256173],[-96.651330947557142,40.860711429459933],[-96.649552630692568,40.86067518767512],[-96.649600382775219,40.859325058230446],[-96.647822105198145,40.859288790772744],[-96.646043830863448,40.859252495927691],[-96.646091651795686,40.857902369552868],[-96.64431341675018,40.857866049039025],[-96.644361270479806,40.856515924019305],[-96.646139469483373,40.856552242814779],[-96.64618728392675,40.855202115713432],[-96.646235095126073,40.853851988248842],[-96.648013225296879,40.853888276225753],[-96.648060997217527,40.852538146681063],[-96.649839094594569,40.852574405560212],[-96.649886827241417,40.851224273936829],[-96.648108765897049,40.851188016773193],[-96.648156531335715,40.849837886502172],[-96.646378509262206,40.849801603675658],[-96.6464263074878,40.848451474758136],[-96.644648324684667,40.848415166271415],[-96.644600490431756,40.849765293470988],[-96.642822474846795,40.849728955888281],[-96.642870345126752,40.848378830407967],[-96.641092368816544,40.848342467167917],[-96.641140271873169,40.846992343044732],[-96.642918212159032,40.847028704564302],[-96.644696155692316,40.847065038708564],[-96.644743983454987,40.845714910782441],[-96.646521894210821,40.845751215833459],[-96.648299808208989,40.845787493510201],[-96.648347560686688,40.844437361786596],[-96.650125441904223,40.844473610373747],[-96.65017315512425,40.843123476571911],[-96.650220865107343,40.841773342407031],[-96.651998677527928,40.841809560193383],[-96.651951003560683,40.843159696071986],[-96.653728855231606,40.843195888199929],[-96.65550671013456,40.843232052955599],[-96.655459104970177,40.844582191894943],[-96.657236999121807,40.844618330988105],[-96.657189426749042,40.845968471274581],[-96.658967360149816,40.846004584702591],[-96.658919820573558,40.84735472633502],[-96.657141851148609,40.847318611198254],[-96.657094272320236,40.848668750759138],[-96.658872277771792,40.848704867604724],[-96.658824731744318,40.85005500851171],[-96.657046690263698,40.850018889957212],[-96.656999104978752,40.851369028792476],[-96.655221030695316,40.851332881148693],[-96.655173406148023,40.852683017910806],[-96.656951516465128,40.852719167264922],[-96.658729630011166,40.852755289237422],[-96.658777182490851,40.851405149055935],[-96.660555263229185,40.851441241938929],[-96.660507746783665,40.852791383828155],[-96.662285866780209,40.852827451036987],[-96.662333347191307,40.851477307441321],[-96.662380824381046,40.85012716348303],[-96.66415887553228,40.850163199899576],[-96.66411143437476,40.851513345562957],[-96.665889524777143,40.851549356303686],[-96.665842116435655,40.852899503308365],[-96.665794704877442,40.85424964995056],[-96.667572870569074,40.854285636715453],[-96.669351039475202,40.854321596096575],[-96.671129211593438,40.854357528093786],[-96.67290738692131,40.854393432706928],[-96.672954654327597,40.853043279261961],[-96.67473279682406,40.853079154793448],[-96.676510942525042,40.853115002941898],[-96.676463747196209,40.854465159780496],[-96.676416548665046,40.855815316257015],[-96.674638330883937,40.855779464716178],[-96.674591093106486,40.857129619134334],[-96.674543852123776,40.858479773190311],[-96.672765565458249,40.858443890868571],[-96.672718285221691,40.85979404286465],[-96.674496607935566,40.859829926884125],[-96.676274933855197,40.859865783514067],[-96.67622772251228,40.86121593854223],[-96.67618050796581,40.862566093208265],[-96.677958909193791,40.862601925839051],[-96.677911727499691,40.863952081838328],[-96.676133290215546,40.863916247512194],[-96.676086069261231,40.865266401454001],[-96.677864542604013,40.865302237475547],[-96.679643019148642,40.865338046102117],[-96.681421498892675,40.865373827333556],[-96.681468611670383,40.864023668309393],[-96.681515721251372,40.862673508923294],[-96.683294132076099,40.862709259376466],[-96.685072546094858,40.862744982436837],[-96.68511958037017,40.861394819307328],[-96.686897961525545,40.86143051328591],[-96.686850963305204,40.86278067810423],[-96.688629383704708,40.862816346378523],[-96.688582418352894,40.864166512522708],[-96.688535449814111,40.865516678305241],[-96.690313945518568,40.865552322558941],[-96.69026700985539,40.866902489666252],[-96.688488478088118,40.866866843726129]],[[-96.682964550319113,40.872160379320313],[-96.682917454429898,40.873510537864796],[-96.68287035534469,40.874860696047385],[-96.684649093965874,40.874896434321727],[-96.684696156974383,40.873546274448422],[-96.684743216789329,40.872196114213288],[-96.682964550319113,40.872160379320313]],[[-96.681374382917994,40.866723985995812],[-96.683152901920806,40.866759741523587],[-96.683199981833681,40.865409581169743],[-96.681421498892675,40.865373827333556],[-96.681374382917994,40.866723985995812]],[[-96.679501553440701,40.869388515924186],[-96.677722968704813,40.869352702214847],[-96.677675771000224,40.870702856403788],[-96.679454391804754,40.870738671807516],[-96.679501553440701,40.869388515924186]],[[-96.674307599122756,40.865230538037615],[-96.674354856135437,40.863880385792534],[-96.672576425261838,40.863844496679448],[-96.672529132191016,40.865194647226538],[-96.674307599122756,40.865230538037615]]],[[[-96.68269242256099,40.828919406665513],[-96.684469932755775,40.828955114854089],[-96.684422939008812,40.830305284975921],[-96.684375942073714,40.831655454736072],[-96.684328941950241,40.833005624134508],[-96.682551323760336,40.832969910876415],[-96.680773708761507,40.832934170254106],[-96.68082078088635,40.831584004236788],[-96.680867849817943,40.830233837857605],[-96.679090310010793,40.830198073256149],[-96.679137411744819,40.828847908207507],[-96.680914915556528,40.828883671116607],[-96.680961978102346,40.827533504013772],[-96.681009037455638,40.826183336549128],[-96.681056093616661,40.824833168722641],[-96.681103146585656,40.82348300053436],[-96.682880509631744,40.823518729319687],[-96.682833492648683,40.824868899198776],[-96.684610894870303,40.824904602318433],[-96.684563910686279,40.826254773525335],[-96.682786472476039,40.826219068716107],[-96.682739449113555,40.827569237871678],[-96.68269242256099,40.828919406665513]]],[[[-96.683529451790804,40.855958448561168],[-96.68348239423446,40.85730861144787],[-96.681704127613003,40.857272867759882],[-96.681751221214057,40.8559227065643],[-96.683529451790804,40.855958448561168]]],[[[-96.641092368816544,40.848342467167917],[-96.641044462509782,40.84969259092771],[-96.639266453423133,40.849656198589408],[-96.639314395756443,40.848306076551467],[-96.641092368816544,40.848342467167917]]],[[[-96.639170558997805,40.852356441574806],[-96.640948640144885,40.852392837356973],[-96.640900724086251,40.853742960026437],[-96.639122606905303,40.853706562522213],[-96.639170558997805,40.852356441574806]]]]}},
{"type":"Feature","properties":{"band":45},"geometry":{"type":"MultiPolygon","coordinates":[[[[-96.708507707569936,40.802412916262071],[-96.70846124487035,40.803763115448533],[-96.706684376943286,40.803727794730797],[-96.706730875593266,40.802377597215965],[-96.708507707569936,40.802412916262071]]],[[[-96.713560046147506,40.81061992913471],[-96.713513672431191,40.811970131165154],[-96.713467295569131,40.813320332835069],[-96.715244427815691,40.813355555867965],[-96.715198083778503,40.814705758844319],[-96.715151736597505,40.816055961460187],[-96.715105386272469,40.817406163715553],[-96.713328146106079,40.817370935681481],[-96.713281756658631,40.818721135909158],[-96.711504483661031,40.818685878855511],[-96.711458055086268,40.820036077054077],[-96.711411623361883,40.821386274892006],[-96.709634281551033,40.821350987146346],[-96.709587810691815,40.822701182953637],[-96.707810436048547,40.822665866182014],[-96.706033064560259,40.822630522054531],[-96.705986518574392,40.823980714157152],[-96.704209114256855,40.823945341000034],[-96.70416252912419,40.825295531067809],[-96.704115940831173,40.826645720774643],[-96.70589341712936,40.826681097279781],[-96.705846861669741,40.828031288299798],[-96.707624377120339,40.828066639118184],[-96.707577854498979,40.829416831450224],[-96.707531328721416,40.830767023421437],[-96.707484799787423,40.832117215031815],[-96.705707176339487,40.832081859194538],[-96.705660608244813,40.833432048770995],[-96.707438267696716,40.833467406281372],[-96.707391732449082,40.834817597170087],[-96.709169431064595,40.834852928986145],[-96.70912292866889,40.836203121185946],[-96.709076423118191,40.837553313024983],[-96.707298652482038,40.837517977864998],[-96.707252107762145,40.838868167671173],[-96.707205559884329,40.840218357116491],[-96.708983402550899,40.840253695620682],[-96.70893688753381,40.841603886377335],[-96.708890369360745,40.842954076773196],[-96.708843848031492,40.844304266808223],[-96.708797323545795,40.84565445648245],[-96.708750795903427,40.847004645795856],[-96.708704265104117,40.84835483474842],[-96.708657731147639,40.849705023340157],[-96.710435829154861,40.849740346169348],[-96.710389328077142,40.851090536071624],[-96.70861119403375,40.851055211571051],[-96.706833063148011,40.851019859687341],[-96.706786486838098,40.852370045884655],[-96.708564653762195,40.85240539944111],[-96.708518110332747,40.853755586950314],[-96.708471563745164,40.855105774098654],[-96.708425013999175,40.85645596088613],[-96.708378461094568,40.857806147312736],[-96.708331905031073,40.859156333378472],[-96.706553557878465,40.859120971457294],[-96.706600149992539,40.857770787064638],[-96.704821842051814,40.857735399427064],[-96.704775213887402,40.859085582145347],[-96.702996873060357,40.859050165442767],[-96.702950205679414,40.860400346124301],[-96.702903535131782,40.861750526444752],[-96.701125125364143,40.861715078997548],[-96.699346718765881,40.861679604157409],[-96.697568315339439,40.861644101924462],[-96.695789915087232,40.861608572298863],[-96.694011518011735,40.861573015280747],[-96.693964664013734,40.862923186841364],[-96.692186234061424,40.862887600747229],[-96.692139340825648,40.864237770262697],[-96.690360877997023,40.864202155090041],[-96.690313945518568,40.865552322558941],[-96.688535449814111,40.865516678305241],[-96.688582418352894,40.864166512522708],[-96.688629383704708,40.862816346378523],[-96.690407807290939,40.862851987259567],[-96.6904547334006,40.86150181906752],[-96.692233124115376,40.86153743087025],[-96.69228001098773,40.860187260631776],[-96.694058368830582,40.860222843358706],[-96.695836729852331,40.860258398694555],[-96.695883541440978,40.858908224728893],[-96.697661869587606,40.858943750992616],[-96.699440200908015,40.858979249866252],[-96.701218535399747,40.859014721349688],[-96.701265235664096,40.857664541984029],[-96.703043537274851,40.857699984400149],[-96.703090198323167,40.856349802996448],[-96.704868467052478,40.856385216347761],[-96.704915088889607,40.855035032907473],[-96.703136856205504,40.85499962123167],[-96.703183510922145,40.853649439105851],[-96.70496170756347,40.85368484910618],[-96.70500832307431,40.852334664943896],[-96.703230162473318,40.852299256618956],[-96.703276810859265,40.850949073771012],[-96.703323456080241,40.849598890562021],[-96.703370098136475,40.848248706991988],[-96.70341673702822,40.846898523060908],[-96.701638723728408,40.846863094058058],[-96.701685395483779,40.845512911442299],[-96.701732064072729,40.844162728465463],[-96.699954125992434,40.844127275439121],[-96.700000827437933,40.842777093778714],[-96.698222928548802,40.842741615055196],[-96.698176191080776,40.844091795036796],[-96.698129450441684,40.84544197465717],[-96.699907421378285,40.845477456738379],[-96.699860713595257,40.846827637676483],[-96.699814002643109,40.848177818253404],[-96.699767288521585,40.849527998469171],[-96.699720571230444,40.850878178323761],[-96.699673850769443,40.852228357817168],[-96.699627127138356,40.853578536949378],[-96.699580400336899,40.854928715720405],[-96.697802177157257,40.854893221885199],[-96.697848940000739,40.853543044793525],[-96.696070756035937,40.853507525252766],[-96.696117551745985,40.852157349480407],[-96.696164344281058,40.850807173346716],[-96.696211133641384,40.8494569968517],[-96.694433060961799,40.849421454971598],[-96.694386235567251,40.850771629784866],[-96.692608130030621,40.850736058841001],[-96.692654991459179,40.849385885710745],[-96.69087692513591,40.849350289069314],[-96.690923819416369,40.848000117261876],[-96.689145792305979,40.847964494925542],[-96.687367768379588,40.847928845210198],[-96.687414731535469,40.846578676413486],[-96.685636746823647,40.846543001007333],[-96.683858765300485,40.846507298223742],[-96.683905797321287,40.845157132442694],[-96.685683742819009,40.845192833536984],[-96.685730735625981,40.843842665704948],[-96.687508648288855,40.843878337735177],[-96.689286564137461,40.843913982390411],[-96.689333481714414,40.842563810822256],[-96.689380396108334,40.84121363889254],[-96.689427307319477,40.83986346660128],[-96.6876494995267,40.839827827005543],[-96.687696443569038,40.838477656039117],[-96.685918674974744,40.838441990759939],[-96.685965651843404,40.8370918211195],[-96.684187922447066,40.837056130159517],[-96.684234932137173,40.835705961846244],[-96.682457241938337,40.835670245208135],[-96.680679554931046,40.835634501203224],[-96.678901871117773,40.835598729831659],[-96.677124190500919,40.83556293109357],[-96.67717134102314,40.834212769186486],[-96.67539369960987,40.834176944777234],[-96.675440882935732,40.832826784203306],[-96.673663280725521,40.832790934125562],[-96.673616061397638,40.834141093003034],[-96.671838426388902,40.834105213864056],[-96.671885681718564,40.832755056684306],[-96.671932933842527,40.83140489914237],[-96.670155374040348,40.831368996036709],[-96.668377817446043,40.831333065569126],[-96.666600264062055,40.831297107739751],[-96.666552903941579,40.832647260180927],[-96.6665055406081,40.833997412259713],[-96.666458174061376,40.835347563976107],[-96.666410804301151,40.836697715330104],[-96.664633110121926,40.836661723327332],[-96.664680515887795,40.835311573676378],[-96.664727918437748,40.833961423662956],[-96.664775317771998,40.832611273287078],[-96.664822713890814,40.831261122548732],[-96.664870106794453,40.829910971447944],[-96.663092595834058,40.829874960599476],[-96.663140021515972,40.828524810840221],[-96.66136254976594,40.828488774337004],[-96.661315088091058,40.829838922390955],[-96.659537583567868,40.829802856822539],[-96.657760082266947,40.82976676389432],[-96.655982584190696,40.829730643606489],[-96.655935011311257,40.831080786174056],[-96.655887435204448,40.832430928378812],[-96.655839855870013,40.833781070220773],[-96.655792273307711,40.835131211699931],[-96.65574468751727,40.836481352816293],[-96.655697098498464,40.837831493569809],[-96.655649506251038,40.8391816339605],[-96.657427256341123,40.839217766214418],[-96.657379696876561,40.840567907952],[-96.65733213418531,40.841918049326821],[-96.657284568267158,40.843268190338854],[-96.659062429626914,40.843304300349537],[-96.659014896500864,40.84465444270743],[-96.657236999121807,40.844618330988105],[-96.655459104970177,40.844582191894943],[-96.65550671013456,40.843232052955599],[-96.653728855231606,40.843195888199929],[-96.651951003560683,40.843159696071986],[-96.651998677527928,40.841809560193383],[-96.650220865107343,40.841773342407031],[-96.650268571853772,40.840423207879105],[-96.65031627536375,40.839073072988128],[-96.652094015759914,40.839109287347213],[-96.652141680025167,40.837759150379689],[-96.652189341056925,40.836409013049199],[-96.652236998855457,40.835058875355742],[-96.652284653420963,40.833708737299325],[-96.652332304753742,40.832358598879978],[-96.650554744375924,40.832322393087821],[-96.648777187233037,40.832286159934021],[-96.646999633327511,40.832249899418713],[-96.647047389416102,40.830899765779861],[-96.647095142265144,40.829549631777844],[-96.647142891874864,40.828199497412712],[-96.645365449188674,40.828163214687024],[-96.645413231547636,40.82681308167561],[-96.647190638245519,40.826849362684449],[-96.647238381377377,40.825499227593077],[-96.647286121270639,40.824149092138576],[-96.649063459237567,40.824185342360323],[-96.649015755327966,40.825535479530231],[-96.650793132514679,40.825571704112356],[-96.652570512935085,40.825607901339303],[-96.652618144876598,40.824257760742427],[-96.652665773587088,40.82290761978264],[-96.65271339906684,40.821557478459972],[-96.654490674772532,40.821593643197176],[-96.654443085272348,40.822943786231249],[-96.656220400185916,40.822979925326969],[-96.65799771832539,40.823016037069671],[-96.659775039688299,40.823052121459213],[-96.661552364272239,40.823088178495425],[-96.66150491547414,40.824438327999673],[-96.663282279259874,40.824474359387459],[-96.663234863228624,40.825824510234213],[-96.663187443980732,40.82717466071847],[-96.664964882957122,40.827210668159005],[-96.665012266216664,40.825860515970888],[-96.666789672418901,40.825896494351241],[-96.66683701647807,40.824546340098195],[-96.66861438990567,40.824582289420867],[-96.668661694769355,40.823232133104334],[-96.670439035421822,40.823268053371848],[-96.67221637928067,40.823303946285193],[-96.672263608971733,40.821953786208127],[-96.674040920052278,40.821989650069973],[-96.674088110559765,40.820639487933654],[-96.674135297866229,40.819289325435257],[-96.675912540190311,40.819325158552346],[-96.675959688320788,40.817974993996202],[-96.677736897867774,40.818010798068173],[-96.67778400682711,40.816660631455711],[-96.679561183596491,40.816696406485057],[-96.681338363558851,40.816732154165997],[-96.681385397380851,40.815381983806986],[-96.681432428012542,40.814031813086189],[-96.68320953922526,40.81406753003786],[-96.684986653625586,40.8141032196434],[-96.685033609134067,40.812753045181637],[-96.686810690752637,40.812788705753256],[-96.686857607111648,40.811438529242267],[-96.688634655947993,40.811474160782467],[-96.688587775553728,40.812824338979759],[-96.690364863534882,40.81285994486101],[-96.692141954693696,40.812895523396875],[-96.692188763157716,40.811545341830836],[-96.693965821526234,40.811580891338735],[-96.694012590852225,40.810230707729012],[-96.695789616429991,40.810266228211425],[-96.697566645177588,40.810301721350633],[-96.69761333940933,40.80895153401891],[-96.697660030473898,40.807601346326052],[-96.699436990468641,40.80763680876511],[-96.701213953627885,40.807672243863237],[-96.701260569612316,40.806322052453972],[-96.699483642409803,40.806286619032832],[-96.697706718371535,40.806251158272062],[-96.697753403102496,40.804900969856966],[-96.699530291186704,40.804936428939513],[-96.701307182434931,40.804971860683729],[-96.701353792095972,40.803621668552495],[-96.70140039859568,40.802271476060291],[-96.701447001934312,40.80092128320711],[-96.701493602112095,40.799571089992988],[-96.701540199129283,40.798220896417888],[-96.703316913802894,40.798256292446453],[-96.703270352728069,40.799606487696856],[-96.703223788495094,40.800956682586339],[-96.703177221103715,40.802306877114944],[-96.703130650553661,40.803657071282643],[-96.704907512170251,40.803692446675463],[-96.706684376943286,40.803727794730797],[-96.706637875139279,40.805077991884851],[-96.708414779019179,40.805113314274266],[-96.710191686050919,40.805148609324633],[-96.710145253003418,40.806498809460123],[-96.710098816806266,40.807849009234978],[-96.711875798901346,40.807884280284554],[-96.71182939551494,40.809234481368051],[-96.713606416718321,40.809269726743736],[-96.713560046147506,40.81061992913471]],[[-96.691205118294775,40.839899078825766],[-96.692982932450164,40.839934663678847],[-96.693029768450572,40.838584487657215],[-96.694807549769166,40.838620043456281],[-96.696585334262736,40.838655571884985],[-96.696632095061403,40.83730539213839],[-96.698409846714995,40.837340891516718],[-96.698456568331281,40.835990709729117],[-96.700234287144426,40.836026180059605],[-96.700280969583218,40.834675996232413],[-96.698503286777964,40.834640527580319],[-96.696725607142099,40.834605031561445],[-96.696772358424624,40.833254850731109],[-96.694994717965528,40.833219329026512],[-96.695041502079008,40.831869149515803],[-96.695088283018734,40.830518969643769],[-96.695135060784949,40.82916878941046],[-96.69518183537788,40.827818608815846],[-96.695228606797812,40.82646842785995],[-96.695275375044943,40.825118246542793],[-96.693497953736951,40.825082707564867],[-96.691720535603949,40.825047141229646],[-96.691673695376863,40.826397319181886],[-96.689896244431651,40.826361723805086],[-96.68984936503486,40.827711899711453],[-96.68980248245775,40.829062075256353],[-96.691580005389497,40.829097674002142],[-96.691533155628704,40.830447850870144],[-96.689755596700067,40.830412250439743],[-96.689708707761554,40.831762425261651],[-96.687931116014624,40.831726795783091],[-96.687884187893502,40.833076968557457],[-96.686106563328778,40.833041310028229],[-96.686059596020158,40.834391480753638],[-96.686012625525123,40.835741651117395],[-96.687790322099758,40.835777313021467],[-96.687743384426639,40.837127484711097],[-96.689521120194371,40.837163120934164],[-96.689474215348071,40.838513293948488],[-96.689427307319477,40.83986346660128],[-96.691205118294775,40.839899078825766]],[[-96.684610894870303,40.824904602318433],[-96.682833492648683,40.824868899198776],[-96.682880509631744,40.823518729319687],[-96.681103146585656,40.82348300053436],[-96.681056093616661,40.824833168722641],[-96.681009037455638,40.826183336549128],[-96.680961978102346,40.827533504013772],[-96.680914915556528,40.828883671116607],[-96.679137411744819,40.828847908207507],[-96.679090310010793,40.830198073256149],[-96.680867849817943,40.830233837857605],[-96.68082078088635,40.831584004236788],[-96.680773708761507,40.832934170254106],[-96.682551323760336,40.832969910876415],[-96.684328941950241,40.833005624134508],[-96.684375942073714,40.831655454736072],[-96.684422939008812,40.830305284975921],[-96.684469932755775,40.828955114854089],[-96.68269242256099,40.828919406665513],[-96.682739449113555,40.827569237871678],[-96.682786472476039,40.826219068716107],[-96.684563910686279,40.826254773525335],[-96.684610894870303,40.824904602318433]],[[-96.691767372653615,40.823696962915982],[-96.69354475479922,40.823732527568175],[-96.693591552686755,40.822382347210151],[-96.691814206526132,40.822346784240928],[-96.691767372653615,40.823696962915982]],[[-96.694573518084866,40.845370928363522],[-96.694620330773134,40.844020752104768],[-96.692842405382038,40.843985189575349],[-96.692795556669523,40.845335364151346],[-96.694573518084866,40.845370928363522]]],[[[-96.701405317446287,40.85361400172021],[-96.701452005037567,40.852263820910004],[-96.703230162473318,40.852299256618956],[-96.703183510922145,40.853649439105851],[-96.701405317446287,40.85361400172021]]],[[[-96.690736223202634,40.853400802322554],[-96.688958051953392,40.853365173243638],[-96.688911108903369,40.854715341919167],[-96.687132904798545,40.85467968376895],[-96.687179883889115,40.853329516780526],[-96.687226859792275,40.85197934943043],[-96.689004991818408,40.852015004206486],[-96.690783127029292,40.85205063159966],[-96.690736223202634,40.853400802322554]]],[[[-96.695977155089892,40.856207875713508],[-96.694198902214765,40.856172325424062],[-96.694245740319516,40.854822152056364],[-96.694292575246351,40.853471978327271],[-96.696070756035937,40.853507525252766],[-96.696023957150643,40.8548577006638],[-96.695977155089892,40.856207875713508]]],[[[-96.692420652517811,40.856136747747421],[-96.690642406001444,40.85610114268372],[-96.690689316193442,40.854750972683902],[-96.690736223202634,40.853400802322554],[-96.69251439763444,40.853436404017145],[-96.692467526666292,40.854786576063006],[-96.692420652517811,40.856136747747421]]],[[[-96.685824711675679,40.841142328955797],[-96.685871694918916,40.839792160038698],[-96.6876494995267,40.839827827005543],[-96.687602552299396,40.841177997610373],[-96.685824711675679,40.841142328955797]]],[[[-96.68872330484848,40.860116013005232],[-96.688676345869837,40.861466179872693],[-96.686897961525545,40.86143051328591],[-96.686944956556985,40.860080348105896],[-96.686991948399736,40.858730182564202],[-96.688770260640922,40.858765845776148],[-96.68872330484848,40.860116013005232]]],[[[-96.686709949508327,40.866831170388892],[-96.688488478088118,40.866866843726129],[-96.688441503174687,40.868217008785358],[-96.688394525073576,40.869567173482928],[-96.686615924361348,40.869531496770044],[-96.686662938529906,40.868181333760333],[-96.686709949508327,40.866831170388892]]],[[[-96.688253571641582,40.873617665405575],[-96.686474862712416,40.873581983628732],[-96.686521886452852,40.87223182170424],[-96.688300559307251,40.87226750179304],[-96.688253571641582,40.873617665405575]]],[[[-96.684743216789329,40.872196114213288],[-96.684696156974383,40.873546274448422],[-96.684649093965874,40.874896434321727],[-96.68287035534469,40.874860696047385],[-96.682917454429898,40.873510537864796],[-96.682964550319113,40.872160379320313],[-96.684743216789329,40.872196114213288]]],[[[-96.689985328982516,40.875003484716501],[-96.689938371019139,40.876353649292547],[-96.688159586743964,40.876317991545577],[-96.688206580787238,40.874967828656423],[-96.688253571641582,40.873617665405575],[-96.690032283759422,40.873653319778825],[-96.689985328982516,40.875003484716501]]],[[[-96.68460202776356,40.876246593833194],[-96.686380805657961,40.876282306392412],[-96.688159586743964,40.876317991545577],[-96.688112589511519,40.877668154073035],[-96.686333772343431,40.877632467231606],[-96.684554958367201,40.877596752982839],[-96.684507885776526,40.87894691177064],[-96.682729038910551,40.878911168423748],[-96.682776147585272,40.877561011326868],[-96.682823253063233,40.876210853868081],[-96.68460202776356,40.876246593833194]]],[[[-96.673332678148213,40.842242038663095],[-96.67511053242373,40.842277900617361],[-96.675157734959669,40.840927742215861],[-96.67693555642083,40.840963575101874],[-96.676888389901777,40.842313735198921],[-96.678666250579937,40.842349542407632],[-96.678619116880355,40.843699703836982],[-96.676841220182638,40.843663894933933],[-96.675063326685247,40.843628058656755],[-96.673285436390657,40.843592195005584],[-96.673332678148213,40.842242038663095]]],[[[-96.676558134651799,40.851764845741215],[-96.674780024987228,40.851728999288866],[-96.674827249946119,40.850378843422149],[-96.674874471701003,40.849028687193304],[-96.676652509300098,40.849064530253656],[-96.676699691822108,40.847714371966795],[-96.676746871143052,40.846364213317884],[-96.67679404726313,40.845014054306937],[-96.678571979982877,40.845049864904382],[-96.678524839887231,40.846400025609789],[-96.678477696593205,40.847750185953231],[-96.680255704562938,40.847785972561525],[-96.680208594099838,40.849136134236289],[-96.678430550100529,40.849100345934694],[-96.678383400408947,40.850450505554171],[-96.676605323576752,40.850414688178468],[-96.676558134651799,40.851764845741215]]],[[[-96.679454391804754,40.870738671807516],[-96.677675771000224,40.870702856403788],[-96.677722968704813,40.869352702214847],[-96.679501553440701,40.869388515924186],[-96.679454391804754,40.870738671807516]]],[[[-96.644743983454987,40.845714910782441],[-96.644696155692316,40.847065038708564],[-96.642918212159032,40.847028704564302],[-96.641140271873169,40.846992343044732],[-96.641092368816544,40.848342467167917],[-96.642870345126752,40.848378830407967],[-96.642822474846795,40.849728955888281],[-96.644600490431756,40.849765293470988],[-96.644648324684667,40.848415166271415],[-96.6464263074878,40.848451474758136],[-96.646378509262206,40.849801603675658],[-96.648156531335715,40.849837886502172],[-96.648108765897049,40.851188016773193],[-96.649886827241417,40.851224273936829],[-96.649839094594569,40.852574405560212],[-96.648060997217527,40.852538146681063],[-96.646282903081598,40.852501860421029],[-96.646235095126073,40.853851988248842],[-96.644456968199066,40.853815672889894],[-96.644409120962692,40.855165798636264],[-96.644361270479806,40.856515924019305],[-96.64431341675018,40.857866049039025],[-96.646091651795686,40.857902369552868],[-96.646043830863448,40.859252495927691],[-96.645996006686403,40.860602621939258],[-96.644217699549685,40.86056629798847],[-96.64243939566046,40.860529946649322],[-96.642487291930905,40.859179824076065],[-96.640709027337934,40.859143447069783],[-96.640661095021173,40.860493567921942],[-96.638882797634267,40.860457161806487],[-96.637104503502172,40.860420728303097],[-96.635326212627348,40.860384267411909],[-96.635278168913402,40.861734382729352],[-96.633499845250512,40.861697892724195],[-96.631721524850008,40.861661375330236],[-96.631673405775956,40.863011486829876],[-96.629895052590598,40.862974940318267],[-96.62811670267277,40.862938366416863],[-96.628068508229603,40.864288474093243],[-96.626290125530105,40.864251871070557],[-96.626241891762646,40.865601976651234],[-96.62446347628196,40.865565344504724],[-96.622685064076649,40.865528684966243],[-96.622733369951504,40.864178582852887],[-96.62095499707732,40.864141897658214],[-96.621003335725518,40.862791796916198],[-96.62105167109398,40.861441695809923],[-96.619273373598574,40.861404986698474],[-96.617495079385094,40.861368250199405],[-96.617543483565314,40.860018152203537],[-96.61576522868144,40.859981390056255],[-96.615813665620351,40.858631293435224],[-96.617591884461433,40.858668053843303],[-96.617640282073708,40.857317955118702],[-96.617688676402352,40.855967856029721],[-96.619466826448502,40.856004585577288],[-96.621244979775568,40.8560412877424],[-96.621293298749166,40.854691184814946],[-96.623071419318464,40.854727857862358],[-96.623119698980048,40.853377752835634],[-96.623167975366101,40.852027647444785],[-96.624946027145512,40.852064289643295],[-96.626724082197754,40.852100904462802],[-96.626772283249949,40.850750795241872],[-96.628550305542916,40.850787380951203],[-96.630328331103556,40.850823939282513],[-96.63210635992948,40.850860470235681],[-96.632154449629084,40.84951035546176],[-96.630376456830902,40.849473826236974],[-96.630424579293219,40.848123712827601],[-96.632202536066103,40.848160240324084],[-96.632250619240821,40.846810124822632],[-96.63402854325291,40.846846623216486],[-96.634076587144861,40.845496505624396],[-96.635854478395657,40.845532974918093],[-96.635902483009758,40.844182855236816],[-96.637680341498765,40.844219295432886],[-96.63772830683989,40.842869173663857],[-96.639506132566581,40.8429055847648],[-96.641283961544843,40.842941968494628],[-96.641331851603496,40.841591842917801],[-96.643109647816274,40.841628197556162],[-96.643061793772233,40.842978324853192],[-96.644839629246306,40.843014653840342],[-96.646617467964631,40.843050955455951],[-96.648395309924751,40.843087229699854],[-96.65017315512425,40.843123476571911],[-96.650125441904223,40.844473610373747],[-96.648347560686688,40.844437361786596],[-96.648299808208989,40.845787493510201],[-96.646521894210821,40.845751215833459],[-96.644743983454987,40.845714910782441]],[[-96.639314395756443,40.848306076551467],[-96.639266453423133,40.849656198589408],[-96.641044462509782,40.84969259092771],[-96.641092368816544,40.848342467167917],[-96.639314395756443,40.848306076551467]],[[-96.639170558997805,40.852356441574806],[-96.639122606905303,40.853706562522213],[-96.640900724086251,40.853742960026437],[-96.640948640144885,40.852392837356973],[-96.639170558997805,40.852356441574806]]],[[[-96.66859317073974,40.875923947551584],[-96.668545776617904,40.877274091436966],[-96.666766994694655,40.877238103122608],[-96.666814424895847,40.875887960939714],[-96.66859317073974,40.875923947551584]]]]}},
{"type":"Feature","properties":{"band":60},"geometry":{"type":"MultiPolygon","coordinates":[[[[-96.741993386946859,40.811180162868972],[-96.743770497255909,40.811214945034891],[-96.74554761066905,40.811249699853796],[-96.74550188437712,40.812599931689888],[-96.747279036862238,40.812634660805251],[-96.749056192446815,40.812669362572038],[-96.750833351128449,40.812704036990105],[-96.752610512904681,40.812738684059333],[-96.754387677773082,40.812773303779565],[-96.756164845731206,40.812807896150659],[-96.756210356197769,40.811457654472427],[-96.757987491271464,40.811492217858429],[-96.758032962681696,40.810141974185463],[-96.759810064870479,40.810176508588896],[-96.759764629429782,40.811526753896331],[-96.759719190906893,40.812876998844956],[-96.761496368119595,40.812911509167876],[-96.763273548412286,40.812945992141096],[-96.763228178756492,40.814296239996246],[-96.761450962488922,40.814261755390987],[-96.761405553778019,40.815612001255346],[-96.759628304613628,40.815577487665749],[-96.759582856842755,40.816927731537895],[-96.757805574781969,40.816893188961423],[-96.757851058532111,40.815542946724022],[-96.756073815535927,40.815508378430316],[-96.756028295806757,40.816858619031692],[-96.75425101991955,40.816824021748808],[-96.752473747122778,40.81678939711292],[-96.75242815234337,40.818139634079252],[-96.750650846658729,40.818104980450514],[-96.750605212803009,40.819455215417705],[-96.748827874230969,40.819420532793607],[-96.748873544069639,40.81807029946777],[-96.747096244578543,40.818035591131135],[-96.747050538757151,40.819385822814354],[-96.745273206383999,40.819351085480065],[-96.743495877113958,40.819316320790861],[-96.741718550949443,40.819281528746899],[-96.741672734073347,40.820631755134976],[-96.739895375032631,40.820596934088535],[-96.739941227892913,40.81924670934832],[-96.738163907946785,40.819211862595246],[-96.736386591113515,40.819176988487833],[-96.736432512826184,40.817826766687517],[-96.734655235089249,40.817791866877577],[-96.732877960469779,40.817756939714847],[-96.732923951024375,40.816406720859362],[-96.731146715502959,40.816371767998191],[-96.729369483103653,40.816336787785829],[-96.727592253828888,40.816301780222389],[-96.727546155340619,40.817651994111415],[-96.725768893215431,40.817616957538974],[-96.725722755620112,40.818967169409838],[-96.723945460644998,40.818932103825894],[-96.722168168802199,40.818897010888712],[-96.720390880094186,40.818861890598434],[-96.71861359452339,40.818826742955196],[-96.716836312092241,40.81879156795916],[-96.716882629583154,40.817441364398377],[-96.715105386272469,40.817406163715553],[-96.715151736597505,40.816055961460187],[-96.715198083778503,40.814705758844319],[-96.715244427815691,40.813355555867965],[-96.713467295569131,40.813320332835069],[-96.713513672431191,40.811970131165154],[-96.713560046147506,40.81061992913471],[-96.715337106459685,40.810655148833838],[-96.717114169914936,40.810690341188192],[-96.717160468558447,40.809340135464915],[-96.715383441066976,40.809304944776066],[-96.713606416718321,40.809269726743736],[-96.71182939551494,40.809234481368051],[-96.711875798901346,40.807884280284554],[-96.710098816806266,40.807849009234978],[-96.710145253003418,40.806498809460123],[-96.710191686050919,40.805148609324633],[-96.708414779019179,40.805113314274266],[-96.706637875139279,40.805077991884851],[-96.706684376943286,40.803727794730797],[-96.704907512170251,40.803692446675463],[-96.703130650553661,40.803657071282643],[-96.703177221103715,40.802306877114944],[-96.703223788495094,40.800956682586339],[-96.703270352728069,40.799606487696856],[-96.703316913802894,40.798256292446453],[-96.701540199129283,40.798220896417888],[-96.701493602112095,40.799571089992988],[-96.701447001934312,40.80092128320711],[-96.70140039859568,40.802271476060291],[-96.701353792095972,40.803621668552495],[-96.701307182434931,40.804971860683729],[-96.699530291186704,40.804936428939513],[-96.697753403102496,40.804900969856966],[-96.697706718371535,40.806251158272062],[-96.699483642409803,40.806286619032832],[-96.701260569612316,40.806322052453972],[-96.701213953627885,40.807672243863237],[-96.699436990468641,40.80763680876511],[-96.697660030473898,40.807601346326052],[-96.69761333940933,40.80895153401891],[-96.697566645177588,40.810301721350633],[-96.695789616429991,40.810266228211425],[-96.694012590852225,40.810230707729012],[-96.693965821526234,40.811580891338735],[-96.692188763157716,40.811545341830836],[-96.692141954693696,40.812895523396875],[-96.690364863534882,40.81285994486101],[-96.688587775553728,40.812824338979759],[-96.688634655947993,40.811474160782467],[-96.686857607111648,40.811438529242267],[-96.686810690752637,40.812788705753256],[-96.685033609134067,40.812753045181637],[-96.684986653625586,40.8141032196434],[-96.68320953922526,40.81406753003786],[-96.681432428012542,40.814031813086189],[-96.681385397380851,40.815381983806986],[-96.681338363558851,40.816732154165997],[-96.679561183596491,40.816696406485057],[-96.67778400682711,40.816660631455711],[-96.677736897867774,40.818010798068173],[-96.675959688320788,40.817974993996202],[-96.675912540190311,40.819325158552346],[-96.674135297866229,40.819289325435257],[-96.674088110559765,40.820639487933654],[-96.674040920052278,40.821989650069973],[-96.672263608971733,40.821953786208127],[-96.67221637928067,40.823303946285193],[-96.670439035421822,40.823268053371848],[-96.668661694769355,40.823232133104334],[-96.66861438990567,40.824582289420867],[-96.66683701647807,40.824546340098195],[-96.666789672418901,40.825896494351241],[-96.665012266216664,40.825860515970888],[-96.664964882957122,40.827210668159005],[-96.663187443980732,40.82717466071847],[-96.663234863228624,40.825824510234213],[-96.663282279259874,40.824474359387459],[-96.66150491547414,40.824438327999673],[-96.661552364272239,40.823088178495425],[-96.659775039688299,40.823052121459213],[-96.65799771832539,40.823016037069671],[-96.656220400185916,40.822979925326969],[-96.654443085272348,40.822943786231249],[-96.654490674772532,40.821593643197176],[-96.65271339906684,40.821557478459972],[-96.652665773587088,40.82290761978264],[-96.652618144876598,40.824257760742427],[-96.652570512935085,40.825607901339303],[-96.650793132514679,40.825571704112356],[-96.649015755327966,40.825535479530231],[-96.649063459237567,40.824185342360323],[-96.647286121270639,40.824149092138576],[-96.647238381377377,40.825499227593077],[-96.647190638245519,40.826849362684449],[-96.645413231547636,40.82681308167561],[-96.645365449188674,40.828163214687024],[-96.647142891874864,40.828199497412712],[-96.647095142265144,40.829549631777844],[-96.647047389416102,40.830899765779861],[-96.646999633327511,40.832249899418713],[-96.645222082661817,40.832213611542066],[-96.645174287335365,40.833563743100655],[-96.645126488766422,40.834913874296035],[-96.643348869344948,40.834877555621254],[-96.643396703914121,40.833527426144364],[-96.641619123737797,40.833491081825713],[-96.641571253168635,40.834841209582827],[-96.639793640239958,40.834804836180894],[-96.639841546808853,40.833454710144871],[-96.638063973129718,40.833418311101937],[-96.638111912445851,40.832068186424785],[-96.636334378015761,40.832031761743522],[-96.636382350074257,40.830681638426391],[-96.6346048548927,40.830645188109465],[-96.634556846840098,40.831995309701774],[-96.63450883553061,40.833345430930457],[-96.632731271615526,40.833308949802202],[-96.630953710960014,40.833272441312438],[-96.630905624396206,40.834622558723702],[-96.629128031004441,40.834586021143778],[-96.629176153566462,40.833235905461343],[-96.627398599437356,40.833199342249046],[-96.62735044087735,40.834549456201358],[-96.625572854017378,40.834512863896592],[-96.623795270426982,40.834476244229634],[-96.62384350098219,40.833126133741452],[-96.62206595666099,40.833089488446433],[-96.620288415613985,40.833052815790793],[-96.620240113064582,40.83440292280968],[-96.618462539297468,40.834366221056989],[-96.618510877843576,40.83301611577469],[-96.616733343352237,40.832979388398265],[-96.614955812142384,40.832942633661666],[-96.61317828421646,40.83290585156503],[-96.613226727464848,40.831555751135781],[-96.611449238818551,40.831518943420946],[-96.611400759576881,40.832869042108506],[-96.609623238226106,40.832832205292242],[-96.60784572016658,40.832795341116373],[-96.607894271394017,40.831445245916086],[-96.606116792620668,40.831408356126353],[-96.606165376544766,40.830058262306899],[-96.606213957173253,40.828708168122709],[-96.604436553672954,40.828671254468468],[-96.604387937057083,40.830021346905944],[-96.602610500867456,40.829984404148441],[-96.602659153470455,40.82863431345897],[-96.600881756568171,40.828597345094337],[-96.600930441855382,40.827247255789239],[-96.602707802773253,40.827284222404643],[-96.602756448776063,40.825934130985452],[-96.602805091479183,40.824584039201419],[-96.604582383734922,40.824620974967303],[-96.604630987161187,40.823270881070677],[-96.602853730882828,40.823233947052515],[-96.602902366987294,40.821883854538804],[-96.601125149982835,40.821846894919631],[-96.6011738187606,40.820496803789965],[-96.602950999792796,40.820533761660243],[-96.604728184123672,40.820570692183146],[-96.604776777660405,40.819220597192221],[-96.604825367901114,40.817870501836559],[-96.603048255507971,40.817833574808638],[-96.603096878418128,40.816483480835622],[-96.603145498030386,40.815133386497777],[-96.601368460862886,40.81509643562233],[-96.601319805288128,40.816446528211564],[-96.599542735458485,40.816409548244181],[-96.599591426995516,40.81505945740485],[-96.597814396430707,40.815022451845437],[-96.597863120624766,40.813672362392282],[-96.599640115230017,40.81370936620057],[-96.601417113137543,40.813746342668232],[-96.603194114344944,40.81378329179514],[-96.604971118849761,40.813820213581117],[-96.605019695908993,40.812470116766512],[-96.605068269673495,40.811120019587165],[-96.606845205559409,40.811156910540404],[-96.606796667750643,40.812507009465548],[-96.608573642884608,40.812543874824676],[-96.608525137741964,40.813893975129758],[-96.610302152124461,40.813930814892117],[-96.610253679652786,40.815280916575972],[-96.610205203893173,40.816631017895304],[-96.610156724845368,40.81798111885012],[-96.608379602572256,40.817944273857449],[-96.608331084267604,40.819294372704142],[-96.610108242509114,40.819331219440407],[-96.610059756884155,40.820681319666122],[-96.611836954385467,40.820718140798057],[-96.611788501445091,40.822068242401656],[-96.611740045217928,40.823418343640775],[-96.613517317955768,40.823455140906937],[-96.615294593978206,40.823491910822256],[-96.617071873282796,40.823528653386596],[-96.617120221580535,40.822178546927745],[-96.618897468187868,40.822215260403631],[-96.620674718072223,40.822251946529533],[-96.622451971231186,40.822288605305303],[-96.624229227662326,40.822325236730791],[-96.624277428780928,40.820975122966409],[-96.626054652506227,40.82101172530939],[-96.626006487363185,40.822361840805861],[-96.627783750331318,40.822398417530366],[-96.629561016564324,40.822434966904147],[-96.629609109755521,40.82108484794739],[-96.627831879498572,40.821048300303097],[-96.627880005401224,40.819698182711981],[-96.629657199684544,40.819734728626841],[-96.629705286351665,40.818384608942516],[-96.629753369757111,40.8170344888944],[-96.627976247413699,40.8169979464382],[-96.62619912833415,40.816961376636456],[-96.624422012520895,40.81692477948932],[-96.624470200563096,40.815574664268986],[-96.624518385336827,40.814224548684713],[-96.622741344720964,40.814187927658445],[-96.620964307375758,40.814151279289661],[-96.619187273303623,40.814114603578496],[-96.619235562690463,40.812764492833004],[-96.619283848802027,40.811414381723345],[-96.621060810956223,40.811451053963488],[-96.621109057837444,40.810100940754268],[-96.619332131638572,40.810064270249541],[-96.619380411200368,40.808714158411583],[-96.619428687487641,40.807364046209486],[-96.619476960500648,40.80601393364325],[-96.621253778848171,40.806050598942178],[-96.623030600467274,40.806087236906478],[-96.622982399350548,40.807437352941825],[-96.622934194964415,40.808787468613176],[-96.624711091752147,40.808824082708],[-96.624662920049758,40.810174199748097],[-96.626439856058326,40.810210788236887],[-96.626487991807068,40.808860669465332],[-96.628264895126776,40.808897228885023],[-96.628216795331923,40.810247349386749],[-96.629993737868105,40.810283883197513],[-96.629945670767228,40.811634005064391],[-96.631722652520409,40.811670513263593],[-96.631770683664456,40.810320389669059],[-96.633547632718546,40.810356868801229],[-96.633499637531557,40.811706994122126],[-96.635276625798269,40.811743447639849],[-96.635324585027917,40.810393320593889],[-96.637101540590152,40.810429745046875],[-96.638878499402807,40.81046614216006],[-96.640655461463467,40.810502511933294],[-96.640607610107295,40.811852644146711],[-96.642384611371838,40.811888988299749],[-96.644161615879739,40.811925305111245],[-96.644113833199555,40.813275440399991],[-96.644066047278159,40.814625575325557],[-96.645843126951974,40.814661868230218],[-96.645795373755263,40.8160120045101],[-96.64574761731933,40.817362140426837],[-96.64752477216733,40.817398409419631],[-96.647572492634453,40.816048271786585],[-96.649349614750477,40.816084511717236],[-96.651126740100864,40.816120724301896],[-96.652903868683211,40.816156909540439],[-96.652951478012895,40.814806766403379],[-96.654728573857383,40.814842922584575],[-96.65468100049506,40.816193067432692],[-96.656458135533995,40.816229197978529],[-96.656505672928702,40.81487905142064],[-96.65655320709898,40.813528904500011],[-96.656600738045128,40.812178757216678],[-96.656648265767373,40.810828609570635],[-96.656695790265957,40.809478461561888],[-96.656743311541163,40.808128313190444],[-96.658520234034029,40.808164406139866],[-96.660297159747628,40.808200471750325],[-96.662074088679518,40.8082365100217],[-96.662026675272159,40.809586663513684],[-96.661979258648714,40.810936816643164],[-96.660202257802013,40.810900774960615],[-96.660154802001145,40.812250926021925],[-96.661931838808911,40.812286969410152],[-96.66188441575251,40.813637121814651],[-96.660107342981249,40.813601076720651],[-96.660059880742068,40.814951227056802],[-96.660012415283376,40.816301377030371],[-96.658235273797587,40.8162653011778],[-96.658187769148569,40.817615449081522],[-96.658140261277069,40.818965596622576],[-96.658092750182888,40.820315743800961],[-96.659869999587642,40.8203518247755],[-96.659822521248358,40.821701973298666],[-96.661599809851737,40.821738028628644],[-96.663377101673447,40.821774056606465],[-96.66515439671106,40.821810057231978],[-96.665201767115278,40.820459903594191],[-96.666979029387491,40.820495875164966],[-96.668756294870491,40.820531819384449],[-96.668803590108411,40.819181661981098],[-96.668850882138258,40.817831504215469],[-96.668898170960247,40.816481346087599],[-96.668945456574647,40.81513118759748],[-96.667168334983685,40.815095250181322],[-96.667215653357644,40.813745093029617],[-96.665438570943152,40.813709129969276],[-96.665485922071809,40.812358974157142],[-96.667262968522067,40.812394935515599],[-96.667310280477196,40.811044777639282],[-96.669087294174687,40.811080709953671],[-96.669134566961148,40.809730550014621],[-96.669181836541256,40.808380389713335],[-96.670958781528071,40.808416291287074],[-96.672735729718568,40.808452165520862],[-96.672688532053584,40.809802329219039],[-96.674465519403256,40.809838177809233],[-96.674512681110329,40.808488012414543],[-96.676289635700883,40.808523831967982],[-96.678066593487841,40.808559624181051],[-96.67811368008438,40.807209455035348],[-96.676336758253399,40.807173664516149],[-96.674559839618581,40.807137846657852],[-96.674606994928268,40.805787680539154],[-96.674654147039618,40.804437514058463],[-96.672877303507036,40.804401672253896],[-96.671100463174952,40.804365803113122],[-96.671147683984358,40.803015639664181],[-96.672924488368494,40.803051507107448],[-96.6747012959529,40.803087347215779],[-96.674748441668356,40.801737180011095],[-96.674795584186214,40.800387012444453],[-96.676572323078872,40.800422821828008],[-96.676525216504587,40.801772991089472],[-96.676478106735132,40.803123159989028],[-96.676430993770282,40.804473328526662],[-96.676383877609794,40.805823496702367],[-96.678160763487213,40.805859285527781],[-96.678207843696597,40.804509115658355],[-96.679984696816121,40.804544875453395],[-96.679937652558095,40.805895047015255],[-96.681714544819997,40.805930781164648],[-96.681761553126407,40.804580607911646],[-96.681808558244484,40.803230434296921],[-96.680031737883354,40.803194703529748],[-96.67825492071276,40.803158945427064],[-96.678301994535971,40.801808774833923],[-96.680078775760066,40.801844531244306],[-96.681855560174455,40.801880260320495],[-96.681902558916576,40.800530085982352],[-96.681949554471089,40.799179911282508],[-96.683726270186668,40.799215609645117],[-96.683679310574263,40.800565786034532],[-96.685456065417128,40.800601458753519],[-96.685502989087169,40.799251280675819],[-96.687279711170163,40.799286924374478],[-96.687326595717536,40.797936744248283],[-96.68910328504019,40.797972358929115],[-96.689056436433233,40.799322540740945],[-96.690833164873922,40.799358129775072],[-96.69087997754022,40.798007946278908],[-96.690926787031557,40.796657762421383],[-96.689150130469756,40.796622176755861],[-96.687373477085089,40.796586563760599],[-96.685596826879987,40.796550923435724],[-96.685643741003275,40.795200744273345],[-96.683867129915257,40.795165078307093],[-96.683914076789407,40.79381490047119],[-96.685690651944796,40.793850564749434],[-96.687467230281698,40.793886201700793],[-96.687514102111251,40.792536020128694],[-96.689290647696566,40.792571628067655],[-96.689337480419027,40.791221444448801],[-96.68938430996532,40.789871260468544],[-96.687607836234093,40.789835655900085],[-96.68583136568121,40.789800024008485],[-96.684054898309142,40.789764364793889],[-96.68410183244896,40.788414185511606],[-96.685878263898147,40.788449843038471],[-96.687654698527865,40.788485473243611],[-96.689431136335685,40.788521076126898],[-96.689477959530393,40.787170891423877],[-96.691254364592695,40.78720646530136],[-96.691301148693185,40.78585627855324],[-96.691347929620932,40.784506091443809],[-96.693124266020632,40.78454163463563],[-96.693077521009485,40.785891823427434],[-96.693030772827996,40.787242011858005],[-96.694807184233866,40.787277531093658],[-96.694853896496085,40.785927340981921],[-96.694900605590405,40.784577150509037],[-96.694947311517083,40.783226959674998],[-96.694994014276361,40.78187676847979],[-96.696770285186915,40.781912253675266],[-96.696816948869255,40.78056206043933],[-96.69686360938708,40.779211866842324],[-96.696910266740673,40.777861672884235],[-96.696956920930262,40.776511478565105],[-96.697003571956088,40.775161283884898],[-96.697050219818408,40.773811088843658],[-96.698826278470023,40.773846536654219],[-96.698872887273623,40.77249633957404],[-96.700648913190378,40.772531758399495],[-96.70069548294012,40.7711815592818],[-96.698919492916616,40.771146142132885],[-96.697143506053465,40.77111069767804],[-96.697190144426685,40.769760501553684],[-96.698966095399257,40.76979594433076],[-96.699012694721773,40.768445746167679],[-96.697236779637379,40.768410305068301],[-96.69728341168576,40.767060108221912],[-96.695507535649128,40.76702464149826],[-96.695554200418513,40.765674445969687],[-96.695600862023653,40.764324250080058],[-96.697376666296591,40.764359713446062],[-96.69742328885954,40.763009515516629],[-96.695647520464803,40.762974053829339],[-96.69569417574219,40.761623857217586],[-96.695740827856071,40.760273660244771],[-96.695787476806672,40.758923462910886],[-96.695834122594263,40.757573265215967],[-96.695880765219044,40.756223067160015],[-96.695927404681314,40.754872868743021],[-96.697702957857842,40.754908320359391],[-96.69947851419424,40.754943744685484],[-96.699525078771543,40.753593542552245],[-96.701300602403705,40.753628937912225],[-96.70307612919062,40.753664305982916],[-96.703029636336936,40.7550145114662],[-96.702983140330687,40.75636471658872],[-96.702936641171576,40.75771492135047],[-96.701161006791565,40.757679548256448],[-96.701114468610186,40.759029750982847],[-96.701067927273058,40.760379953348405],[-96.702843633393925,40.76041532979167],[-96.702797124774875,40.761765533471085],[-96.702750613002024,40.763115736789722],[-96.702704098075131,40.764465939747566],[-96.702657579993968,40.765816142344612],[-96.704433432780206,40.765851498186095],[-96.704386947428546,40.767201702096017],[-96.70434045892452,40.768551905645197],[-96.70429396726793,40.76990210883362],[-96.704247472458505,40.771252311661307],[-96.706023471948498,40.771287646891615],[-96.705977009879987,40.772637851031185],[-96.705930544660603,40.773988054810061],[-96.707706619092122,40.774023366076712],[-96.7076601866207,40.775373571166377],[-96.705884076290076,40.775338258228224],[-96.705837604768206,40.77668846128568],[-96.70579113009471,40.7780386639824],[-96.707567312230793,40.778073980263791],[-96.707520870311825,40.779424184271491],[-96.709297091503942,40.779459474910219],[-96.709250682344376,40.780809680227769],[-96.711026942593008,40.780844945221176],[-96.710980566197691,40.782195151847375],[-96.709204270037304,40.78215988518469],[-96.709157854582543,40.783510089781025],[-96.70738152565599,40.783474794130626],[-96.70733507113691,40.784824996695633],[-96.709111435979821,40.784860294016717],[-96.709065014228898,40.786210497891808],[-96.710841418139026,40.786245769562676],[-96.71079502916109,40.787595974746658],[-96.709018589329517,40.787560701406264],[-96.708972161281466,40.788910904560083],[-96.710748637036914,40.788946179570075],[-96.710702241766242,40.790296384032906],[-96.710655843348846,40.79164658813518],[-96.710609441784442,40.792996791876845],[-96.712386028473347,40.79303204456847],[-96.714162618307043,40.793067269932386],[-96.714116285463376,40.794417476649329],[-96.714069949477107,40.795767683005792],[-96.715846614324249,40.795802884373913],[-96.715800311134345,40.797153092036041],[-96.715754004803784,40.79850329933776],[-96.717530744672658,40.798538476705041],[-96.717484471145511,40.799888685311302],[-96.715707695332341,40.799853506279071],[-96.715661382719759,40.801203712859945],[-96.717438194479683,40.801238893557219],[-96.717391914674891,40.80258910144277],[-96.71561506696581,40.802553919080403],[-96.71556874807024,40.803904124940431],[-96.715522426032805,40.805254330440022],[-96.715476100853294,40.806604535579147],[-96.715429772531422,40.807954740357836],[-96.717206764061544,40.807989929381257],[-96.71898375873181,40.808025091062333],[-96.719030015135615,40.806674882954212],[-96.720806976984221,40.806710015630038],[-96.720760756539804,40.808060225400943],[-96.722537757483067,40.808095332396945],[-96.722491569865454,40.809445543469138],[-96.722445379114745,40.810795754181143],[-96.724222455117911,40.810830837154967],[-96.725999534251969,40.810865892783326],[-96.726045653072958,40.80951567875195],[-96.72782269937025,40.809550705376935],[-96.729599748793319,40.809585704657465],[-96.731376801339735,40.809620676593376],[-96.731422809143396,40.808270457232815],[-96.733199828847205,40.808305400170191],[-96.734976851669259,40.808340315763978],[-96.736753877607114,40.808375204014041],[-96.736707977694721,40.809725428332136],[-96.738485042710167,40.809760290888249],[-96.740262110836795,40.809795126099083],[-96.740216279744359,40.811145353356189],[-96.741993386946859,40.811180162868972]],[[-96.727638349190158,40.814951565973324],[-96.725861159017356,40.814916532716964],[-96.725815027681108,40.81626674530802],[-96.727592253828888,40.816301780222389],[-96.727638349190158,40.814951565973324]],[[-96.70846124487035,40.803763115448533],[-96.708507707569936,40.802412916262071],[-96.706730875593266,40.802377597215965],[-96.706684376943286,40.803727794730797],[-96.70846124487035,40.803763115448533]],[[-96.611497714771659,40.830168844368878],[-96.609720265404491,40.830132011038508],[-96.609671753460788,40.831482108347672],[-96.611449238818551,40.831518943420946],[-96.611497714771659,40.830168844368878]],[[-96.669040018181619,40.812430869530509],[-96.67081707104802,40.812466776201738],[-96.670864311078802,40.811116614925666],[-96.669087294174687,40.811080709953671],[-96.669040018181619,40.812430869530509]],[[-96.698313372961337,40.788698680710532],[-96.696536919299447,40.788663214438643],[-96.696490236625095,40.79001340550802],[-96.698266726211585,40.790048873458609],[-96.700043218961866,40.790084314085185],[-96.700089829786748,40.788734119659708],[-96.698313372961337,40.788698680710532]],[[-96.694620303501182,40.79267828792878],[-96.692843748393955,40.792642761967848],[-96.691067196458263,40.792607208680757],[-96.69102039649033,40.793957393622307],[-96.692796984357201,40.793992948592177],[-96.692750217148642,40.79534313485523],[-96.694526844121143,40.795378664179204],[-96.69457357539585,40.794028476234594],[-96.696350169603846,40.794063976549424],[-96.696396861777529,40.792713786563404],[-96.694620303501182,40.79267828792878]],[[-96.689243811797695,40.793921811325134],[-96.689196972722158,40.795271994221203],[-96.690973593348176,40.795307578202511],[-96.69102039649033,40.793957393622307],[-96.689243811797695,40.793921811325134]],[[-96.69471375020477,40.789977910233581],[-96.694760468803509,40.788627720844204],[-96.692984021475951,40.788592199927336],[-96.692937266953095,40.789942387635435],[-96.69471375020477,40.789977910233581]],[[-96.68872840719726,40.808773803303446],[-96.688775278052745,40.807423624021737],[-96.688822145729148,40.806073444378555],[-96.6870452407275,40.806037819582919],[-96.686998337096085,40.807387997540047],[-96.686951430283131,40.808738175135666],[-96.68872840719726,40.808773803303446]],[[-96.633307624225736,40.817107491769598],[-96.631530495361929,40.817071004004916],[-96.631482447925478,40.818421125781022],[-96.63143439722981,40.819771247193422],[-96.633211598034535,40.81980773841159],[-96.633259612758536,40.818457615272415],[-96.633307624225736,40.817107491769598]]],[[[-96.770337074580254,40.814433904904831],[-96.770382300334177,40.81308365053453],[-96.772159495990266,40.813117996757327],[-96.773936694711722,40.813152315629637],[-96.773891540910128,40.814502573249761],[-96.772114306212387,40.814468252753194],[-96.770337074580254,40.814433904904831]]],[[[-96.713281756658631,40.818721135909158],[-96.713328146106079,40.817370935681481],[-96.715105386272469,40.817406163715553],[-96.715059032803183,40.818756365610419],[-96.713281756658631,40.818721135909158]]],[[[-96.711458055086268,40.820036077054077],[-96.711504483661031,40.818685878855511],[-96.713281756658631,40.818721135909158],[-96.713235364064204,40.820071335776277],[-96.711458055086268,40.820036077054077]]],[[[-96.70593996943083,40.825330905898909],[-96.705986518574392,40.823980714157152],[-96.706033064560259,40.822630522054531],[-96.707810436048547,40.822665866182014],[-96.707763926049594,40.824016059957259],[-96.707717412895391,40.825366253371712],[-96.70593996943083,40.825330905898909]]],[[[-96.70144016962287,40.749578324320638],[-96.699664753561237,40.749542933987264],[-96.699711305511201,40.74819273041053],[-96.701486685720852,40.748228119068486],[-96.703262069084289,40.748263480442333],[-96.705037455599125,40.748298814531907],[-96.704991011205848,40.749649023130985],[-96.703215588838546,40.749613687368587],[-96.70144016962287,40.749578324320638]]],[[[-96.703122618891953,40.752314100138882],[-96.701347127964539,40.752278733742514],[-96.701393650370846,40.750928529211976],[-96.703169105441191,40.750963893934106],[-96.703122618891953,40.752314100138882]]],[[[-96.701719218908508,40.741477087395964],[-96.699944017922391,40.741441707114014],[-96.699990550938608,40.740091501372191],[-96.701765716087294,40.740126879979144],[-96.701719218908508,40.741477087395964]]],[[[-96.69518183537788,40.827818608815846],[-96.695135060784949,40.82916878941046],[-96.695088283018734,40.830518969643769],[-96.693310717735756,40.830483423938198],[-96.693263900796182,40.83183360212815],[-96.695041502079008,40.831869149515803],[-96.694994717965528,40.833219329026512],[-96.69494793067804,40.834569508175932],[-96.694901140216331,40.83591968696404],[-96.693123430919343,40.835884134529742],[-96.691345724799305,40.835848554727789],[-96.689568021858634,40.835812947558317],[-96.689614920341086,40.834462773820931],[-96.687837256588622,40.834427140970256],[-96.687884187893502,40.833076968557457],[-96.687931116014624,40.831726795783091],[-96.689708707761554,40.831762425261651],[-96.689755596700067,40.830412250439743],[-96.691533155628704,40.830447850870144],[-96.691580005389497,40.829097674002142],[-96.68980248245775,40.829062075256353],[-96.68984936503486,40.827711899711453],[-96.689896244431651,40.826361723805086],[-96.691673695376863,40.826397319181886],[-96.691720535603949,40.825047141229646],[-96.693497953736951,40.825082707564867],[-96.695275375044943,40.825118246542793],[-96.695228606797812,40.82646842785995],[-96.69518183537788,40.827818608815846]]],[[[-96.691767372653615,40.823696962915982],[-96.691814206526132,40.822346784240928],[-96.693591552686755,40.822382347210151],[-96.69354475479922,40.823732527568175],[-96.691767372653615,40.823696962915982]]],[[[-96.690783127029292,40.85205063159966],[-96.689004991818408,40.852015004206486],[-96.689051928498685,40.850664834807759],[-96.690830027673627,40.850700460515249],[-96.690783127029292,40.85205063159966]]],[[[-96.685737559704791,40.792500384863985],[-96.683961020479614,40.792464722273678],[-96.684007960986094,40.791114543714578],[-96.685784464283515,40.791150204617004],[-96.685737559704791,40.792500384863985]]],[[[-96.678584370436667,40.793707743676585],[-96.678631421915995,40.792357570550664],[-96.680407951582779,40.792393315116897],[-96.680360936032912,40.793743489934634],[-96.678584370436667,40.793707743676585]]],[[[-96.672782924182314,40.807102001460613],[-96.671006011947057,40.807066128924554],[-96.671053239162603,40.805715966199898],[-96.672830115445052,40.805751837038287],[-96.672782924182314,40.807102001460613]]],[[[-96.673663280725521,40.832790934125562],[-96.675440882935732,40.832826784203306],[-96.67539369960987,40.834176944777234],[-96.67717134102314,40.834212769186486],[-96.677124190500919,40.83556293109357],[-96.678901871117773,40.835598729831659],[-96.678854753404039,40.836948893070733],[-96.678807632493644,40.838299055947871],[-96.677029879859589,40.838263253821736],[-96.675252130424894,40.838227424326632],[-96.675204934293305,40.839577583452289],[-96.673427152048632,40.83954172489166],[-96.673379916700782,40.840891881958463],[-96.67160210164667,40.840855994329779],[-96.671554827077671,40.842206149336292],[-96.669776979214561,40.842170232637059],[-96.667999134561313,40.842134288565546],[-96.667951784747984,40.843484439809522],[-96.666173907288936,40.843448466663794],[-96.664396033044852,40.843412466144791],[-96.66434860797817,40.844762613620787],[-96.664301179693823,40.846112760734265],[-96.662523236624651,40.846076729432582],[-96.662475769097469,40.847426874478657],[-96.660697793223989,40.847390814095213],[-96.658919820573558,40.84735472633502],[-96.658967360149816,40.846004584702591],[-96.657189426749042,40.845968471274581],[-96.657236999121807,40.844618330988105],[-96.659014896500864,40.84465444270743],[-96.659062429626914,40.843304300349537],[-96.657284568267158,40.843268190338854],[-96.65733213418531,40.841918049326821],[-96.657379696876561,40.840567907952],[-96.657427256341123,40.839217766214418],[-96.655649506251038,40.8391816339605],[-96.655697098498464,40.837831493569809],[-96.65574468751727,40.836481352816293],[-96.655792273307711,40.835131211699931],[-96.655839855870013,40.833781070220773],[-96.657617461937562,40.833817195636527],[-96.657665005272463,40.832467052085192],[-96.655887435204448,40.832430928378812],[-96.655935011311257,40.831080786174056],[-96.655982584190696,40.829730643606489],[-96.657760082266947,40.82976676389432],[-96.659537583567868,40.829802856822539],[-96.661315088091058,40.829838922390955],[-96.66136254976594,40.828488774337004],[-96.663140021515972,40.828524810840221],[-96.663092595834058,40.829874960599476],[-96.664870106794453,40.829910971447944],[-96.664822713890814,40.831261122548732],[-96.664775317771998,40.832611273287078],[-96.664727918437748,40.833961423662956],[-96.664680515887795,40.835311573676378],[-96.664633110121926,40.836661723327332],[-96.666410804301151,40.836697715330104],[-96.666458174061376,40.835347563976107],[-96.6665055406081,40.833997412259713],[-96.666552903941579,40.832647260180927],[-96.666600264062055,40.831297107739751],[-96.668377817446043,40.831333065569126],[-96.670155374040348,40.831368996036709],[-96.671932933842527,40.83140489914237],[-96.671885681718564,40.832755056684306],[-96.671838426388902,40.834105213864056],[-96.673616061397638,40.834141093003034],[-96.673663280725521,40.832790934125562]],[[-96.657569915377223,40.835167338825123],[-96.65934756067243,40.835203438585495],[-96.659395071230549,40.833853293688755],[-96.657617461937562,40.833817195636527],[-96.657569915377223,40.835167338825123]]],[[[-96.67511053242373,40.842277900617361],[-96.673332678148213,40.842242038663095],[-96.673379916700782,40.840891881958463],[-96.675157734959669,40.840927742215861],[-96.67511053242373,40.842277900617361]]],[[[-96.673285436390657,40.843592195005584],[-96.671507549301296,40.843556303980556],[-96.671554827077671,40.842206149336292],[-96.673332678148213,40.842242038663095],[-96.673285436390657,40.843592195005584]]],[[[-96.669370882802937,40.802979744886152],[-96.669323626045824,40.804329906636255],[-96.669276366083352,40.805680068024145],[-96.667499496209714,40.805644142511163],[-96.667546792122081,40.804293982823452],[-96.667594084826632,40.802943822773464],[-96.669370882802937,40.802979744886152]]],[[[-96.663945766089057,40.805572209474086],[-96.662168905846897,40.805536201950289],[-96.662216309607416,40.80418604737087],[-96.663993133900448,40.804222053190621],[-96.663945766089057,40.805572209474086]]],[[[-96.667357589223272,40.809694619400688],[-96.665580614694193,40.809658661445781],[-96.665627956188416,40.808308504546567],[-96.667404894760551,40.808344460799781],[-96.667357589223272,40.809694619400688]]],[[[-96.653522538157446,40.798605020457472],[-96.655299202583294,40.798641156111216],[-96.655251667926578,40.79999130531241],[-96.653474967562559,40.799955167948418],[-96.651698270425072,40.799919003253642],[-96.651745876957889,40.79856885747423],[-96.653522538157446,40.798605020457472]]],[[[-96.652236998855457,40.835058875355742],[-96.652189341056925,40.836409013049199],[-96.652141680025167,40.837759150379689],[-96.652094015759914,40.839109287347213],[-96.65031627536375,40.839073072988128],[-96.650268571853772,40.840423207879105],[-96.650220865107343,40.841773342407031],[-96.65017315512425,40.843123476571911],[-96.648395309924751,40.843087229699854],[-96.646617467964631,40.843050955455951],[-96.644839629246306,40.843014653840342],[-96.643061793772233,40.842978324853192],[-96.643109647816274,40.841628197556162],[-96.641331851603496,40.841591842917801],[-96.641283961544843,40.842941968494628],[-96.639506132566581,40.8429055847648],[-96.63772830683989,40.842869173663857],[-96.637680341498765,40.844219295432886],[-96.635902483009758,40.844182855236816],[-96.635854478395657,40.845532974918093],[-96.634076587144861,40.845496505624396],[-96.63402854325291,40.846846623216486],[-96.632250619240821,40.846810124822632],[-96.632202536066103,40.848160240324084],[-96.630424579293219,40.848123712827601],[-96.628646625785095,40.84808715795554],[-96.626868675544173,40.848050575708072],[-96.626916866786701,40.846700465395188],[-96.625138955837514,40.846663857504552],[-96.623361048160135,40.846627222240066],[-96.62340930817237,40.845277115028601],[-96.62163143978843,40.845240454125054],[-96.62158314375705,40.846590559601893],[-96.619805242630648,40.846553869590181],[-96.619853574680945,40.845203765849256],[-96.618075712852345,40.845167050201347],[-96.618027344783386,40.84651715220506],[-96.616249450217708,40.846480407446684],[-96.61629785430506,40.845130307181485],[-96.614519999041548,40.845093536789811],[-96.614471558936046,40.846443635315211],[-96.612693670940828,40.846406835810761],[-96.612742147064239,40.845056739026461],[-96.610964298375578,40.845019913891591],[-96.611012807225549,40.843669818485083],[-96.609234997842904,40.843632967722449],[-96.609283539414562,40.842282873694899],[-96.60750576933745,40.84224599730716],[-96.607554343625921,40.840895904659732],[-96.60933207769321,40.840932779302705],[-96.611109815053254,40.840969626578321],[-96.611158314031513,40.839619530078089],[-96.612936018673992,40.839656348244105],[-96.61471372660408,40.839693139043767],[-96.616491437819377,40.83972990247694],[-96.618269152317424,40.839766638543473],[-96.618317503982283,40.838416534718263],[-96.620095185754167,40.838453241681137],[-96.621872870803671,40.838489921278367],[-96.623650559128379,40.838526573509817],[-96.623698799500332,40.837176464113817],[-96.625476455092993,40.837213087246411],[-96.625428250725832,40.838563198375326],[-96.627205945593602,40.838599795874757],[-96.628983643729242,40.838636366007968],[-96.629031776086066,40.837286251417105],[-96.630809441481617,40.837322792454898],[-96.632587110139895,40.837359306127475],[-96.634364782058483,40.837395792434677],[-96.636142457234939,40.837432251376377],[-96.637920135666846,40.837468682952419],[-96.637968084740464,40.836118559365765],[-96.639745730420998,40.836154961853495],[-96.639697817351745,40.837505087162654],[-96.641475502287207,40.837541464006947],[-96.643253190470787,40.83757781348514],[-96.643301031530569,40.836227684734851],[-96.645078686954733,40.836264005128186],[-96.64685634562187,40.836300298156438],[-96.646904111430644,40.834950165607012],[-96.646951873999114,40.833600032694441],[-96.646999633327511,40.832249899418713],[-96.648777187233037,40.832286159934021],[-96.650554744375924,40.832322393087821],[-96.652332304753742,40.832358598879978],[-96.652284653420963,40.833708737299325],[-96.652236998855457,40.835058875355742]]],[[[-96.658872277771792,40.848704867604724],[-96.657094272320236,40.848668750759138],[-96.657141851148609,40.847318611198254],[-96.658919820573558,40.84735472633502],[-96.658872277771792,40.848704867604724]]],[[[-96.631770683664456,40.810320389669059],[-96.629993737868105,40.810283883197513],[-96.630041801708828,40.808933760966923],[-96.631818711550778,40.808970265710876],[-96.631770683664456,40.810320389669059]]],[[[-96.603755620836793,40.847572515393807],[-96.60553352838221,40.847609453508504],[-96.605484901592192,40.848959542585867],[-96.605436271503009,40.850309631298408],[-96.605387638114451,40.85165971964615],[-96.603609622497174,40.85162277628816],[-96.60365829191214,40.850272689688268],[-96.60188031562312,40.850235720702159],[-96.601929017759929,40.84888563548644],[-96.603706958025256,40.848922602723484],[-96.603755620836793,40.847572515393807]]]]}}
]
}
