{
"type": "FeatureCollection",
"name": "n27th-superior__tue_2000",
"crs": { "type": "name", "properties": { "name": "urn:ogc:def:crs:OGC:1.3:CRS84" } },
"features": [
{"type":"Feature","properties":{"band":15},"geometry":{"type":"Polygon","coordinates":[[[-96.683576506154353,40.854608285312629],[-96.683529451790804,40.855958448561168],[-96.68530768556036,40.855994163171687],[-96.685260664048968,40.85734432774823],[-96.687038937054098,40.857380016660791],[-96.686991948399736,40.858730182564202],[-96.686944956556985,40.860080348105896],[-96.686897961525545,40.86143051328591],[-96.68511958037017,40.861394819307328],[-96.683341202406126,40.861359097937076],[-96.683294132076099,40.862709259376466],[-96.681515721251372,40.862673508923294],[-96.681468611670383,40.864023668309393],[-96.679690167985456,40.863987888770765],[-96.679643019148642,40.865338046102117],[-96.677864542604013,40.865302237475547],[-96.676086069261231,40.865266401454001],[-96.676133290215546,40.863916247512194],[-96.677911727499691,40.863952081838328],[-96.677958909193791,40.862601925839051],[-96.67618050796581,40.862566093208265],[-96.67622772251228,40.86121593854223],[-96.676274933855197,40.859865783514067],[-96.674496607935566,40.859829926884125],[-96.672718285221691,40.85979404286465],[-96.672765565458249,40.858443890868571],[-96.674543852123776,40.858479773190311],[-96.674591093106486,40.857129619134334],[-96.674638330883937,40.855779464716178],[-96.676416548665046,40.855815316257015],[-96.676463747196209,40.854465159780496],[-96.676510942525042,40.853115002941898],[-96.678289091428098,40.853150823707132],[-96.680067243530814,40.853186617089058],[-96.681845398830703,40.853222383087498],[-96.681798311619886,40.854572545006825],[-96.683576506154353,40.854608285312629]],[[-96.681751221214057,40.8559227065643],[-96.681704127613003,40.857272867759882],[-96.68348239423446,40.85730861144787],[-96.683529451790804,40.855958448561168],[-96.681751221214057,40.8559227065643]]]}},
{"type":"Feature","properties":{"band":30},"geometry":{"type":"MultiPolygon","coordinates":[[[[-96.705148150631118,40.848284110291132],[-96.705101544607899,40.849634295536362],[-96.706879636297842,40.849669673129121],[-96.706833063148011,40.851019859687341],[-96.705054935422382,40.850984480420614],[-96.70500832307431,40.852334664943896],[-96.706786486838098,40.852370045884655],[-96.706739907367819,40.853720231721056],[-96.70496170756347,40.85368484910618],[-96.704915088889607,40.855035032907473],[-96.704868467052478,40.856385216347761],[-96.703090198323167,40.856349802996448],[-96.703043537274851,40.857699984400149],[-96.702996873060357,40.859050165442767],[-96.701218535399747,40.859014721349688],[-96.701171831966505,40.860364900354199],[-96.69939346142273,40.860329427192447],[-96.697615094050533,40.860293926639187],[-96.695836729852331,40.860258398694555],[-96.695789915087232,40.861608572298863],[-96.694011518011735,40.861573015280747],[-96.692233124115376,40.86153743087025],[-96.692186234061424,40.862887600747229],[-96.690407807290939,40.862851987259567],[-96.6904547334006,40.86150181906752],[-96.688676345869837,40.861466179872693],[-96.686897961525545,40.86143051328591],[-96.686944956556985,40.860080348105896],[-96.686991948399736,40.858730182564202],[-96.687038937054098,40.857380016660791],[-96.685260664048968,40.85734432774823],[-96.68530768556036,40.855994163171687],[-96.683529451790804,40.855958448561168],[-96.683576506154353,40.854608285312629],[-96.685354703881387,40.854643998233385],[-96.68540171901229,40.853293832933367],[-96.687179883889115,40.853329516780526],[-96.688958051953392,40.853365173243638],[-96.689004991818408,40.852015004206486],[-96.690783127029292,40.85205063159966],[-96.690736223202634,40.853400802322554],[-96.690689316193442,40.854750972683902],[-96.692467526666292,40.854786576063006],[-96.694245740319516,40.854822152056364],[-96.696023957150643,40.8548577006638],[-96.696070756035937,40.853507525252766],[-96.696117551745985,40.852157349480407],[-96.697895699671449,40.852192867340591],[-96.697942456169599,40.850842689526388],[-96.697989209495461,40.849492511350945],[-96.696211133641384,40.8494569968517],[-96.696257919827232,40.848106819995387],[-96.69803595964926,40.848142332814263],[-96.698082706631254,40.846792153916347],[-96.698129450441684,40.84544197465717],[-96.696351482676391,40.845406465198849],[-96.694573518084866,40.845370928363522],[-96.692795556669523,40.845335364151346],[-96.691017598432836,40.84529977256247],[-96.691064483169328,40.843949599670516],[-96.691111364724989,40.842599426417081],[-96.691158243100048,40.841249252802164],[-96.69293609327211,40.841284839339103],[-96.692889250916153,40.842635014637935],[-96.694667140285461,40.842670575484661],[-96.694620330773134,40.844020752104768],[-96.696398259340199,40.844056287258631],[-96.698176191080776,40.844091795036796],[-96.698222928548802,40.842741615055196],[-96.700000827437933,40.842777093778714],[-96.701778729495473,40.842812545127551],[-96.70355663471895,40.842847969101548],[-96.703510005319217,40.844198154115681],[-96.703463372755721,40.845548338768822],[-96.70341673702822,40.846898523060908],[-96.705194753492293,40.846933924684926],[-96.705148150631118,40.848284110291132]],[[-96.697848940000739,40.853543044793525],[-96.697802177157257,40.854893221885199],[-96.699580400336899,40.854928715720405],[-96.699627127138356,40.853578536949378],[-96.699673850769443,40.852228357817168],[-96.697895699671449,40.852192867340591],[-96.697848940000739,40.853543044793525]]],[[[-96.687508648288855,40.843878337735177],[-96.685730735625981,40.843842665704948],[-96.683952826151256,40.843806966299873],[-96.683999851790617,40.842456799795293],[-96.685777725244776,40.842492497511216],[-96.685824711675679,40.841142328955797],[-96.687602552299396,40.841177997610373],[-96.6876494995267,40.839827827005543],[-96.689427307319477,40.83986346660128],[-96.689380396108334,40.84121363889254],[-96.689333481714414,40.842563810822256],[-96.689286564137461,40.843913982390411],[-96.687508648288855,40.843878337735177]]],[[[-96.681798311619886,40.854572545006825],[-96.681845398830703,40.853222383087498],[-96.683623557325348,40.853258121702318],[-96.683576506154353,40.854608285312629],[-96.681798311619886,40.854572545006825]]],[[[-96.68348239423446,40.85730861144787],[-96.681704127613003,40.857272867759882],[-96.681751221214057,40.8559227065643],[-96.683529451790804,40.855958448561168],[-96.68348239423446,40.85730861144787]]],[[[-96.685072546094858,40.862744982436837],[-96.683294132076099,40.862709259376466],[-96.683341202406126,40.861359097937076],[-96.68511958037017,40.861394819307328],[-96.685072546094858,40.862744982436837]]],[[[-96.681515721251372,40.862673508923294],[-96.683294132076099,40.862709259376466],[-96.683247058552027,40.864059420454033],[-96.681468611670383,40.864023668309393],[-96.681515721251372,40.862673508923294]]],[[[-96.681468611670383,40.864023668309393],[-96.681421498892675,40.865373827333556],[-96.679643019148642,40.865338046102117],[-96.679690167985456,40.863987888770765],[-96.681468611670383,40.864023668309393]]],[[[-96.681374382917994,40.866723985995812],[-96.681421498892675,40.865373827333556],[-96.683199981833681,40.865409581169743],[-96.683152901920806,40.866759741523587],[-96.681374382917994,40.866723985995812]]]]}},
{"type":"Feature","properties":{"band":45},"geometry":{"type":"MultiPolygon","coordinates":[[[[-96.713606416718321,40.809269726743736],[-96.713560046147506,40.81061992913471],[-96.713513672431191,40.811970131165154],[-96.713467295569131,40.813320332835069],[-96.715244427815691,40.813355555867965],[-96.715198083778503,40.814705758844319],[-96.713420915561088,40.814670534144433],[-96.713374532406817,40.816020735093232],[-96.713328146106079,40.817370935681481],[-96.711550909086398,40.81733568029631],[-96.711504483661031,40.818685878855511],[-96.713281756658631,40.818721135909158],[-96.713235364064204,40.820071335776277],[-96.711458055086268,40.820036077054077],[-96.711411623361883,40.821386274892006],[-96.709634281551033,40.821350987146346],[-96.709587810691815,40.822701182953637],[-96.707810436048547,40.822665866182014],[-96.706033064560259,40.822630522054531],[-96.705986518574392,40.823980714157152],[-96.704209114256855,40.823945341000034],[-96.70416252912419,40.825295531067809],[-96.704115940831173,40.826645720774643],[-96.70589341712936,40.826681097279781],[-96.705846861669741,40.828031288299798],[-96.707624377120339,40.828066639118184],[-96.707577854498979,40.829416831450224],[-96.707531328721416,40.830767023421437],[-96.707484799787423,40.832117215031815],[-96.705707176339487,40.832081859194538],[-96.705660608244813,40.833432048770995],[-96.707438267696716,40.833467406281372],[-96.707391732449082,40.834817597170087],[-96.709169431064595,40.834852928986145],[-96.70912292866889,40.836203121185946],[-96.709076423118191,40.837553313024983],[-96.707298652482038,40.837517977864998],[-96.707252107762145,40.838868167671173],[-96.707205559884329,40.840218357116491],[-96.708983402550899,40.840253695620682],[-96.70893688753381,40.841603886377335],[-96.708890369360745,40.842954076773196],[-96.708843848031492,40.844304266808223],[-96.708797323545795,40.84565445648245],[-96.708750795903427,40.847004645795856],[-96.708704265104117,40.84835483474842],[-96.708657731147639,40.849705023340157],[-96.710435829154861,40.849740346169348],[-96.710389328077142,40.851090536071624],[-96.70861119403375,40.851055211571051],[-96.706833063148011,40.851019859687341],[-96.706879636297842,40.849669673129121],[-96.705101544607899,40.849634295536362],[-96.705148150631118,40.848284110291132],[-96.705194753492293,40.846933924684926],[-96.70341673702822,40.846898523060908],[-96.703463372755721,40.845548338768822],[-96.703510005319217,40.844198154115681],[-96.70355663471895,40.842847969101548],[-96.701778729495473,40.842812545127551],[-96.700000827437933,40.842777093778714],[-96.698222928548802,40.842741615055196],[-96.698176191080776,40.844091795036796],[-96.696398259340199,40.844056287258631],[-96.694620330773134,40.844020752104768],[-96.694667140285461,40.842670575484661],[-96.692889250916153,40.842635014637935],[-96.69293609327211,40.841284839339103],[-96.691158243100048,40.841249252802164],[-96.691111364724989,40.842599426417081],[-96.691064483169328,40.843949599670516],[-96.691017598432836,40.84529977256247],[-96.692795556669523,40.845335364151346],[-96.694573518084866,40.845370928363522],[-96.696351482676391,40.845406465198849],[-96.698129450441684,40.84544197465717],[-96.698082706631254,40.846792153916347],[-96.69803595964926,40.848142332814263],[-96.696257919827232,40.848106819995387],[-96.696211133641384,40.8494569968517],[-96.694433060961799,40.849421454971598],[-96.694386235567251,40.850771629784866],[-96.692608130030621,40.850736058841001],[-96.692654991459179,40.849385885710745],[-96.69087692513591,40.849350289069314],[-96.690923819416369,40.848000117261876],[-96.689145792305979,40.847964494925542],[-96.689192719433478,40.846614324442065],[-96.687414731535469,40.846578676413486],[-96.687461691505149,40.845228507255143],[-96.685683742819009,40.845192833536984],[-96.685730735625981,40.843842665704948],[-96.687508648288855,40.843878337735177],[-96.689286564137461,40.843913982390411],[-96.689333481714414,40.842563810822256],[-96.689380396108334,40.84121363889254],[-96.689427307319477,40.83986346660128],[-96.691205118294775,40.839899078825766],[-96.692982932450164,40.839934663678847],[-96.693029768450572,40.838584487657215],[-96.694807549769166,40.838620043456281],[-96.696585334262736,40.838655571884985],[-96.696632095061403,40.83730539213839],[-96.698409846714995,40.837340891516718],[-96.698456568331281,40.835990709729117],[-96.700234287144426,40.836026180059605],[-96.700280969583218,40.834675996232413],[-96.698503286777964,40.834640527580319],[-96.696725607142099,40.834605031561445],[-96.696772358424624,40.833254850731109],[-96.694994717965528,40.833219329026512],[-96.695041502079008,40.831869149515803],[-96.695088283018734,40.830518969643769],[-96.695135060784949,40.82916878941046],[-96.69518183537788,40.827818608815846],[-96.695228606797812,40.82646842785995],[-96.695275375044943,40.825118246542793],[-96.695322140119558,40.823768064864353],[-96.695368902021883,40.822417882824652],[-96.697146254529045,40.822453391084295],[-96.697192977276288,40.82110320700302],[-96.695415660752161,40.821067700423697],[-96.695462416310619,40.819717517661495],[-96.695509168697541,40.818367334538031],[-96.69373192730346,40.818331803968157],[-96.691954689083133,40.818296246047431],[-96.69200151024944,40.816946065926849],[-96.693778712494549,40.81698162216486],[-96.693825494512112,40.81563144000026],[-96.695602663957672,40.815666967207399],[-96.695649406831379,40.814316783000237],[-96.697426543476908,40.814352281178977],[-96.697473247211619,40.813002094930674],[-96.697519947778446,40.811651908321231],[-96.697566645177588,40.810301721350633],[-96.69761333940933,40.80895153401891],[-96.699390335362992,40.808986998136319],[-96.699436990468641,40.80763680876511],[-96.701213953627885,40.807672243863237],[-96.701260569612316,40.806322052453972],[-96.703037499976645,40.806357458535324],[-96.703084076844718,40.805007265089444],[-96.704860974413648,40.805042642156543],[-96.704907512170251,40.803692446675463],[-96.706684376943286,40.803727794730797],[-96.706637875139279,40.805077991884851],[-96.708414779019179,40.805113314274266],[-96.708368310016169,40.806463512739299],[-96.710145253003418,40.806498809460123],[-96.710098816806266,40.807849009234978],[-96.711875798901346,40.807884280284554],[-96.71182939551494,40.809234481368051],[-96.713606416718321,40.809269726743736]]],[[[-96.706786486838098,40.852370045884655],[-96.70500832307431,40.852334664943896],[-96.705054935422382,40.850984480420614],[-96.706833063148011,40.851019859687341],[-96.706786486838098,40.852370045884655]]],[[[-96.704821842051814,40.857735399427064],[-96.704775213887402,40.859085582145347],[-96.702996873060357,40.859050165442767],[-96.703043537274851,40.857699984400149],[-96.703090198323167,40.856349802996448],[-96.704868467052478,40.856385216347761],[-96.704915088889607,40.855035032907473],[-96.70496170756347,40.85368484910618],[-96.706739907367819,40.853720231721056],[-96.706786486838098,40.852370045884655],[-96.708564653762195,40.85240539944111],[-96.708518110332747,40.853755586950314],[-96.708471563745164,40.855105774098654],[-96.708425013999175,40.85645596088613],[-96.708378461094568,40.857806147312736],[-96.706600149992539,40.857770787064638],[-96.704821842051814,40.857735399427064]]],[[[-96.701218535399747,40.859014721349688],[-96.702996873060357,40.859050165442767],[-96.702950205679414,40.860400346124301],[-96.702903535131782,40.861750526444752],[-96.701125125364143,40.861715078997548],[-96.699346718765881,40.861679604157409],[-96.697568315339439,40.861644101924462],[-96.695789915087232,40.861608572298863],[-96.695836729852331,40.860258398694555],[-96.697615094050533,40.860293926639187],[-96.69939346142273,40.860329427192447],[-96.701171831966505,40.860364900354199],[-96.701218535399747,40.859014721349688]]],[[[-96.697989209495461,40.849492511350945],[-96.697942456169599,40.850842689526388],[-96.697895699671449,40.852192867340591],[-96.696117551745985,40.852157349480407],[-96.696164344281058,40.850807173346716],[-96.696211133641384,40.8494569968517],[-96.697989209495461,40.849492511350945]]],[[[-96.697895699671449,40.852192867340591],[-96.699673850769443,40.852228357817168],[-96.699627127138356,40.853578536949378],[-96.699580400336899,40.854928715720405],[-96.697802177157257,40.854893221885199],[-96.697848940000739,40.853543044793525],[-96.697895699671449,40.852192867340591]]],[[[-96.694292575246351,40.853471978327271],[-96.696070756035937,40.853507525252766],[-96.696023957150643,40.8548577006638],[-96.694245740319516,40.854822152056364],[-96.694292575246351,40.853471978327271]]],[[[-96.684046874239641,40.841106632928962],[-96.685824711675679,40.841142328955797],[-96.685777725244776,40.842492497511216],[-96.683999851790617,40.842456799795293],[-96.683952826151256,40.843806966299873],[-96.683905797321287,40.845157132442694],[-96.683858765300485,40.846507298223742],[-96.683811730088621,40.847857463643031],[-96.685589747639654,40.847893168115974],[-96.685542745266773,40.849243334862905],[-96.683764691685411,40.849207628700526],[-96.683717650090614,40.850557793396248],[-96.685495739704734,40.850593501248113],[-96.685448730953325,40.851943667271605],[-96.68540171901229,40.853293832933367],[-96.683623557325348,40.853258121702318],[-96.681845398830703,40.853222383087498],[-96.680067243530814,40.853186617089058],[-96.680114363584011,40.85183645650006],[-96.680161480440276,40.850486295549132],[-96.680208594099838,40.849136134236289],[-96.680255704562938,40.847785972561525],[-96.680302811829847,40.846435810524831],[-96.678524839887231,40.846400025609789],[-96.678571979982877,40.845049864904382],[-96.678619116880355,40.843699703836982],[-96.678666250579937,40.842349542407632],[-96.678713381081835,40.840999380616324],[-96.680491208940268,40.841035158759091],[-96.680538300229813,40.839684994912936],[-96.68058538832463,40.838334830704902],[-96.680632473224975,40.836984666134995],[-96.682410196240113,40.837020411831311],[-96.684187922447066,40.837056130159517],[-96.684140909567617,40.838406298111074],[-96.685918674974744,40.838441990759939],[-96.685871694918916,40.839792160038698],[-96.684093893498556,40.839756465700887],[-96.684046874239641,40.841106632928962]]],[[[-96.689004991818408,40.852015004206486],[-96.688958051953392,40.853365173243638],[-96.687179883889115,40.853329516780526],[-96.687226859792275,40.85197934943043],[-96.689004991818408,40.852015004206486]]],[[[-96.69251439763444,40.853436404017145],[-96.692467526666292,40.854786576063006],[-96.690689316193442,40.854750972683902],[-96.690736223202634,40.853400802322554],[-96.69251439763444,40.853436404017145]]],[[[-96.688582418352894,40.864166512522708],[-96.688535449814111,40.865516678305241],[-96.690313945518568,40.865552322558941],[-96.69026700985539,40.866902489666252],[-96.688488478088118,40.866866843726129],[-96.686709949508327,40.866831170388892],[-96.686662938529906,40.868181333760333],[-96.68488437707525,40.868145631337029],[-96.684837326839514,40.869495792657595],[-96.684790273410954,40.870845953616346],[-96.683011643012563,40.870810220413937],[-96.682964550319113,40.872160379320313],[-96.682917454429898,40.873510537864796],[-96.68287035534469,40.874860696047385],[-96.682823253063233,40.876210853868081],[-96.681044481559397,40.876175086497192],[-96.680997340000076,40.87752524226385],[-96.679218535614083,40.877489445793891],[-96.679265713254495,40.87613929172069],[-96.677486948150985,40.876103469538698],[-96.677534158668422,40.87475331679812],[-96.679312887693513,40.87478913728544],[-96.679360058931408,40.873438982488153],[-96.681138755081435,40.873474773877987],[-96.681185887044663,40.872124617025442],[-96.681233015809681,40.870774459810946],[-96.679454391804754,40.870738671807516],[-96.679501553440701,40.869388515924186],[-96.677722968704813,40.869352702214847],[-96.677675771000224,40.870702856403788],[-96.675897153398537,40.870667013599899],[-96.675849916420276,40.872017165731009],[-96.675802676236472,40.873367317499962],[-96.675755432846898,40.874717468906759],[-96.675708186251299,40.876067619951378],[-96.673929427557894,40.876031742958851],[-96.672150672073201,40.875995838561295],[-96.672197990824387,40.87464569091248],[-96.672245306364658,40.87329554290136],[-96.670466626243524,40.873259614498494],[-96.670513974645672,40.871909467824779],[-96.668735333809934,40.87187351372075],[-96.668782715069057,40.870523368385612],[-96.667004113518217,40.870487388583058],[-96.667051527629454,40.869137244587677],[-96.66527296536303,40.869101239089282],[-96.663494406316275,40.869065206193042],[-96.663541889338944,40.867715065243203],[-96.663589369139714,40.86636492393076],[-96.66536785606047,40.866400953417724],[-96.665415296580264,40.86505081003812],[-96.665462733881142,40.863700666295991],[-96.667241151904364,40.863736664981239],[-96.667288549931826,40.862386519173469],[-96.667335944743272,40.861036373003238],[-96.66911429387531,40.861072340892093],[-96.669161649420943,40.859722192657721],[-96.670939965716002,40.859758131455806],[-96.672718285221691,40.85979404286465],[-96.674496607935566,40.859829926884125],[-96.676274933855197,40.859865783514067],[-96.67622772251228,40.86121593854223],[-96.67618050796581,40.862566093208265],[-96.677958909193791,40.862601925839051],[-96.677911727499691,40.863952081838328],[-96.676133290215546,40.863916247512194],[-96.676086069261231,40.865266401454001],[-96.677864542604013,40.865302237475547],[-96.679643019148642,40.865338046102117],[-96.681421498892675,40.865373827333556],[-96.681468611670383,40.864023668309393],[-96.683247058552027,40.864059420454033],[-96.683294132076099,40.862709259376466],[-96.685072546094858,40.862744982436837],[-96.68511958037017,40.861394819307328],[-96.686897961525545,40.86143051328591],[-96.686850963305204,40.86278067810423],[-96.688629383704708,40.862816346378523],[-96.690407807290939,40.862851987259567],[-96.692186234061424,40.862887600747229],[-96.692139340825648,40.864237770262697],[-96.690360877997023,40.864202155090041],[-96.688582418352894,40.864166512522708]],[[-96.675944387171526,40.869316861106647],[-96.674165808843256,40.869280992599727],[-96.674118539002137,40.87063114339599],[-96.675897153398537,40.870667013599899],[-96.675944387171526,40.869316861106647]],[[-96.681374382917994,40.866723985995812],[-96.683152901920806,40.866759741523587],[-96.683199981833681,40.865409581169743],[-96.681421498892675,40.865373827333556],[-96.681374382917994,40.866723985995812]]],[[[-96.692233124115376,40.86153743087025],[-96.694011518011735,40.861573015280747],[-96.693964664013734,40.862923186841364],[-96.692186234061424,40.862887600747229],[-96.692233124115376,40.86153743087025]]],[[[-96.680914915556528,40.828883671116607],[-96.68269242256099,40.828919406665513],[-96.682645392818088,40.830269575097581],[-96.680867849817943,40.830233837857605],[-96.680914915556528,40.828883671116607]]]]}},
{"type":"Feature","properties":{"band":60},"geometry":{"type":"MultiPolygon","coordinates":[[[[-96.697426543476908,40.814352281178977],[-96.695649406831379,40.814316783000237],[-96.695696146534516,40.812966598431849],[-96.697473247211619,40.813002094930674],[-96.697426543476908,40.814352281178977]]],[[[-96.713374532406817,40.816020735093232],[-96.713420915561088,40.814670534144433],[-96.715198083778503,40.814705758844319],[-96.715151736597505,40.816055961460187],[-96.715105386272469,40.817406163715553],[-96.713328146106079,40.817370935681481],[-96.713374532406817,40.816020735093232]]],[[[-96.693872273356419,40.814281257474377],[-96.695649406831379,40.814316783000237],[-96.695602663957672,40.815666967207399],[-96.693825494512112,40.81563144000026],[-96.693872273356419,40.814281257474377]]],[[[-96.693778712494549,40.81698162216486],[-96.69200151024944,40.816946065926849],[-96.691954689083133,40.818296246047431],[-96.69373192730346,40.818331803968157],[-96.695509168697541,40.818367334538031],[-96.695462416310619,40.819717517661495],[-96.695415660752161,40.821067700423697],[-96.697192977276288,40.82110320700302],[-96.697146254529045,40.822453391084295],[-96.695368902021883,40.822417882824652],[-96.695322140119558,40.823768064864353],[-96.695275375044943,40.825118246542793],[-96.693497953736951,40.825082707564867],[-96.691720535603949,40.825047141229646],[-96.691673695376863,40.826397319181886],[-96.689896244431651,40.826361723805086],[-96.68984936503486,40.827711899711453],[-96.68980248245775,40.829062075256353],[-96.691580005389497,40.829097674002142],[-96.691533155628704,40.830447850870144],[-96.689755596700067,40.830412250439743],[-96.689708707761554,40.831762425261651],[-96.687931116014624,40.831726795783091],[-96.687884187893502,40.833076968557457],[-96.686106563328778,40.833041310028229],[-96.686059596020158,40.834391480753638],[-96.686012625525123,40.835741651117395],[-96.687790322099758,40.835777313021467],[-96.687743384426639,40.837127484711097],[-96.689521120194371,40.837163120934164],[-96.689474215348071,40.838513293948488],[-96.689427307319477,40.83986346660128],[-96.6876494995267,40.839827827005543],[-96.687602552299396,40.841177997610373],[-96.685824711675679,40.841142328955797],[-96.684046874239641,40.841106632928962],[-96.684093893498556,40.839756465700887],[-96.685871694918916,40.839792160038698],[-96.685918674974744,40.838441990759939],[-96.684140909567617,40.838406298111074],[-96.684187922447066,40.837056130159517],[-96.682410196240113,40.837020411831311],[-96.680632473224975,40.836984666134995],[-96.680679554931046,40.835634501203224],[-96.678901871117773,40.835598729831659],[-96.677124190500919,40.83556293109357],[-96.67717134102314,40.834212769186486],[-96.67539369960987,40.834176944777234],[-96.675440882935732,40.832826784203306],[-96.673663280725521,40.832790934125562],[-96.673710496850163,40.831440774885962],[-96.675488063060797,40.831476623267356],[-96.675535239985294,40.830126461969328],[-96.673757709771792,40.830090615284249],[-96.673804919490664,40.828740455320428],[-96.67385212600702,40.827390294994508],[-96.675629584233548,40.82742613828718],[-96.675676751557816,40.82607597590308],[-96.675723915682497,40.824725813156952],[-96.673946529433195,40.824689973256412],[-96.673993726343497,40.823339811844221],[-96.67577107660783,40.823375650048803],[-96.675818234334088,40.822025486578653],[-96.674040920052278,40.821989650069973],[-96.674088110559765,40.820639487933654],[-96.674135297866229,40.819289325435257],[-96.675912540190311,40.819325158552346],[-96.675959688320788,40.817974993996202],[-96.677736897867774,40.818010798068173],[-96.67778400682711,40.816660631455711],[-96.679561183596491,40.816696406485057],[-96.681338363558851,40.816732154165997],[-96.681385397380851,40.815381983806986],[-96.681432428012542,40.814031813086189],[-96.68320953922526,40.81406753003786],[-96.684986653625586,40.8141032196434],[-96.684939694931913,40.815453393743546],[-96.686716848486824,40.815489057690563],[-96.686763771211105,40.814138881902686],[-96.688540891979386,40.814174516815577],[-96.68849400522474,40.815524694289891],[-96.690271165143216,40.815560303541375],[-96.692048328239807,40.815595885444885],[-96.693825494512112,40.81563144000026],[-96.693778712494549,40.81698162216486]],[[-96.68269242256099,40.828919406665513],[-96.680914915556528,40.828883671116607],[-96.680867849817943,40.830233837857605],[-96.682645392818088,40.830269575097581],[-96.68269242256099,40.828919406665513]],[[-96.691767372653615,40.823696962915982],[-96.69354475479922,40.823732527568175],[-96.693591552686755,40.822382347210151],[-96.691814206526132,40.822346784240928],[-96.691767372653615,40.823696962915982]]],[[[-96.711550909086398,40.81733568029631],[-96.713328146106079,40.817370935681481],[-96.713281756658631,40.818721135909158],[-96.711504483661031,40.818685878855511],[-96.711550909086398,40.81733568029631]]],[[[-96.705986518574392,40.823980714157152],[-96.706033064560259,40.822630522054531],[-96.707810436048547,40.822665866182014],[-96.707763926049594,40.824016059957259],[-96.707717412895391,40.825366253371712],[-96.70593996943083,40.825330905898909],[-96.705986518574392,40.823980714157152]]],[[[-96.687320802037263,40.849279013645244],[-96.685542745266773,40.849243334862905],[-96.685589747639654,40.847893168115974],[-96.683811730088621,40.847857463643031],[-96.683858765300485,40.846507298223742],[-96.683905797321287,40.845157132442694],[-96.683952826151256,40.843806966299873],[-96.685730735625981,40.843842665704948],[-96.685683742819009,40.845192833536984],[-96.687461691505149,40.845228507255143],[-96.687414731535469,40.846578676413486],[-96.689192719433478,40.846614324442065],[-96.689145792305979,40.847964494925542],[-96.687367768379588,40.847928845210198],[-96.687320802037263,40.849279013645244]]],[[[-96.688582418352894,40.864166512522708],[-96.690360877997023,40.864202155090041],[-96.690313945518568,40.865552322558941],[-96.688535449814111,40.865516678305241],[-96.688582418352894,40.864166512522708]]],[[[-96.688488478088118,40.866866843726129],[-96.688441503174687,40.868217008785358],[-96.688394525073576,40.869567173482928],[-96.686615924361348,40.869531496770044],[-96.686662938529906,40.868181333760333],[-96.686709949508327,40.866831170388892],[-96.688488478088118,40.866866843726129]]],[[[-96.688253571641582,40.873617665405575],[-96.690032283759422,40.873653319778825],[-96.689985328982516,40.875003484716501],[-96.689938371019139,40.876353649292547],[-96.688159586743964,40.876317991545577],[-96.688112589511519,40.877668154073035],[-96.686333772343431,40.877632467231606],[-96.684554958367201,40.877596752982839],[-96.684507885776526,40.87894691177064],[-96.682729038910551,40.878911168423748],[-96.682681927038857,40.880261325158727],[-96.68090304728365,40.88022555271121],[-96.679124170728116,40.880189752854172],[-96.677345297374714,40.880153925587784],[-96.677392517504373,40.878803773933548],[-96.675613683441043,40.87876792095409],[-96.673834852584463,40.878732040566852],[-96.672056024937092,40.878696132771992],[-96.672103350110859,40.877345985847811],[-96.670324561757454,40.877310052345408],[-96.668545776617904,40.877274091436966],[-96.666766994694655,40.877238103122608],[-96.666814424895847,40.875887960939714],[-96.666861851878551,40.874537818394316],[-96.666909275643022,40.873187675486399],[-96.665130605168542,40.873151664877447],[-96.665178061786804,40.871801523310623],[-96.665225515184872,40.870451381381223],[-96.667004113518217,40.870487388583058],[-96.668782715069057,40.870523368385612],[-96.668735333809934,40.87187351372075],[-96.670513974645672,40.871909467824779],[-96.670466626243524,40.873259614498494],[-96.672245306364658,40.87329554290136],[-96.672197990824387,40.87464569091248],[-96.672150672073201,40.875995838561295],[-96.673929427557894,40.876031742958851],[-96.675708186251299,40.876067619951378],[-96.675755432846898,40.874717468906759],[-96.675802676236472,40.873367317499962],[-96.675849916420276,40.872017165731009],[-96.675897153398537,40.870667013599899],[-96.677675771000224,40.870702856403788],[-96.677722968704813,40.869352702214847],[-96.679501553440701,40.869388515924186],[-96.679454391804754,40.870738671807516],[-96.681233015809681,40.870774459810946],[-96.681185887044663,40.872124617025442],[-96.681138755081435,40.873474773877987],[-96.679360058931408,40.873438982488153],[-96.679312887693513,40.87478913728544],[-96.677534158668422,40.87475331679812],[-96.677486948150985,40.876103469538698],[-96.679265713254495,40.87613929172069],[-96.679218535614083,40.877489445793891],[-96.680997340000076,40.87752524226385],[-96.681044481559397,40.876175086497192],[-96.682823253063233,40.876210853868081],[-96.68287035534469,40.874860696047385],[-96.682917454429898,40.873510537864796],[-96.682964550319113,40.872160379320313],[-96.683011643012563,40.870810220413937],[-96.684790273410954,40.870845953616346],[-96.684743216789329,40.872196114213288],[-96.686521886452852,40.87223182170424],[-96.688300559307251,40.87226750179304],[-96.688253571641582,40.873617665405575]]],[[[-96.687273832508239,40.850629181718659],[-96.687226859792275,40.85197934943043],[-96.687179883889115,40.853329516780526],[-96.68540171901229,40.853293832933367],[-96.685448730953325,40.851943667271605],[-96.685495739704734,40.850593501248113],[-96.687273832508239,40.850629181718659]]],[[[-96.683623557325348,40.853258121702318],[-96.68540171901229,40.853293832933367],[-96.685354703881387,40.854643998233385],[-96.683576506154353,40.854608285312629],[-96.683623557325348,40.853258121702318]]],[[[-96.683764691685411,40.849207628700526],[-96.685542745266773,40.849243334862905],[-96.685495739704734,40.850593501248113],[-96.683717650090614,40.850557793396248],[-96.683764691685411,40.849207628700526]]],[[[-96.678854753404039,40.836948893070733],[-96.680632473224975,40.836984666134995],[-96.68058538832463,40.838334830704902],[-96.678807632493644,40.838299055947871],[-96.678854753404039,40.836948893070733]]],[[[-96.678760508386333,40.839649218463066],[-96.680538300229813,40.839684994912936],[-96.680491208940268,40.841035158759091],[-96.678713381081835,40.840999380616324],[-96.678760508386333,40.839649218463066]]],[[[-96.676652509300098,40.849064530253656],[-96.676699691822108,40.847714371966795],[-96.676746871143052,40.846364213317884],[-96.67679404726313,40.845014054306937],[-96.678571979982877,40.845049864904382],[-96.678524839887231,40.846400025609789],[-96.680302811829847,40.846435810524831],[-96.680255704562938,40.847785972561525],[-96.680208594099838,40.849136134236289],[-96.680161480440276,40.850486295549132],[-96.678383400408947,40.850450505554171],[-96.676605323576752,40.850414688178468],[-96.676652509300098,40.849064530253656]]],[[[-96.678336247518217,40.851800664811655],[-96.680114363584011,40.85183645650006],[-96.680067243530814,40.853186617089058],[-96.678289091428098,40.853150823707132],[-96.678336247518217,40.851800664811655]]],[[[-96.676841220182638,40.843663894933933],[-96.675063326685247,40.843628058656755],[-96.673285436390657,40.843592195005584],[-96.673332678148213,40.842242038663095],[-96.67511053242373,40.842277900617361],[-96.675157734959669,40.840927742215861],[-96.67693555642083,40.840963575101874],[-96.678713381081835,40.840999380616324],[-96.678666250579937,40.842349542407632],[-96.678619116880355,40.843699703836982],[-96.676841220182638,40.843663894933933]]],[[[-96.674165808843256,40.869280992599727],[-96.675944387171526,40.869316861106647],[-96.675897153398537,40.870667013599899],[-96.674118539002137,40.87063114339599],[-96.674165808843256,40.869280992599727]]]]}}
]
}
