{
"type": "FeatureCollection",
"name": "n27th-superior__wk_0800",
"crs": { "type": "name", "properties": { "name": "urn:ogc:def:crs:OGC:1.3:CRS84" } },
"features": [
{"type":"Feature","properties":{"band":15},"geometry":{"type":"MultiPolygon","coordinates":[[[[-96.683576506154353,40.854608285312629],[-96.683529451790804,40.855958448561168],[-96.68530768556036,40.855994163171687],[-96.685260664048968,40.85734432774823],[-96.687038937054098,40.857380016660791],[-96.686991948399736,40.858730182564202],[-96.686944956556985,40.860080348105896],[-96.686897961525545,40.86143051328591],[-96.68511958037017,40.861394819307328],[-96.685072546094858,40.862744982436837],[-96.683294132076099,40.862709259376466],[-96.681515721251372,40.862673508923294],[-96.681468611670383,40.864023668309393],[-96.681421498892675,40.865373827333556],[-96.679643019148642,40.865338046102117],[-96.677864542604013,40.865302237475547],[-96.676086069261231,40.865266401454001],[-96.676133290215546,40.863916247512194],[-96.677911727499691,40.863952081838328],[-96.677958909193791,40.862601925839051],[-96.67618050796581,40.862566093208265],[-96.67622772251228,40.86121593854223],[-96.676274933855197,40.859865783514067],[-96.674496607935566,40.859829926884125],[-96.672718285221691,40.85979404286465],[-96.672765565458249,40.858443890868571],[-96.674543852123776,40.858479773190311],[-96.674591093106486,40.857129619134334],[-96.674638330883937,40.855779464716178],[-96.676416548665046,40.855815316257015],[-96.676463747196209,40.854465159780496],[-96.676510942525042,40.853115002941898],[-96.678289091428098,40.853150823707132],[-96.680067243530814,40.853186617089058],[-96.681845398830703,40.853222383087498],[-96.681798311619886,40.854572545006825],[-96.683576506154353,40.854608285312629]]],[[[-96.683152901920806,40.866759741523587],[-96.681374382917994,40.866723985995812],[-96.681421498892675,40.865373827333556],[-96.683199981833681,40.865409581169743],[-96.683152901920806,40.866759741523587]]],[[[-96.674307599122756,40.865230538037615],[-96.672529132191016,40.865194647226538],[-96.672576425261838,40.863844496679448],[-96.674354856135437,40.863880385792534],[-96.674307599122756,40.865230538037615]]]]}},
{"type":"Feature","properties":{"band":30},"geometry":{"type":"MultiPolygon","coordinates":[[[[-96.70074761983021,40.821174138100375],[-96.69897029696979,40.821138686228622],[-96.69892361020581,40.822488871988924],[-96.697146254529045,40.822453391084295],[-96.697192977276288,40.82110320700302],[-96.697239696854169,40.819753022560555],[-96.69728641326293,40.818402837756913],[-96.697333126502812,40.817052652592096],[-96.699110338261121,40.81708812678103],[-96.699063660997197,40.818438313624682],[-96.700840911897899,40.818473762141167],[-96.700794267446184,40.819823950301291],[-96.70074761983021,40.821174138100375]]],[[[-96.700234287144426,40.836026180059605],[-96.700280969583218,40.834675996232413],[-96.702058655555376,40.834711437517576],[-96.702012009124715,40.836061623021877],[-96.703789734269748,40.83609703861579],[-96.703743120685161,40.837447225434929],[-96.701965359529311,40.837411808165136],[-96.701918706768936,40.838761992947333],[-96.70014091276505,40.838726546630639],[-96.700187601538445,40.837376363525685],[-96.700234287144426,40.836026180059605]]],[[[-96.708797323545795,40.84565445648245],[-96.708750795903427,40.847004645795856],[-96.708704265104117,40.84835483474842],[-96.708657731147639,40.849705023340157],[-96.710435829154861,40.849740346169348],[-96.710389328077142,40.851090536071624],[-96.70861119403375,40.851055211571051],[-96.706833063148011,40.851019859687341],[-96.706786486838098,40.852370045884655],[-96.708564653762195,40.85240539944111],[-96.708518110332747,40.853755586950314],[-96.708471563745164,40.855105774098654],[-96.708425013999175,40.85645596088613],[-96.708378461094568,40.857806147312736],[-96.706600149992539,40.857770787064638],[-96.704821842051814,40.857735399427064],[-96.704775213887402,40.859085582145347],[-96.702996873060357,40.859050165442767],[-96.702950205679414,40.860400346124301],[-96.702903535131782,40.861750526444752],[-96.701125125364143,40.861715078997548],[-96.699346718765881,40.861679604157409],[-96.697568315339439,40.861644101924462],[-96.695789915087232,40.861608572298863],[-96.694011518011735,40.861573015280747],[-96.693964664013734,40.862923186841364],[-96.692186234061424,40.862887600747229],[-96.692139340825648,40.864237770262697],[-96.690360877997023,40.864202155090041],[-96.688582418352894,40.864166512522708],[-96.688535449814111,40.865516678305241],[-96.690313945518568,40.865552322558941],[-96.69026700985539,40.866902489666252],[-96.688488478088118,40.866866843726129],[-96.686709949508327,40.866831170388892],[-96.686662938529906,40.868181333760333],[-96.68488437707525,40.868145631337029],[-96.684837326839514,40.869495792657595],[-96.684790273410954,40.870845953616346],[-96.684743216789329,40.872196114213288],[-96.686521886452852,40.87223182170424],[-96.686474862712416,40.873581983628732],[-96.688253571641582,40.873617665405575],[-96.688206580787238,40.874967828656423],[-96.688159586743964,40.876317991545577],[-96.686380805657961,40.876282306392412],[-96.68460202776356,40.876246593833194],[-96.682823253063233,40.876210853868081],[-96.682776147585272,40.877561011326868],[-96.682729038910551,40.878911168423748],[-96.682681927038857,40.880261325158727],[-96.68090304728365,40.88022555271121],[-96.679124170728116,40.880189752854172],[-96.677345297374714,40.880153925587784],[-96.677392517504373,40.878803773933548],[-96.675613683441043,40.87876792095409],[-96.673834852584463,40.878732040566852],[-96.672056024937092,40.878696132771992],[-96.672103350110859,40.877345985847811],[-96.670324561757454,40.877310052345408],[-96.668545776617904,40.877274091436966],[-96.66859317073974,40.875923947551584],[-96.666814424895847,40.875887960939714],[-96.666861851878551,40.874537818394316],[-96.666909275643022,40.873187675486399],[-96.665130605168542,40.873151664877447],[-96.665178061786804,40.871801523310623],[-96.665225515184872,40.870451381381223],[-96.667004113518217,40.870487388583058],[-96.667051527629454,40.869137244587677],[-96.66527296536303,40.869101239089282],[-96.663494406316275,40.869065206193042],[-96.663541889338944,40.867715065243203],[-96.663589369139714,40.86636492393076],[-96.66536785606047,40.866400953417724],[-96.665415296580264,40.86505081003812],[-96.665462733881142,40.863700666295991],[-96.667241151904364,40.863736664981239],[-96.667288549931826,40.862386519173469],[-96.667335944743272,40.861036373003238],[-96.667383336338958,40.859686226470558],[-96.665605026472505,40.859650232894438],[-96.665652450900055,40.858300087702226],[-96.663874180298663,40.858264068441507],[-96.662095912917422,40.858228021793416],[-96.662048416395876,40.859578163575932],[-96.662000916651493,40.860928304995802],[-96.660222580397146,40.860892227546849],[-96.660270116190603,40.859542087833837],[-96.658491819210596,40.859505984703368],[-96.656713525458315,40.859469854184667],[-96.656665917567466,40.860819990480081],[-96.656618306446219,40.862170126412636],[-96.65483994382501,40.862133965084297],[-96.654792293419888,40.863484098943104],[-96.653013897978823,40.863447908512065],[-96.653061584436912,40.862097776365431],[-96.651283228284342,40.862061560256173],[-96.651330947557142,40.860711429459933],[-96.649552630692568,40.86067518767512],[-96.649600382775219,40.859325058230446],[-96.647822105198145,40.859288790772744],[-96.646043830863448,40.859252495927691],[-96.646091651795686,40.857902369552868],[-96.64431341675018,40.857866049039025],[-96.644361270479806,40.856515924019305],[-96.646139469483373,40.856552242814779],[-96.64618728392675,40.855202115713432],[-96.646235095126073,40.853851988248842],[-96.648013225296879,40.853888276225753],[-96.648060997217527,40.852538146681063],[-96.649839094594569,40.852574405560212],[-96.649886827241417,40.851224273936829],[-96.648108765897049,40.851188016773193],[-96.646330707793553,40.851151732229958],[-96.646378509262206,40.849801603675658],[-96.644600490431756,40.849765293470988],[-96.642822474846795,40.849728955888281],[-96.642870345126752,40.848378830407967],[-96.641092368816544,40.848342467167917],[-96.641044462509782,40.84969259092771],[-96.640996552952643,40.851042714324066],[-96.640948640144885,40.852392837356973],[-96.640900724086251,40.853742960026437],[-96.640852804776486,40.855093082332466],[-96.640804882215335,40.856443204275038],[-96.640756956402583,40.857793325854146],[-96.638978731105382,40.857756923183388],[-96.639026692959348,40.856406803326536],[-96.639074651559227,40.855056683106142],[-96.639122606905303,40.853706562522213],[-96.637344492977917,40.853670137636527],[-96.637392481104058,40.852320018412442],[-96.639170558997805,40.852356441574806],[-96.639218507837015,40.851006320263856],[-96.637440465974421,40.850969898824765],[-96.637488447589305,40.849619778873517],[-96.637536425948923,40.848269658558692],[-96.639314395756443,40.848306076551467],[-96.639362334837202,40.846955954150026],[-96.641140271873169,40.846992343044732],[-96.641188171679943,40.845642218558105],[-96.64296607594386,40.845678578357273],[-96.642918212159032,40.847028704564302],[-96.644696155692316,40.847065038708564],[-96.644743983454987,40.845714910782441],[-96.646521894210821,40.845751215833459],[-96.646569682708758,40.844401085826313],[-96.648347560686688,40.844437361786596],[-96.648395309924751,40.843087229699854],[-96.65017315512425,40.843123476571911],[-96.650220865107343,40.841773342407031],[-96.651998677527928,40.841809560193383],[-96.651951003560683,40.843159696071986],[-96.653728855231606,40.843195888199929],[-96.65550671013456,40.843232052955599],[-96.655459104970177,40.844582191894943],[-96.657236999121807,40.844618330988105],[-96.657189426749042,40.845968471274581],[-96.658967360149816,40.846004584702591],[-96.658919820573558,40.84735472633502],[-96.657141851148609,40.847318611198254],[-96.657094272320236,40.848668750759138],[-96.658872277771792,40.848704867604724],[-96.658824731744318,40.85005500851171],[-96.657046690263698,40.850018889957212],[-96.656999104978752,40.851369028792476],[-96.655221030695316,40.851332881148693],[-96.655173406148023,40.852683017910806],[-96.656951516465128,40.852719167264922],[-96.658729630011166,40.852755289237422],[-96.658777182490851,40.851405149055935],[-96.660555263229185,40.851441241938929],[-96.660507746783665,40.852791383828155],[-96.662285866780209,40.852827451036987],[-96.662333347191307,40.851477307441321],[-96.662380824381046,40.85012716348303],[-96.66415887553228,40.850163199899576],[-96.66411143437476,40.851513345562957],[-96.665889524777143,40.851549356303686],[-96.665842116435655,40.852899503308365],[-96.665794704877442,40.85424964995056],[-96.667572870569074,40.854285636715453],[-96.669351039475202,40.854321596096575],[-96.671129211593438,40.854357528093786],[-96.67290738692131,40.854393432706928],[-96.672954654327597,40.853043279261961],[-96.67473279682406,40.853079154793448],[-96.676510942525042,40.853115002941898],[-96.676558134651799,40.851764845741215],[-96.678336247518217,40.851800664811655],[-96.678383400408947,40.850450505554171],[-96.676605323576752,40.850414688178468],[-96.676652509300098,40.849064530253656],[-96.676699691822108,40.847714371966795],[-96.676746871143052,40.846364213317884],[-96.67679404726313,40.845014054306937],[-96.678571979982877,40.845049864904382],[-96.678619116880355,40.843699703836982],[-96.676841220182638,40.843663894933933],[-96.675063326685247,40.843628058656755],[-96.673285436390657,40.843592195005584],[-96.673332678148213,40.842242038663095],[-96.67511053242373,40.842277900617361],[-96.675157734959669,40.840927742215861],[-96.67693555642083,40.840963575101874],[-96.678713381081835,40.840999380616324],[-96.678760508386333,40.839649218463066],[-96.680538300229813,40.839684994912936],[-96.68058538832463,40.838334830704902],[-96.678807632493644,40.838299055947871],[-96.678854753404039,40.836948893070733],[-96.680632473224975,40.836984666134995],[-96.680679554931046,40.835634501203224],[-96.678901871117773,40.835598729831659],[-96.67894898563506,40.834248566230656],[-96.67717134102314,40.834212769186486],[-96.677218488346767,40.832862606917423],[-96.675440882935732,40.832826784203306],[-96.675488063060797,40.831476623267356],[-96.675535239985294,40.830126461969328],[-96.675582413709449,40.828776300309279],[-96.675629584233548,40.82742613828718],[-96.677407045659891,40.827461954221377],[-96.677454176994075,40.826111790142463],[-96.67750130513113,40.824761625701591],[-96.677548430071269,40.823411460898775],[-96.679325786731354,40.823447244394011],[-96.67937287249184,40.822097077535943],[-96.677595551814761,40.822061295734017],[-96.677642670361834,40.820711130207336],[-96.677689785712772,40.819360964318712],[-96.679467034431113,40.81939674273422],[-96.679514110610427,40.818046574790571],[-96.681291326546315,40.81808232416325],[-96.681338363558851,40.816732154165997],[-96.68311554671179,40.816767874498375],[-96.683068545672995,40.818118046186079],[-96.684845767988037,40.818153740858911],[-96.68662299348901,40.818189408181603],[-96.68840022217347,40.818225048154005],[-96.690177454038988,40.818260660776005],[-96.69013059371909,40.819610838851162],[-96.691907864740642,40.819646425806653],[-96.693685138938648,40.819681985410135],[-96.695462416310619,40.819717517661495],[-96.695415660752161,40.821067700423697],[-96.693638347399826,40.821032166490809],[-96.693591552686755,40.822382347210151],[-96.691814206526132,40.822346784240928],[-96.690036863542417,40.82231119391713],[-96.689989993685174,40.823661370907907],[-96.688212617896326,40.823625751544107],[-96.68816570887256,40.824975926487802],[-96.688118796666515,40.826326101069967],[-96.688071881277949,40.827676275290585],[-96.688024962706606,40.829026449149637],[-96.68980248245775,40.829062075256353],[-96.689755596700067,40.830412250439743],[-96.689708707761554,40.831762425261651],[-96.687931116014624,40.831726795783091],[-96.687884187893502,40.833076968557457],[-96.686106563328778,40.833041310028229],[-96.686059596020158,40.834391480753638],[-96.686012625525123,40.835741651117395],[-96.687790322099758,40.835777313021467],[-96.687743384426639,40.837127484711097],[-96.689521120194371,40.837163120934164],[-96.689474215348071,40.838513293948488],[-96.689427307319477,40.83986346660128],[-96.691205118294775,40.839899078825766],[-96.692982932450164,40.839934663678847],[-96.694760749783228,40.839970221160414],[-96.694713946622073,40.841320398503207],[-96.696491803147524,40.841355930294348],[-96.698269662845988,40.841391434712385],[-96.69831639397259,40.840041254008362],[-96.700094220823999,40.840076729374459],[-96.70187205084332,40.840112177368468],[-96.701825391752251,40.841462361428555],[-96.703603260955163,40.841497783726396],[-96.705381133321353,40.841533178650572],[-96.705334543105948,40.84288336570058],[-96.707112454654023,40.842918734924517],[-96.707065897301035,40.84426892328721],[-96.707019336789173,40.845619111289032],[-96.708797323545795,40.84565445648245]],[[-96.682964550319113,40.872160379320313],[-96.682917454429898,40.873510537864796],[-96.68287035534469,40.874860696047385],[-96.684649093965874,40.874896434321727],[-96.684696156974383,40.873546274448422],[-96.684743216789329,40.872196114213288],[-96.682964550319113,40.872160379320313]],[[-96.676463747196209,40.854465159780496],[-96.676416548665046,40.855815316257015],[-96.674638330883937,40.855779464716178],[-96.674591093106486,40.857129619134334],[-96.674543852123776,40.858479773190311],[-96.672765565458249,40.858443890868571],[-96.672718285221691,40.85979404286465],[-96.674496607935566,40.859829926884125],[-96.676274933855197,40.859865783514067],[-96.67622772251228,40.86121593854223],[-96.67618050796581,40.862566093208265],[-96.677958909193791,40.862601925839051],[-96.677911727499691,40.863952081838328],[-96.676133290215546,40.863916247512194],[-96.676086069261231,40.865266401454001],[-96.677864542604013,40.865302237475547],[-96.679643019148642,40.865338046102117],[-96.681421498892675,40.865373827333556],[-96.681468611670383,40.864023668309393],[-96.681515721251372,40.862673508923294],[-96.683294132076099,40.862709259376466],[-96.685072546094858,40.862744982436837],[-96.68511958037017,40.861394819307328],[-96.686897961525545,40.86143051328591],[-96.686944956556985,40.860080348105896],[-96.686991948399736,40.858730182564202],[-96.687038937054098,40.857380016660791],[-96.685260664048968,40.85734432774823],[-96.68530768556036,40.855994163171687],[-96.683529451790804,40.855958448561168],[-96.683576506154353,40.854608285312629],[-96.681798311619886,40.854572545006825],[-96.681845398830703,40.853222383087498],[-96.680067243530814,40.853186617089058],[-96.678289091428098,40.853150823707132],[-96.676510942525042,40.853115002941898],[-96.676463747196209,40.854465159780496]],[[-96.681374382917994,40.866723985995812],[-96.683152901920806,40.866759741523587],[-96.683199981833681,40.865409581169743],[-96.681421498892675,40.865373827333556],[-96.681374382917994,40.866723985995812]],[[-96.686850963305204,40.86278067810423],[-96.688629383704708,40.862816346378523],[-96.690407807290939,40.862851987259567],[-96.6904547334006,40.86150181906752],[-96.688676345869837,40.861466179872693],[-96.686897961525545,40.86143051328591],[-96.686850963305204,40.86278067810423]],[[-96.688259523738054,40.822275576238873],[-96.686482187115473,40.822239931206312],[-96.686435245289516,40.823590104824703],[-96.688212617896326,40.823625751544107],[-96.688259523738054,40.822275576238873]],[[-96.679501553440701,40.869388515924186],[-96.677722968704813,40.869352702214847],[-96.677675771000224,40.870702856403788],[-96.679454391804754,40.870738671807516],[-96.679501553440701,40.869388515924186]],[[-96.690736223202634,40.853400802322554],[-96.69251439763444,40.853436404017145],[-96.692467526666292,40.854786576063006],[-96.694245740319516,40.854822152056364],[-96.694292575246351,40.853471978327271],[-96.696070756035937,40.853507525252766],[-96.696117551745985,40.852157349480407],[-96.696164344281058,40.850807173346716],[-96.696211133641384,40.8494569968517],[-96.694433060961799,40.849421454971598],[-96.694479883179426,40.84807127979694],[-96.694526702220372,40.846721104260908],[-96.692748704778381,40.846685538365925],[-96.692701849708328,40.848035712219051],[-96.690923819416369,40.848000117261876],[-96.690970710515259,40.846649945092921],[-96.689192719433478,40.846614324442065],[-96.689145792305979,40.847964494925542],[-96.687367768379588,40.847928845210198],[-96.687320802037263,40.849279013645244],[-96.685542745266773,40.849243334862905],[-96.685495739704734,40.850593501248113],[-96.687273832508239,40.850629181718659],[-96.687226859792275,40.85197934943043],[-96.689004991818408,40.852015004206486],[-96.690783127029292,40.85205063159966],[-96.690736223202634,40.853400802322554]],[[-96.696304702838802,40.84675664277777],[-96.696351482676391,40.845406465198849],[-96.694573518084866,40.845370928363522],[-96.694526702220372,40.846721104260908],[-96.696304702838802,40.84675664277777]],[[-96.689239643377235,40.845264153597022],[-96.689286564137461,40.843913982390411],[-96.687508648288855,40.843878337735177],[-96.685730735625981,40.843842665704948],[-96.685683742819009,40.845192833536984],[-96.687461691505149,40.845228507255143],[-96.687414731535469,40.846578676413486],[-96.689192719433478,40.846614324442065],[-96.689239643377235,40.845264153597022]],[[-96.672576425261838,40.863844496679448],[-96.672529132191016,40.865194647226538],[-96.674307599122756,40.865230538037615],[-96.674354856135437,40.863880385792534],[-96.672576425261838,40.863844496679448]]]]}},
{"type":"Feature","properties":{"band":45},"geometry":{"type":"MultiPolygon","coordinates":[[[[-96.71182939551494,40.809234481368051],[-96.713606416718321,40.809269726743736],[-96.713560046147506,40.81061992913471],[-96.713513672431191,40.811970131165154],[-96.713467295569131,40.813320332835069],[-96.715244427815691,40.813355555867965],[-96.715198083778503,40.814705758844319],[-96.715151736597505,40.816055961460187],[-96.715105386272469,40.817406163715553],[-96.713328146106079,40.817370935681481],[-96.713281756658631,40.818721135909158],[-96.713235364064204,40.820071335776277],[-96.711458055086268,40.820036077054077],[-96.711411623361883,40.821386274892006],[-96.709634281551033,40.821350987146346],[-96.709587810691815,40.822701182953637],[-96.707810436048547,40.822665866182014],[-96.707763926049594,40.824016059957259],[-96.707717412895391,40.825366253371712],[-96.70593996943083,40.825330905898909],[-96.705986518574392,40.823980714157152],[-96.704209114256855,40.823945341000034],[-96.70416252912419,40.825295531067809],[-96.704115940831173,40.826645720774643],[-96.70589341712936,40.826681097279781],[-96.705846861669741,40.828031288299798],[-96.707624377120339,40.828066639118184],[-96.707577854498979,40.829416831450224],[-96.707531328721416,40.830767023421437],[-96.707484799787423,40.832117215031815],[-96.705707176339487,40.832081859194538],[-96.705660608244813,40.833432048770995],[-96.707438267696716,40.833467406281372],[-96.707391732449082,40.834817597170087],[-96.709169431064595,40.834852928986145],[-96.70912292866889,40.836203121185946],[-96.709076423118191,40.837553313024983],[-96.707298652482038,40.837517977864998],[-96.707252107762145,40.838868167671173],[-96.707205559884329,40.840218357116491],[-96.708983402550899,40.840253695620682],[-96.70893688753381,40.841603886377335],[-96.708890369360745,40.842954076773196],[-96.708843848031492,40.844304266808223],[-96.708797323545795,40.84565445648245],[-96.707019336789173,40.845619111289032],[-96.707065897301035,40.84426892328721],[-96.707112454654023,40.842918734924517],[-96.705334543105948,40.84288336570058],[-96.705381133321353,40.841533178650572],[-96.703603260955163,40.841497783726396],[-96.701825391752251,40.841462361428555],[-96.70187205084332,40.840112177368468],[-96.700094220823999,40.840076729374459],[-96.69831639397259,40.840041254008362],[-96.698269662845988,40.841391434712385],[-96.696491803147524,40.841355930294348],[-96.694713946622073,40.841320398503207],[-96.694760749783228,40.839970221160414],[-96.692982932450164,40.839934663678847],[-96.693029768450572,40.838584487657215],[-96.694807549769166,40.838620043456281],[-96.696585334262736,40.838655571884985],[-96.696632095061403,40.83730539213839],[-96.698409846714995,40.837340891516718],[-96.698456568331281,40.835990709729117],[-96.700234287144426,40.836026180059605],[-96.700187601538445,40.837376363525685],[-96.70014091276505,40.838726546630639],[-96.701918706768936,40.838761992947333],[-96.701965359529311,40.837411808165136],[-96.703743120685161,40.837447225434929],[-96.703789734269748,40.83609703861579],[-96.702012009124715,40.836061623021877],[-96.702058655555376,40.834711437517576],[-96.700280969583218,40.834675996232413],[-96.698503286777964,40.834640527580319],[-96.696725607142099,40.834605031561445],[-96.696772358424624,40.833254850731109],[-96.694994717965528,40.833219329026512],[-96.695041502079008,40.831869149515803],[-96.695088283018734,40.830518969643769],[-96.695135060784949,40.82916878941046],[-96.69518183537788,40.827818608815846],[-96.695228606797812,40.82646842785995],[-96.695275375044943,40.825118246542793],[-96.693497953736951,40.825082707564867],[-96.691720535603949,40.825047141229646],[-96.691673695376863,40.826397319181886],[-96.689896244431651,40.826361723805086],[-96.68984936503486,40.827711899711453],[-96.68980248245775,40.829062075256353],[-96.688024962706606,40.829026449149637],[-96.688071881277949,40.827676275290585],[-96.688118796666515,40.826326101069967],[-96.68816570887256,40.824975926487802],[-96.688212617896326,40.823625751544107],[-96.689989993685174,40.823661370907907],[-96.690036863542417,40.82231119391713],[-96.691814206526132,40.822346784240928],[-96.691767372653615,40.823696962915982],[-96.69354475479922,40.823732527568175],[-96.693591552686755,40.822382347210151],[-96.693638347399826,40.821032166490809],[-96.695415660752161,40.821067700423697],[-96.695462416310619,40.819717517661495],[-96.693685138938648,40.819681985410135],[-96.691907864740642,40.819646425806653],[-96.69013059371909,40.819610838851162],[-96.690177454038988,40.818260660776005],[-96.68840022217347,40.818225048154005],[-96.68662299348901,40.818189408181603],[-96.684845767988037,40.818153740858911],[-96.683068545672995,40.818118046186079],[-96.68311554671179,40.816767874498375],[-96.681338363558851,40.816732154165997],[-96.681291326546315,40.81808232416325],[-96.679514110610427,40.818046574790571],[-96.679467034431113,40.81939674273422],[-96.677689785712772,40.819360964318712],[-96.677642670361834,40.820711130207336],[-96.677595551814761,40.822061295734017],[-96.67937287249184,40.822097077535943],[-96.679325786731354,40.823447244394011],[-96.677548430071269,40.823411460898775],[-96.67750130513113,40.824761625701591],[-96.677454176994075,40.826111790142463],[-96.677407045659891,40.827461954221377],[-96.675629584233548,40.82742613828718],[-96.675582413709449,40.828776300309279],[-96.675535239985294,40.830126461969328],[-96.675488063060797,40.831476623267356],[-96.675440882935732,40.832826784203306],[-96.677218488346767,40.832862606917423],[-96.67717134102314,40.834212769186486],[-96.67894898563506,40.834248566230656],[-96.678901871117773,40.835598729831659],[-96.677124190500919,40.83556293109357],[-96.675346513082928,40.835527104989097],[-96.675299323354693,40.836877264838904],[-96.677077036779821,40.836913092638646],[-96.677029879859589,40.838263253821736],[-96.675252130424894,40.838227424326632],[-96.675204934293305,40.839577583452289],[-96.673427152048632,40.83954172489166],[-96.673379916700782,40.840891881958463],[-96.67160210164667,40.840855994329779],[-96.669824289799692,40.840820079329973],[-96.668046481162335,40.840784136959201],[-96.66626867573703,40.840748167217583],[-96.664490873526219,40.840712170105284],[-96.664443454894112,40.842062318306297],[-96.662665619885061,40.842026292118824],[-96.662618162018205,40.843376438252655],[-96.660840294211397,40.843340382987513],[-96.660792797104889,40.844690527052734],[-96.660745296775843,40.846040670755293],[-96.658967360149816,40.846004584702591],[-96.659014896500864,40.84465444270743],[-96.657236999121807,40.844618330988105],[-96.655459104970177,40.844582191894943],[-96.65550671013456,40.843232052955599],[-96.653728855231606,40.843195888199929],[-96.651951003560683,40.843159696071986],[-96.651998677527928,40.841809560193383],[-96.650220865107343,40.841773342407031],[-96.65017315512425,40.843123476571911],[-96.648395309924751,40.843087229699854],[-96.648347560686688,40.844437361786596],[-96.646569682708758,40.844401085826313],[-96.646521894210821,40.845751215833459],[-96.644743983454987,40.845714910782441],[-96.644696155692316,40.847065038708564],[-96.642918212159032,40.847028704564302],[-96.64296607594386,40.845678578357273],[-96.641188171679943,40.845642218558105],[-96.641140271873169,40.846992343044732],[-96.639362334837202,40.846955954150026],[-96.639314395756443,40.848306076551467],[-96.637536425948923,40.848269658558692],[-96.637488447589305,40.849619778873517],[-96.637440465974421,40.850969898824765],[-96.639218507837015,40.851006320263856],[-96.639170558997805,40.852356441574806],[-96.637392481104058,40.852320018412442],[-96.637344492977917,40.853670137636527],[-96.639122606905303,40.853706562522213],[-96.639074651559227,40.855056683106142],[-96.639026692959348,40.856406803326536],[-96.638978731105382,40.857756923183388],[-96.640756956402583,40.857793325854146],[-96.640804882215335,40.856443204275038],[-96.640852804776486,40.855093082332466],[-96.640900724086251,40.853742960026437],[-96.640948640144885,40.852392837356973],[-96.640996552952643,40.851042714324066],[-96.641044462509782,40.84969259092771],[-96.641092368816544,40.848342467167917],[-96.642870345126752,40.848378830407967],[-96.642822474846795,40.849728955888281],[-96.644600490431756,40.849765293470988],[-96.646378509262206,40.849801603675658],[-96.646330707793553,40.851151732229958],[-96.648108765897049,40.851188016773193],[-96.649886827241417,40.851224273936829],[-96.649839094594569,40.852574405560212],[-96.648060997217527,40.852538146681063],[-96.646282903081598,40.852501860421029],[-96.646235095126073,40.853851988248842],[-96.644456968199066,40.853815672889894],[-96.644409120962692,40.855165798636264],[-96.644361270479806,40.856515924019305],[-96.64431341675018,40.857866049039025],[-96.646091651795686,40.857902369552868],[-96.646043830863448,40.859252495927691],[-96.645996006686403,40.860602621939258],[-96.644217699549685,40.86056629798847],[-96.64243939566046,40.860529946649322],[-96.642487291930905,40.859179824076065],[-96.640709027337934,40.859143447069783],[-96.640661095021173,40.860493567921942],[-96.638882797634267,40.860457161806487],[-96.637104503502172,40.860420728303097],[-96.635326212627348,40.860384267411909],[-96.635278168913402,40.861734382729352],[-96.633499845250512,40.861697892724195],[-96.631721524850008,40.861661375330236],[-96.631673405775956,40.863011486829876],[-96.629895052590598,40.862974940318267],[-96.62811670267277,40.862938366416863],[-96.628068508229603,40.864288474093243],[-96.626290125530105,40.864251871070557],[-96.626241891762646,40.865601976651234],[-96.62446347628196,40.865565344504724],[-96.622685064076649,40.865528684966243],[-96.622733369951504,40.864178582852887],[-96.62095499707732,40.864141897658214],[-96.621003335725518,40.862791796916198],[-96.62105167109398,40.861441695809923],[-96.619273373598574,40.861404986698474],[-96.617495079385094,40.861368250199405],[-96.617543483565314,40.860018152203537],[-96.61576522868144,40.859981390056255],[-96.615813665620351,40.858631293435224],[-96.617591884461433,40.858668053843303],[-96.617640282073708,40.857317955118702],[-96.617688676402352,40.855967856029721],[-96.619466826448502,40.856004585577288],[-96.621244979775568,40.8560412877424],[-96.621293298749166,40.854691184814946],[-96.623071419318464,40.854727857862358],[-96.623119698980048,40.853377752835634],[-96.623167975366101,40.852027647444785],[-96.624946027145512,40.852064289643295],[-96.626724082197754,40.852100904462802],[-96.626772283249949,40.850750795241872],[-96.628550305542916,40.850787380951203],[-96.630328331103556,40.850823939282513],[-96.63210635992948,40.850860470235681],[-96.632154449629084,40.84951035546176],[-96.630376456830902,40.849473826236974],[-96.630424579293219,40.848123712827601],[-96.632202536066103,40.848160240324084],[-96.632250619240821,40.846810124822632],[-96.63402854325291,40.846846623216486],[-96.634076587144861,40.845496505624396],[-96.635854478395657,40.845532974918093],[-96.635902483009758,40.844182855236816],[-96.637680341498765,40.844219295432886],[-96.63772830683989,40.842869173663857],[-96.639506132566581,40.8429055847648],[-96.63955405863959,40.841555460909454],[-96.641331851603496,40.841591842917801],[-96.643109647816274,40.841628197556162],[-96.644887447275494,40.841664524824424],[-96.644935262060656,40.840314395445219],[-96.646713028751208,40.84035069362568],[-96.646760804282408,40.839000562165765],[-96.648538538203766,40.839036831260927],[-96.648586274485865,40.837686697721729],[-96.648634007529594,40.836336563819444],[-96.650411672675418,40.836372802117069],[-96.650459366477605,40.835022666137007],[-96.652236998855457,40.835058875355742],[-96.652284653420963,40.833708737299325],[-96.654062253030332,40.83374491744167],[-96.655839855870013,40.833781070220773],[-96.655792273307711,40.835131211699931],[-96.657569915377223,40.835167338825123],[-96.65934756067243,40.835203438585495],[-96.659395071230549,40.833853293688755],[-96.657617461937562,40.833817195636527],[-96.657665005272463,40.832467052085192],[-96.655887435204448,40.832430928378812],[-96.655935011311257,40.831080786174056],[-96.654157480467731,40.831044636816195],[-96.65237995285402,40.831008460097706],[-96.652427597722038,40.82965832095249],[-96.654205089341588,40.829694495959153],[-96.654252694985871,40.828344354739265],[-96.654300297400837,40.826994213156517],[-96.656077720268428,40.827030357383002],[-96.656125283467233,40.825680213727104],[-96.6579026735741,40.825716328887651],[-96.65795019756159,40.824366183160009],[-96.659727554907235,40.824402269257149],[-96.66150491547414,40.824438327999673],[-96.661552364272239,40.823088178495425],[-96.663329692074726,40.823124208178207],[-96.665107023093384,40.823160210507375],[-96.66515439671106,40.821810057231978],[-96.665201767115278,40.820459903594191],[-96.666979029387491,40.820495875164966],[-96.668756294870491,40.820531819384449],[-96.668803590108411,40.819181661981098],[-96.668850882138258,40.817831504215469],[-96.668898170960247,40.816481346087599],[-96.670675331728162,40.816517257856916],[-96.670722581372956,40.81516709766737],[-96.672499709376183,40.815202980390843],[-96.674276840581896,40.815238835767758],[-96.676053974987653,40.815274663797972],[-96.677831112591008,40.815310464481342],[-96.679608253389574,40.815346237817728],[-96.681385397380851,40.815381983806986],[-96.681432428012542,40.814031813086189],[-96.681479455454166,40.812681642003632],[-96.683256530700419,40.812717357265051],[-96.685033609134067,40.812753045181637],[-96.685080561457582,40.811402870358251],[-96.686857607111648,40.811438529242267],[-96.688634655947993,40.811474160782467],[-96.688681533162409,40.810123982223701],[-96.690458549216018,40.81015958473499],[-96.692235568446762,40.810195159903472],[-96.694012590852225,40.810230707729012],[-96.694059357005955,40.808880523757978],[-96.695836346622826,40.808916042559417],[-96.695883073646073,40.807565856546205],[-96.695929797499957,40.806215670171788],[-96.694152879797485,40.806180154732175],[-96.694199636435812,40.804829969677378],[-96.695976518184722,40.804865483436203],[-96.696023235700608,40.80351529633942],[-96.697800084667008,40.803550781080737],[-96.697846763065328,40.802200591943411],[-96.699623579248751,40.80223604766973],[-96.699576936799602,40.803586238485153],[-96.701353792095972,40.803621668552495],[-96.703130650553661,40.803657071282643],[-96.703084076844718,40.805007265089444],[-96.704860974413648,40.805042642156543],[-96.704907512170251,40.803692446675463],[-96.706684376943286,40.803727794730797],[-96.706730875593266,40.802377597215965],[-96.708507707569936,40.802412916262071],[-96.70846124487035,40.803763115448533],[-96.708414779019179,40.805113314274266],[-96.710191686050919,40.805148609324633],[-96.710145253003418,40.806498809460123],[-96.710098816806266,40.807849009234978],[-96.711875798901346,40.807884280284554],[-96.71182939551494,40.809234481368051]],[[-96.659300046891076,40.836553583119567],[-96.661077731414451,40.836589657221914],[-96.661125209190899,40.835239510980941],[-96.65934756067243,40.835203438585495],[-96.659300046891076,40.836553583119567]],[[-96.688587775553728,40.812824338979759],[-96.690364863534882,40.81285994486101],[-96.690411707964159,40.811509764978702],[-96.688634655947993,40.811474160782467],[-96.688587775553728,40.812824338979759]],[[-96.70074761983021,40.821174138100375],[-96.700794267446184,40.819823950301291],[-96.700840911897899,40.818473762141167],[-96.699063660997197,40.818438313624682],[-96.699110338261121,40.81708812678103],[-96.697333126502812,40.817052652592096],[-96.69728641326293,40.818402837756913],[-96.697239696854169,40.819753022560555],[-96.697192977276288,40.82110320700302],[-96.697146254529045,40.822453391084295],[-96.69892361020581,40.822488871988924],[-96.69897029696979,40.821138686228622],[-96.70074761983021,40.821174138100375]]],[[[-96.708378461094568,40.857806147312736],[-96.708331905031073,40.859156333378472],[-96.706553557878465,40.859120971457294],[-96.706600149992539,40.857770787064638],[-96.708378461094568,40.857806147312736]]],[[[-96.696304702838802,40.84675664277777],[-96.694526702220372,40.846721104260908],[-96.694573518084866,40.845370928363522],[-96.696351482676391,40.845406465198849],[-96.696304702838802,40.84675664277777]]],[[[-96.688212617896326,40.823625751544107],[-96.686435245289516,40.823590104824703],[-96.686482187115473,40.822239931206312],[-96.688259523738054,40.822275576238873],[-96.688212617896326,40.823625751544107]]],[[[-96.691533155628704,40.830447850870144],[-96.689755596700067,40.830412250439743],[-96.68980248245775,40.829062075256353],[-96.691580005389497,40.829097674002142],[-96.691533155628704,40.830447850870144]]],[[[-96.689286564137461,40.843913982390411],[-96.689239643377235,40.845264153597022],[-96.689192719433478,40.846614324442065],[-96.687414731535469,40.846578676413486],[-96.687461691505149,40.845228507255143],[-96.685683742819009,40.845192833536984],[-96.685730735625981,40.843842665704948],[-96.687508648288855,40.843878337735177],[-96.689286564137461,40.843913982390411]]],[[[-96.690923819416369,40.848000117261876],[-96.689145792305979,40.847964494925542],[-96.689192719433478,40.846614324442065],[-96.690970710515259,40.846649945092921],[-96.690923819416369,40.848000117261876]]],[[[-96.692654991459179,40.849385885710745],[-96.69087692513591,40.849350289069314],[-96.690923819416369,40.848000117261876],[-96.692701849708328,40.848035712219051],[-96.692748704778381,40.846685538365925],[-96.694526702220372,40.846721104260908],[-96.694479883179426,40.84807127979694],[-96.694433060961799,40.849421454971598],[-96.694386235567251,40.850771629784866],[-96.692608130030621,40.850736058841001],[-96.692654991459179,40.849385885710745]]],[[[-96.690783127029292,40.85205063159966],[-96.689004991818408,40.852015004206486],[-96.689051928498685,40.850664834807759],[-96.690830027673627,40.850700460515249],[-96.690783127029292,40.85205063159966]]],[[[-96.690313945518568,40.865552322558941],[-96.688535449814111,40.865516678305241],[-96.688582418352894,40.864166512522708],[-96.690360877997023,40.864202155090041],[-96.690313945518568,40.865552322558941]]],[[[-96.688441503174687,40.868217008785358],[-96.688394525073576,40.869567173482928],[-96.686615924361348,40.869531496770044],[-96.686662938529906,40.868181333760333],[-96.686709949508327,40.866831170388892],[-96.688488478088118,40.866866843726129],[-96.688441503174687,40.868217008785358]]],[[[-96.679454391804754,40.870738671807516],[-96.677675771000224,40.870702856403788],[-96.677722968704813,40.869352702214847],[-96.679501553440701,40.869388515924186],[-96.679454391804754,40.870738671807516]]],[[[-96.686474862712416,40.873581983628732],[-96.686521886452852,40.87223182170424],[-96.688300559307251,40.87226750179304],[-96.688253571641582,40.873617665405575],[-96.686474862712416,40.873581983628732]]],[[[-96.684649093965874,40.874896434321727],[-96.68287035534469,40.874860696047385],[-96.682917454429898,40.873510537864796],[-96.682964550319113,40.872160379320313],[-96.684743216789329,40.872196114213288],[-96.684696156974383,40.873546274448422],[-96.684649093965874,40.874896434321727]]],[[[-96.689938371019139,40.876353649292547],[-96.688159586743964,40.876317991545577],[-96.688206580787238,40.874967828656423],[-96.688253571641582,40.873617665405575],[-96.690032283759422,40.873653319778825],[-96.689985328982516,40.875003484716501],[-96.689938371019139,40.876353649292547]]],[[[-96.68460202776356,40.876246593833194],[-96.686380805657961,40.876282306392412],[-96.688159586743964,40.876317991545577],[-96.688112589511519,40.877668154073035],[-96.686333772343431,40.877632467231606],[-96.684554958367201,40.877596752982839],[-96.684507885776526,40.87894691177064],[-96.682729038910551,40.878911168423748],[-96.682776147585272,40.877561011326868],[-96.682823253063233,40.876210853868081],[-96.68460202776356,40.876246593833194]]],[[[-96.676605323576752,40.850414688178468],[-96.676558134651799,40.851764845741215],[-96.674780024987228,40.851728999288866],[-96.674827249946119,40.850378843422149],[-96.674874471701003,40.849028687193304],[-96.676652509300098,40.849064530253656],[-96.676605323576752,40.850414688178468]]],[[[-96.66859317073974,40.875923947551584],[-96.668545776617904,40.877274091436966],[-96.666766994694655,40.877238103122608],[-96.666814424895847,40.875887960939714],[-96.66859317073974,40.875923947551584]]]]}},
{"type":"Feature","properties":{"band":60},"geometry":{"type":"MultiPolygon","coordinates":[[[[-96.740216279744359,40.811145353356189],[-96.741993386946859,40.811180162868972],[-96.743770497255909,40.811214945034891],[-96.74554761066905,40.811249699853796],[-96.74550188437712,40.812599931689888],[-96.747279036862238,40.812634660805251],[-96.749056192446815,40.812669362572038],[-96.750833351128449,40.812704036990105],[-96.752610512904681,40.812738684059333],[-96.754387677773082,40.812773303779565],[-96.756164845731206,40.812807896150659],[-96.756210356197769,40.811457654472427],[-96.757987491271464,40.811492217858429],[-96.758032962681696,40.810141974185463],[-96.759810064870479,40.810176508588896],[-96.759764629429782,40.811526753896331],[-96.759719190906893,40.812876998844956],[-96.761496368119595,40.812911509167876],[-96.763273548412286,40.812945992141096],[-96.763228178756492,40.814296239996246],[-96.761450962488922,40.814261755390987],[-96.761405553778019,40.815612001255346],[-96.759628304613628,40.815577487665749],[-96.759582856842755,40.816927731537895],[-96.757805574781969,40.816893188961423],[-96.757851058532111,40.815542946724022],[-96.756073815535927,40.815508378430316],[-96.756028295806757,40.816858619031692],[-96.75425101991955,40.816824021748808],[-96.752473747122778,40.81678939711292],[-96.75242815234337,40.818139634079252],[-96.750650846658729,40.818104980450514],[-96.750605212803009,40.819455215417705],[-96.748827874230969,40.819420532793607],[-96.748873544069639,40.81807029946777],[-96.747096244578543,40.818035591131135],[-96.747050538757151,40.819385822814354],[-96.745273206383999,40.819351085480065],[-96.743495877113958,40.819316320790861],[-96.741718550949443,40.819281528746899],[-96.741672734073347,40.820631755134976],[-96.739895375032631,40.820596934088535],[-96.739941227892913,40.81924670934832],[-96.738163907946785,40.819211862595246],[-96.736386591113515,40.819176988487833],[-96.736432512826184,40.817826766687517],[-96.734655235089249,40.817791866877577],[-96.732877960469779,40.817756939714847],[-96.732923951024375,40.816406720859362],[-96.731146715502959,40.816371767998191],[-96.729369483103653,40.816336787785829],[-96.727592253828888,40.816301780222389],[-96.727546155340619,40.817651994111415],[-96.725768893215431,40.817616957538974],[-96.725722755620112,40.818967169409838],[-96.723945460644998,40.818932103825894],[-96.722168168802199,40.818897010888712],[-96.720390880094186,40.818861890598434],[-96.71861359452339,40.818826742955196],[-96.716836312092241,40.81879156795916],[-96.716882629583154,40.817441364398377],[-96.715105386272469,40.817406163715553],[-96.715151736597505,40.816055961460187],[-96.715198083778503,40.814705758844319],[-96.715244427815691,40.813355555867965],[-96.713467295569131,40.813320332835069],[-96.713513672431191,40.811970131165154],[-96.713560046147506,40.81061992913471],[-96.715337106459685,40.810655148833838],[-96.717114169914936,40.810690341188192],[-96.717160468558447,40.809340135464915],[-96.715383441066976,40.809304944776066],[-96.713606416718321,40.809269726743736],[-96.71182939551494,40.809234481368051],[-96.711875798901346,40.807884280284554],[-96.710098816806266,40.807849009234978],[-96.710145253003418,40.806498809460123],[-96.710191686050919,40.805148609324633],[-96.708414779019179,40.805113314274266],[-96.70846124487035,40.803763115448533],[-96.708507707569936,40.802412916262071],[-96.706730875593266,40.802377597215965],[-96.706684376943286,40.803727794730797],[-96.704907512170251,40.803692446675463],[-96.704860974413648,40.805042642156543],[-96.703084076844718,40.805007265089444],[-96.703130650553661,40.803657071282643],[-96.701353792095972,40.803621668552495],[-96.699576936799602,40.803586238485153],[-96.699623579248751,40.80223604766973],[-96.697846763065328,40.802200591943411],[-96.697800084667008,40.803550781080737],[-96.696023235700608,40.80351529633942],[-96.695976518184722,40.804865483436203],[-96.694199636435812,40.804829969677378],[-96.694152879797485,40.806180154732175],[-96.695929797499957,40.806215670171788],[-96.695883073646073,40.807565856546205],[-96.695836346622826,40.808916042559417],[-96.694059357005955,40.808880523757978],[-96.694012590852225,40.810230707729012],[-96.692235568446762,40.810195159903472],[-96.690458549216018,40.81015958473499],[-96.688681533162409,40.810123982223701],[-96.688634655947993,40.811474160782467],[-96.686857607111648,40.811438529242267],[-96.685080561457582,40.811402870358251],[-96.685033609134067,40.812753045181637],[-96.683256530700419,40.812717357265051],[-96.681479455454166,40.812681642003632],[-96.681432428012542,40.814031813086189],[-96.681385397380851,40.815381983806986],[-96.679608253389574,40.815346237817728],[-96.677831112591008,40.815310464481342],[-96.676053974987653,40.815274663797972],[-96.674276840581896,40.815238835767758],[-96.672499709376183,40.815202980390843],[-96.670722581372956,40.81516709766737],[-96.670675331728162,40.816517257856916],[-96.668898170960247,40.816481346087599],[-96.668945456574647,40.81513118759748],[-96.667168334983685,40.815095250181322],[-96.667215653357644,40.813745093029617],[-96.665438570943152,40.813709129969276],[-96.665485922071809,40.812358974157142],[-96.667262968522067,40.812394935515599],[-96.667310280477196,40.811044777639282],[-96.669087294174687,40.811080709953671],[-96.669134566961148,40.809730550014621],[-96.669181836541256,40.808380389713335],[-96.670958781528071,40.808416291287074],[-96.671006011947057,40.807066128924554],[-96.669229102915239,40.807030229049857],[-96.66745219708929,40.806994301836617],[-96.66567529447164,40.806958347285011],[-96.663898395064734,40.806922365395174],[-96.663851020827252,40.808272520953821],[-96.662074088679518,40.8082365100217],[-96.662121498871002,40.806886356167233],[-96.660344605892888,40.806850319601352],[-96.658567716132808,40.80681425569766],[-96.656790829593177,40.806778164456311],[-96.656838344422312,40.805428015359496],[-96.655061497056195,40.805391898489916],[-96.653284652915175,40.805355754284264],[-96.653332236417697,40.804005608244516],[-96.65155543145184,40.80396943841474],[-96.651603047672296,40.8026192937239],[-96.651650660663293,40.801269148670215],[-96.649873930814664,40.801232954931912],[-96.648097204197697,40.80119673386185],[-96.648144885839443,40.799846591872367],[-96.648192564247353,40.798496449519902],[-96.648240239421682,40.797146306804429],[-96.650016858226394,40.797182522732143],[-96.650064494234812,40.795832377939711],[-96.650112127012605,40.794482232784368],[-96.651888677185028,40.794518417958869],[-96.653665230585418,40.794554575807908],[-96.655441787211345,40.794590706331348],[-96.657218347060379,40.794626809529028],[-96.658994910130104,40.794662885400825],[-96.658947457006676,40.796013039106356],[-96.658900000664772,40.797363192449325],[-96.658852541104125,40.798713345429711],[-96.660629215194234,40.79874939909417],[-96.660581788353497,40.800099553418342],[-96.662358501599329,40.800135581457802],[-96.6624058925009,40.798785425428562],[-96.664182573021677,40.798821424432759],[-96.664135218059528,40.800171582165795],[-96.66591193773165,40.800207555542151],[-96.667688660613294,40.800243501586728],[-96.669465386701987,40.80027942029939],[-96.671242115995341,40.800315311679995],[-96.673018848490884,40.80035117572838],[-96.674795584186214,40.800387012444453],[-96.674842723506742,40.799036844515818],[-96.676619426458274,40.79907265220465],[-96.676572323078872,40.800422821828008],[-96.678349065166458,40.800458603878944],[-96.680125810446498,40.800494358597099],[-96.680078775760066,40.801844531244306],[-96.681855560174455,40.801880260320495],[-96.681902558916576,40.800530085982352],[-96.681949554471089,40.799179911282508],[-96.683726270186668,40.799215609645117],[-96.683679310574263,40.800565786034532],[-96.685456065417128,40.800601458753519],[-96.685502989087169,40.799251280675819],[-96.687279711170163,40.799286924374478],[-96.687326595717536,40.797936744248283],[-96.68910328504019,40.797972358929115],[-96.689056436433233,40.799322540740945],[-96.690833164873922,40.799358129775072],[-96.69087997754022,40.798007946278908],[-96.690926787031557,40.796657762421383],[-96.690973593348176,40.795307578202511],[-96.69102039649033,40.793957393622307],[-96.692796984357201,40.793992948592177],[-96.692750217148642,40.79534313485523],[-96.692703446768064,40.796693320757008],[-96.69448010967686,40.796728851762609],[-96.694526844121143,40.795378664179204],[-96.69457357539585,40.794028476234594],[-96.696350169603846,40.794063976549424],[-96.696396861777529,40.792713786563404],[-96.694620303501182,40.79267828792878],[-96.694667028437408,40.791328099261776],[-96.69471375020477,40.789977910233581],[-96.694760468803509,40.788627720844204],[-96.694807184233866,40.787277531093658],[-96.694853896496085,40.785927340981921],[-96.696630275150582,40.785962831216573],[-96.698406656970548,40.785998294131254],[-96.69845329423049,40.784648100300068],[-96.698499928327621,40.783297906107862],[-96.698546559262226,40.781947711554629],[-96.700322836499836,40.781983142117745],[-96.700369428361867,40.780632945526499],[-96.698593187034533,40.780597516640384],[-96.698639811644767,40.779247321365141],[-96.698686433093201,40.777897125728906],[-96.700462602607288,40.777932551261195],[-96.700509184991162,40.776582353587138],[-96.702285321761181,40.776617750131393],[-96.70233186508537,40.775267550420978],[-96.702378405253341,40.773917350349706],[-96.704154473380186,40.773952716234348],[-96.704107969110837,40.775302917979708],[-96.704061461687672,40.776653119364283],[-96.705837604768206,40.77668846128568],[-96.70579113009471,40.7780386639824],[-96.705744652269374,40.779388866318399],[-96.705698171291928,40.78073906829367],[-96.70565168716216,40.782089269908212],[-96.705605199879813,40.783439471161998],[-96.70738152565599,40.783474794130626],[-96.70733507113691,40.784824996695633],[-96.709111435979821,40.784860294016717],[-96.709065014228898,40.786210497891808],[-96.710841418139026,40.786245769562676],[-96.71079502916109,40.787595974746658],[-96.709018589329517,40.787560701406264],[-96.708972161281466,40.788910904560083],[-96.710748637036914,40.788946179570075],[-96.710702241766242,40.790296384032906],[-96.710655843348846,40.79164658813518],[-96.710609441784442,40.792996791876845],[-96.712386028473347,40.79303204456847],[-96.714162618307043,40.793067269932386],[-96.714116285463376,40.794417476649329],[-96.714069949477107,40.795767683005792],[-96.715846614324249,40.795802884373913],[-96.715800311134345,40.797153092036041],[-96.715754004803784,40.79850329933776],[-96.717530744672658,40.798538476705041],[-96.717484471145511,40.799888685311302],[-96.715707695332341,40.799853506279071],[-96.715661382719759,40.801203712859945],[-96.717438194479683,40.801238893557219],[-96.717391914674891,40.80258910144277],[-96.71561506696581,40.802553919080403],[-96.71556874807024,40.803904124940431],[-96.715522426032805,40.805254330440022],[-96.715476100853294,40.806604535579147],[-96.715429772531422,40.807954740357836],[-96.717206764061544,40.807989929381257],[-96.71898375873181,40.808025091062333],[-96.719030015135615,40.806674882954212],[-96.720806976984221,40.806710015630038],[-96.720760756539804,40.808060225400943],[-96.722537757483067,40.808095332396945],[-96.722491569865454,40.809445543469138],[-96.722445379114745,40.810795754181143],[-96.724222455117911,40.810830837154967],[-96.725999534251969,40.810865892783326],[-96.726045653072958,40.80951567875195],[-96.72782269937025,40.809550705376935],[-96.729599748793319,40.809585704657465],[-96.731376801339735,40.809620676593376],[-96.731422809143396,40.808270457232815],[-96.733199828847205,40.808305400170191],[-96.734976851669259,40.808340315763978],[-96.736753877607114,40.808375204014041],[-96.736707977694721,40.809725428332136],[-96.738485042710167,40.809760290888249],[-96.740262110836795,40.809795126099083],[-96.740216279744359,40.811145353356189]],[[-96.727638349190158,40.814951565973324],[-96.725861159017356,40.814916532716964],[-96.725815027681108,40.81626674530802],[-96.727592253828888,40.816301780222389],[-96.727638349190158,40.814951565973324]],[[-96.669040018181619,40.812430869530509],[-96.67081707104802,40.812466776201738],[-96.670864311078802,40.811116614925666],[-96.669087294174687,40.811080709953671],[-96.669040018181619,40.812430869530509]],[[-96.658615195011095,40.805464104892842],[-96.658662670669159,40.80411395372542],[-96.656885856028779,40.804077865900005],[-96.656838344422312,40.805428015359496],[-96.658615195011095,40.805464104892842]],[[-96.674559839618581,40.807137846657852],[-96.672782924182314,40.807102001460613],[-96.672735729718568,40.808452165520862],[-96.672688532053584,40.809802329219039],[-96.674465519403256,40.809838177809233],[-96.674512681110329,40.808488012414543],[-96.674559839618581,40.807137846657852]],[[-96.667499496209714,40.805644142511163],[-96.667546792122081,40.804293982823452],[-96.665769961406141,40.804258031674863],[-96.663993133900448,40.804222053190621],[-96.663945766089057,40.805572209474086],[-96.665722629544135,40.805608189661108],[-96.667499496209714,40.805644142511163]],[[-96.698313372961337,40.788698680710532],[-96.696536919299447,40.788663214438643],[-96.696490236625095,40.79001340550802],[-96.698266726211585,40.790048873458609],[-96.700043218961866,40.790084314085185],[-96.700089829786748,40.788734119659708],[-96.698313372961337,40.788698680710532]],[[-96.67825492071276,40.803158945427064],[-96.678301994535971,40.801808774833923],[-96.676525216504587,40.801772991089472],[-96.676478106735132,40.803123159989028],[-96.676430993770282,40.804473328526662],[-96.678207843696597,40.804509115658355],[-96.67825492071276,40.803158945427064]],[[-96.669323626045824,40.804329906636255],[-96.669276366083352,40.805680068024145],[-96.671053239162603,40.805715966199898],[-96.671100463174952,40.804365803113122],[-96.669323626045824,40.804329906636255]],[[-96.65520413004576,40.801341454150894],[-96.655156588940585,40.802691602626645],[-96.656933364412836,40.802727716077833],[-96.656980869574724,40.801377565892999],[-96.65520413004576,40.801341454150894]],[[-96.655346734016163,40.797291006547297],[-96.657123365729888,40.797327113162552],[-96.6571708580056,40.79597696152711],[-96.655394262225428,40.795940856620675],[-96.655346734016163,40.797291006547297]],[[-96.658757612325601,40.801413650302749],[-96.658710143107243,40.802763802195386],[-96.660486925021402,40.802799860979142],[-96.660534358295976,40.801449707380002],[-96.658757612325601,40.801413650302749]],[[-96.660439488529519,40.80415001421575],[-96.660392048820086,40.805500167089818],[-96.662168905846897,40.805536201950289],[-96.662216309607416,40.80418604737087],[-96.660439488529519,40.80415001421575]]],[[[-96.773891540910128,40.814502573249761],[-96.772114306212387,40.814468252753194],[-96.770337074580254,40.814433904904831],[-96.770382300334177,40.81308365053453],[-96.772159495990266,40.813117996757327],[-96.773936694711722,40.813152315629637],[-96.773891540910128,40.814502573249761]]],[[[-96.715059032803183,40.818756365610419],[-96.713281756658631,40.818721135909158],[-96.713328146106079,40.817370935681481],[-96.715105386272469,40.817406163715553],[-96.715059032803183,40.818756365610419]]],[[[-96.710807724217887,40.838938813963779],[-96.709029914412284,40.838903504503229],[-96.708983402550899,40.840253695620682],[-96.707205559884329,40.840218357116491],[-96.707252107762145,40.838868167671173],[-96.707298652482038,40.837517977864998],[-96.709076423118191,40.837553313024983],[-96.71085419690958,40.837588620814756],[-96.710807724217887,40.838938813963779]]],[[[-96.707577854498979,40.829416831450224],[-96.707624377120339,40.828066639118184],[-96.705846861669741,40.828031288299798],[-96.70589341712936,40.826681097279781],[-96.704115940831173,40.826645720774643],[-96.70416252912419,40.825295531067809],[-96.704209114256855,40.823945341000034],[-96.705986518574392,40.823980714157152],[-96.70593996943083,40.825330905898909],[-96.707717412895391,40.825366253371712],[-96.707763926049594,40.824016059957259],[-96.709541336680019,40.824051378400213],[-96.709494859515431,40.825401573486069],[-96.709448379197795,40.826751768211182],[-96.709401895726899,40.828101962575552],[-96.709355409102457,40.829452156579194],[-96.707577854498979,40.829416831450224]]],[[[-96.700881730362241,40.765780759202094],[-96.699105883887469,40.765745348758664],[-96.699152473731104,40.764395149512751],[-96.70092828432476,40.764430558279962],[-96.700881730362241,40.765780759202094]]],[[[-96.700648913190378,40.772531758399495],[-96.70069548294012,40.7711815592818],[-96.698919492916616,40.771146142132885],[-96.698966095399257,40.76979594433076],[-96.700742049531939,40.769831359803199],[-96.700788612966065,40.768481159963706],[-96.702564534367795,40.768516546456262],[-96.70434045892452,40.768551905645197],[-96.70429396726793,40.76990210883362],[-96.704247472458505,40.771252311661307],[-96.702471476121559,40.771216949124657],[-96.702424942265324,40.772567149917592],[-96.700648913190378,40.772531758399495]]],[[[-96.696676948327834,40.784612639063901],[-96.694900605590405,40.784577150509037],[-96.694947311517083,40.783226959674998],[-96.69672361833986,40.783262446550125],[-96.696676948327834,40.784612639063901]]],[[[-96.694901140216331,40.83591968696404],[-96.693123430919343,40.835884134529742],[-96.693076601273546,40.83723431127418],[-96.693029768450572,40.838584487657215],[-96.691251990309382,40.838548904487894],[-96.691298859144155,40.837198729788568],[-96.689521120194371,40.837163120934164],[-96.687743384426639,40.837127484711097],[-96.687790322099758,40.835777313021467],[-96.687837256588622,40.834427140970256],[-96.686059596020158,40.834391480753638],[-96.686106563328778,40.833041310028229],[-96.687884187893502,40.833076968557457],[-96.687931116014624,40.831726795783091],[-96.689708707761554,40.831762425261651],[-96.689755596700067,40.830412250439743],[-96.691533155628704,40.830447850870144],[-96.691580005389497,40.829097674002142],[-96.68980248245775,40.829062075256353],[-96.68984936503486,40.827711899711453],[-96.689896244431651,40.826361723805086],[-96.691673695376863,40.826397319181886],[-96.691720535603949,40.825047141229646],[-96.693497953736951,40.825082707564867],[-96.695275375044943,40.825118246542793],[-96.695228606797812,40.82646842785995],[-96.69518183537788,40.827818608815846],[-96.695135060784949,40.82916878941046],[-96.695088283018734,40.830518969643769],[-96.695041502079008,40.831869149515803],[-96.694994717965528,40.833219329026512],[-96.69494793067804,40.834569508175932],[-96.694901140216331,40.83591968696404]]],[[[-96.700234287144426,40.836026180059605],[-96.698456568331281,40.835990709729117],[-96.698503286777964,40.834640527580319],[-96.700280969583218,40.834675996232413],[-96.700234287144426,40.836026180059605]]],[[[-96.690364863534882,40.81285994486101],[-96.688587775553728,40.812824338979759],[-96.688634655947993,40.811474160782467],[-96.690411707964159,40.811509764978702],[-96.690364863534882,40.81285994486101]]],[[[-96.69354475479922,40.823732527568175],[-96.691767372653615,40.823696962915982],[-96.691814206526132,40.822346784240928],[-96.693591552686755,40.822382347210151],[-96.69354475479922,40.823732527568175]]],[[[-96.667357589223272,40.809694619400688],[-96.665580614694193,40.809658661445781],[-96.665627956188416,40.808308504546567],[-96.667404894760551,40.808344460799781],[-96.667357589223272,40.809694619400688]]],[[[-96.665201767115278,40.820459903594191],[-96.66515439671106,40.821810057231978],[-96.665107023093384,40.823160210507375],[-96.663329692074726,40.823124208178207],[-96.663377101673447,40.821774056606465],[-96.663424508056281,40.820423904672268],[-96.665201767115278,40.820459903594191]]],[[[-96.675299323354693,40.836877264838904],[-96.675346513082928,40.835527104989097],[-96.677124190500919,40.83556293109357],[-96.678901871117773,40.835598729831659],[-96.678854753404039,40.836948893070733],[-96.678807632493644,40.838299055947871],[-96.677029879859589,40.838263253821736],[-96.677077036779821,40.836913092638646],[-96.675299323354693,40.836877264838904]]],[[[-96.666173907288936,40.843448466663794],[-96.664396033044852,40.843412466144791],[-96.66434860797817,40.844762613620787],[-96.664301179693823,40.846112760734265],[-96.662523236624651,40.846076729432582],[-96.662475769097469,40.847426874478657],[-96.660697793223989,40.847390814095213],[-96.658919820573558,40.84735472633502],[-96.658967360149816,40.846004584702591],[-96.660745296775843,40.846040670755293],[-96.660792797104889,40.844690527052734],[-96.660840294211397,40.843340382987513],[-96.662618162018205,40.843376438252655],[-96.662665619885061,40.842026292118824],[-96.664443454894112,40.842062318306297],[-96.664490873526219,40.840712170105284],[-96.66626867573703,40.840748167217583],[-96.668046481162335,40.840784136959201],[-96.669824289799692,40.840820079329973],[-96.67160210164667,40.840855994329779],[-96.671554827077671,40.842206149336292],[-96.669776979214561,40.842170232637059],[-96.667999134561313,40.842134288565546],[-96.667951784747984,40.843484439809522],[-96.666173907288936,40.843448466663794]]],[[[-96.67511053242373,40.842277900617361],[-96.673332678148213,40.842242038663095],[-96.673379916700782,40.840891881958463],[-96.675157734959669,40.840927742215861],[-96.67511053242373,40.842277900617361]]],[[[-96.673285436390657,40.843592195005584],[-96.671507549301296,40.843556303980556],[-96.671554827077671,40.842206149336292],[-96.673332678148213,40.842242038663095],[-96.673285436390657,40.843592195005584]]],[[[-96.661931838808911,40.812286969410152],[-96.66188441575251,40.813637121814651],[-96.660107342981249,40.813601076720651],[-96.660059880742068,40.814951227056802],[-96.660012415283376,40.816301377030371],[-96.658235273797587,40.8162653011778],[-96.658187769148569,40.817615449081522],[-96.658140261277069,40.818965596622576],[-96.658092750182888,40.820315743800961],[-96.659869999587642,40.8203518247755],[-96.659822521248358,40.821701973298666],[-96.659775039688299,40.823052121459213],[-96.661552364272239,40.823088178495425],[-96.66150491547414,40.824438327999673],[-96.659727554907235,40.824402269257149],[-96.65795019756159,40.824366183160009],[-96.6579026735741,40.825716328887651],[-96.656125283467233,40.825680213727104],[-96.656077720268428,40.827030357383002],[-96.654300297400837,40.826994213156517],[-96.654252694985871,40.828344354739265],[-96.654205089341588,40.829694495959153],[-96.652427597722038,40.82965832095249],[-96.65237995285402,40.831008460097706],[-96.654157480467731,40.831044636816195],[-96.655935011311257,40.831080786174056],[-96.655887435204448,40.832430928378812],[-96.655839855870013,40.833781070220773],[-96.654062253030332,40.83374491744167],[-96.652284653420963,40.833708737299325],[-96.652236998855457,40.835058875355742],[-96.650459366477605,40.835022666137007],[-96.650411672675418,40.836372802117069],[-96.648634007529594,40.836336563819444],[-96.648586274485865,40.837686697721729],[-96.648538538203766,40.839036831260927],[-96.646760804282408,40.839000562165765],[-96.646713028751208,40.84035069362568],[-96.644935262060656,40.840314395445219],[-96.644887447275494,40.841664524824424],[-96.643109647816274,40.841628197556162],[-96.641331851603496,40.841591842917801],[-96.63955405863959,40.841555460909454],[-96.639506132566581,40.8429055847648],[-96.63772830683989,40.842869173663857],[-96.637680341498765,40.844219295432886],[-96.635902483009758,40.844182855236816],[-96.635854478395657,40.845532974918093],[-96.634076587144861,40.845496505624396],[-96.63402854325291,40.846846623216486],[-96.632250619240821,40.846810124822632],[-96.632202536066103,40.848160240324084],[-96.630424579293219,40.848123712827601],[-96.628646625785095,40.84808715795554],[-96.626868675544173,40.848050575708072],[-96.625090728572872,40.848013966085304],[-96.623312784873661,40.847977329087428],[-96.623361048160135,40.846627222240066],[-96.62158314375705,40.846590559601893],[-96.621534844448945,40.847940664714557],[-96.619756907301209,40.847903972966847],[-96.617978973432855,40.847867253844441],[-96.618027344783386,40.84651715220506],[-96.616249450217708,40.846480407446684],[-96.614471558936046,40.846443635315211],[-96.612693670940828,40.846406835810761],[-96.612742147064239,40.845056739026461],[-96.610964298375578,40.845019913891591],[-96.611012807225549,40.843669818485083],[-96.609234997842904,40.843632967722449],[-96.607457191753539,40.843596089589873],[-96.607408610873904,40.844946181507879],[-96.605630772065794,40.844909274259315],[-96.605582151873321,40.84625936406632],[-96.60553352838221,40.847609453508504],[-96.607311439226535,40.847646364249655],[-96.607262848458276,40.848996455073433],[-96.607214254393298,40.85034654553246],[-96.607165657031359,40.85169663562673],[-96.607117056372203,40.853046725356229],[-96.605339001426188,40.853009807629036],[-96.605387638114451,40.85165971964615],[-96.603609622497174,40.85162277628816],[-96.601831610182018,40.851585805552908],[-96.60005360117141,40.851548807440551],[-96.598275595467783,40.851511781951245],[-96.598324372960377,40.850161700602627],[-96.598373147143803,40.848811618888917],[-96.600151080798625,40.84884864087487],[-96.600199815652402,40.847498557044482],[-96.601977716592714,40.847535549905757],[-96.602026412121702,40.846185463960126],[-96.602075104347179,40.844835377649538],[-96.603852936556066,40.844872339639821],[-96.603901589464328,40.843522251215525],[-96.603950239072006,40.842172162426351],[-96.605728002555793,40.842209093550927],[-96.60577661285383,40.840859002649559],[-96.605825219854239,40.839508911383398],[-96.607602914619207,40.839545811647582],[-96.609380612679118,40.83958268454586],[-96.611158314031513,40.839619530078089],[-96.611206809719718,40.83826943321327],[-96.611255302118082,40.836919335983914],[-96.613032934752084,40.83695615066592],[-96.6148105706732,40.836992937984171],[-96.616588209879012,40.837029697938505],[-96.616539825490449,40.838379800389887],[-96.618317503982283,40.838416534718263],[-96.618365852367077,40.837066430528779],[-96.618414197472049,40.835716325975028],[-96.620191807238314,40.835753029464378],[-96.620143498134922,40.837103135754859],[-96.62192114718016,40.837139813616588],[-96.623698799500332,40.837176464113817],[-96.623747036599781,40.835826354353756],[-96.625524656190095,40.835862975753493],[-96.625476455092993,40.837213087246411],[-96.625428250725832,40.838563198375326],[-96.627205945593602,40.838599795874757],[-96.627254113955729,40.837249683014228],[-96.629031776086066,40.837286251417105],[-96.629079905177719,40.835936136462365],[-96.630857534570154,40.835972675771202],[-96.632635167225075,40.836009187716101],[-96.632587110139895,40.837359306127475],[-96.634364782058483,40.837395792434677],[-96.636142457234939,40.837432251376377],[-96.637920135666846,40.837468682952419],[-96.637968084740464,40.836118559365765],[-96.639745730420998,40.836154961853495],[-96.639697817351745,40.837505087162654],[-96.641475502287207,40.837541464006947],[-96.643253190470787,40.83757781348514],[-96.643301031530569,40.836227684734851],[-96.645078686954733,40.836264005128186],[-96.64685634562187,40.836300298156438],[-96.646904111430644,40.834950165607012],[-96.646951873999114,40.833600032694441],[-96.646999633327511,40.832249899418713],[-96.645222082661817,40.832213611542066],[-96.64526987474602,40.830863479620255],[-96.647047389416102,40.830899765779861],[-96.647095142265144,40.829549631777844],[-96.647142891874864,40.828199497412712],[-96.645365449188674,40.828163214687024],[-96.645413231547636,40.82681308167561],[-96.643635828090993,40.826776773310748],[-96.643683643194308,40.825426641654211],[-96.641906278966729,40.825390307652818],[-96.641954126809537,40.824040177352344],[-96.640176801810497,40.824003817717077],[-96.64012891798501,40.825353946296964],[-96.638351560251593,40.825317557586793],[-96.638399480059519,40.823967430728793],[-96.636622161559018,40.82393101638764],[-96.634844846311452,40.823894574693746],[-96.634796854539431,40.825244698104093],[-96.633019506565574,40.825208227331856],[-96.631242161849741,40.825171729205877],[-96.631290225584863,40.823821609248355],[-96.629512920110699,40.823785085497143],[-96.629561016564324,40.822434966904147],[-96.629609109755521,40.82108484794739],[-96.627831879498572,40.821048300303097],[-96.627880005401224,40.819698182711981],[-96.629657199684544,40.819734728626841],[-96.629705286351665,40.818384608942516],[-96.629753369757111,40.8170344888944],[-96.627976247413699,40.8169979464382],[-96.62619912833415,40.816961376636456],[-96.624422012520895,40.81692477948932],[-96.624470200563096,40.815574664268986],[-96.622693123984106,40.81553804150969],[-96.622741344720964,40.814187927658445],[-96.620964307375758,40.814151279289661],[-96.619187273303623,40.814114603578496],[-96.617410242507006,40.814077900525085],[-96.617458567853788,40.812727791516444],[-96.619235562690463,40.812764492833004],[-96.619283848802027,40.811414381723345],[-96.619332131638572,40.810064270249541],[-96.619380411200368,40.808714158411583],[-96.619428687487641,40.807364046209486],[-96.619476960500648,40.80601393364325],[-96.621253778848171,40.806050598942178],[-96.623030600467274,40.806087236906478],[-96.622982399350548,40.807437352941825],[-96.622934194964415,40.808787468613176],[-96.624711091752147,40.808824082708],[-96.624662920049758,40.810174199748097],[-96.626439856058326,40.810210788236887],[-96.626487991807068,40.808860669465332],[-96.628264895126776,40.808897228885023],[-96.630041801708828,40.808933760966923],[-96.631818711550778,40.808970265710876],[-96.631770683664456,40.810320389669059],[-96.633547632718546,40.810356868801229],[-96.633595624650212,40.809006743116754],[-96.635372541004699,40.809043193184408],[-96.637149460611781,40.809079615913681],[-96.637101540590152,40.810429745046875],[-96.638878499402807,40.81046614216006],[-96.640655461463467,40.810502511933294],[-96.640607610107295,40.811852644146711],[-96.642384611371838,40.811888988299749],[-96.644161615879739,40.811925305111245],[-96.644113833199555,40.813275440399991],[-96.644066047278159,40.814625575325557],[-96.645843126951974,40.814661868230218],[-96.645795373755263,40.8160120045101],[-96.64574761731933,40.817362140426837],[-96.64752477216733,40.817398409419631],[-96.647572492634453,40.816048271786585],[-96.649349614750477,40.816084511717236],[-96.651126740100864,40.816120724301896],[-96.652903868683211,40.816156909540439],[-96.652951478012895,40.814806766403379],[-96.654728573857383,40.814842922584575],[-96.65468100049506,40.816193067432692],[-96.656458135533995,40.816229197978529],[-96.656505672928702,40.81487905142064],[-96.65655320709898,40.813528904500011],[-96.656600738045128,40.812178757216678],[-96.656648265767373,40.810828609570635],[-96.654871274584323,40.810792485863466],[-96.653094286627351,40.810756334815061],[-96.653141883041457,40.809406190226618],[-96.654918835040803,40.809442339564228],[-96.654966392271433,40.808092192902215],[-96.656743311541163,40.808128313190444],[-96.658520234034029,40.808164406139866],[-96.660297159747628,40.808200471750325],[-96.662074088679518,40.8082365100217],[-96.662026675272159,40.809586663513684],[-96.661979258648714,40.810936816643164],[-96.660202257802013,40.810900774960615],[-96.660154802001145,40.812250926021925],[-96.661931838808911,40.812286969410152]],[[-96.647190638245519,40.826849362684449],[-96.647238381377377,40.825499227593077],[-96.645461010665343,40.825462948301016],[-96.645413231547636,40.82681308167561],[-96.647190638245519,40.826849362684449]],[[-96.633499637531557,40.811706994122126],[-96.635276625798269,40.811743447639849],[-96.635324585027917,40.810393320593889],[-96.633547632718546,40.810356868801229],[-96.633499637531557,40.811706994122126]],[[-96.631482447925478,40.818421125781022],[-96.63143439722981,40.819771247193422],[-96.633211598034535,40.81980773841159],[-96.633259612758536,40.818457615272415],[-96.633307624225736,40.817107491769598],[-96.631530495361929,40.817071004004916],[-96.631482447925478,40.818421125781022]]],[[[-96.657569915377223,40.835167338825123],[-96.655792273307711,40.835131211699931],[-96.655839855870013,40.833781070220773],[-96.657617461937562,40.833817195636527],[-96.657569915377223,40.835167338825123]]],[[[-96.661077731414451,40.836589657221914],[-96.659300046891076,40.836553583119567],[-96.65934756067243,40.835203438585495],[-96.661125209190899,40.835239510980941],[-96.661077731414451,40.836589657221914]]],[[[-96.657236999121807,40.844618330988105],[-96.659014896500864,40.84465444270743],[-96.658967360149816,40.846004584702591],[-96.657189426749042,40.845968471274581],[-96.657236999121807,40.844618330988105]]],[[[-96.658872277771792,40.848704867604724],[-96.657094272320236,40.848668750759138],[-96.657141851148609,40.847318611198254],[-96.658919820573558,40.84735472633502],[-96.658872277771792,40.848704867604724]]]]}}
]
}
