{
"type": "FeatureCollection",
"name": "n27th-superior__sa_1900",
"crs": { "type": "name", "properties": { "name": "urn:ogc:def:crs:OGC:1.3:CRS84" } },
"features": [
{"type":"Feature","properties":{"band":15},"geometry":{"type":"Polygon","coordinates":[[[-96.683576506154353,40.854608285312629],[-96.683529451790804,40.855958448561168],[-96.68530768556036,40.855994163171687],[-96.685260664048968,40.85734432774823],[-96.687038937054098,40.857380016660791],[-96.686991948399736,40.858730182564202],[-96.686944956556985,40.860080348105896],[-96.686897961525545,40.86143051328591],[-96.68511958037017,40.861394819307328],[-96.683341202406126,40.861359097937076],[-96.683294132076099,40.862709259376466],[-96.681515721251372,40.862673508923294],[-96.681468611670383,40.864023668309393],[-96.679690167985456,40.863987888770765],[-96.679643019148642,40.865338046102117],[-96.677864542604013,40.865302237475547],[-96.676086069261231,40.865266401454001],[-96.676133290215546,40.863916247512194],[-96.677911727499691,40.863952081838328],[-96.677958909193791,40.862601925839051],[-96.67618050796581,40.862566093208265],[-96.67622772251228,40.86121593854223],[-96.676274933855197,40.859865783514067],[-96.674496607935566,40.859829926884125],[-96.672718285221691,40.85979404286465],[-96.672765565458249,40.858443890868571],[-96.674543852123776,40.858479773190311],[-96.674591093106486,40.857129619134334],[-96.674638330883937,40.855779464716178],[-96.676416548665046,40.855815316257015],[-96.676463747196209,40.854465159780496],[-96.676510942525042,40.853115002941898],[-96.678289091428098,40.853150823707132],[-96.680067243530814,40.853186617089058],[-96.681845398830703,40.853222383087498],[-96.681798311619886,40.854572545006825],[-96.683576506154353,40.854608285312629]],[[-96.681751221214057,40.8559227065643],[-96.681704127613003,40.857272867759882],[-96.68348239423446,40.85730861144787],[-96.683529451790804,40.855958448561168],[-96.681751221214057,40.8559227065643]]]}}
]
}
