{
"type": "FeatureCollection",
"name": "s40th-briarpark__wk_0800",
"crs": { "type": "name", "properties": { "name": "urn:ogc:def:crs:OGC:1.3:CRS84" } },
"features": [
{"type":"Feature","properties":{"band":15},"geometry":{"type":"MultiPolygon","coordinates":[[[[-96.667566195625525,40.752951759765644],[-96.667518985579434,40.754301931516196],[-96.669294487868001,40.754337819758064],[-96.669247310480515,40.755687992845466],[-96.66747177233222,40.755652102904648],[-96.667424555883628,40.757002273930986],[-96.669200129894065,40.757038165570833],[-96.670975707103693,40.757074029920084],[-96.670928559182883,40.7584242039812],[-96.66915294610844,40.758388337934157],[-96.669105759123383,40.75973850993541],[-96.669058568938638,40.761088681574606],[-96.66901137555395,40.762438852851737],[-96.667235658070652,40.762402954415094],[-96.665459943789941,40.762367028682831],[-96.665412675456778,40.763717196197867],[-96.663636928507316,40.763681241468163],[-96.663684232714274,40.762331075655084],[-96.661908524846055,40.762295095332],[-96.661861184765542,40.763645259441844],[-96.660085444233914,40.763609250119032],[-96.660132820187727,40.762259087713709],[-96.658357118741691,40.762223052800373],[-96.658404527353824,40.760872891738394],[-96.660180192929218,40.76090892494598],[-96.660227562458658,40.759558761815839],[-96.658451932751447,40.759522730313932],[-96.658499334934831,40.758172568526994],[-96.656723744307399,40.758136511439652],[-96.654948156896396,40.758100427061414],[-96.654995627591731,40.756750268326975],[-96.655043095068464,40.755400109229946],[-96.65681861075619,40.755436190192007],[-96.656866039156583,40.754086029024393],[-96.656913464341272,40.752735867494273],[-96.658688911530888,40.752771917754686],[-96.658736297646755,40.751421754155487],[-96.660511712195742,40.751457775424733],[-96.660559059247632,40.750107609757912],[-96.66233444115548,40.750143602038513],[-96.662381749148253,40.748793434305476],[-96.662429053933607,40.747443266210148],[-96.66420436735298,40.747479227802117],[-96.664157098414492,40.748829397599927],[-96.664109826271002,40.750179567035524],[-96.665885214591754,40.750215504748816],[-96.665837975094973,40.751565675523523],[-96.667613402470735,40.751601587652971],[-96.667566195625525,40.752951759765644]],[[-96.66728288732719,40.761052784837275],[-96.667330113381368,40.759702614897307],[-96.665554470841442,40.759666692566149],[-96.665507208918086,40.761016860805597],[-96.66728288732719,40.761052784837275]]],[[[-96.658404527353824,40.760872891738394],[-96.656628864992911,40.760836831237164],[-96.65667630625849,40.759486671519689],[-96.658451932751447,40.759522730313932],[-96.658404527353824,40.760872891738394]]]]}},
{"type":"Feature","properties":{"band":30},"geometry":{"type":"Polygon","coordinates":[[[-96.656628864992911,40.760836831237164],[-96.656581420510406,40.762186990592106],[-96.658357118741691,40.762223052800373],[-96.658404527353824,40.760872891738394],[-96.656628864992911,40.760836831237164]]]}},
{"type":"Feature","properties":{"band":45},"geometry":{"type":"MultiPolygon","coordinates":[[[[-96.678913663789515,40.784256524197545],[-96.680689977930584,40.784292258614251],[-96.680736971165615,40.782942081264515],[-96.682513252581089,40.782977786673747],[-96.682560206719003,40.781627607272313],[-96.684336455408399,40.781663283676593],[-96.686112707279534,40.78169893276575],[-96.686065824962867,40.783049115543285],[-96.686018939466635,40.784399297959325],[-96.684242615771581,40.784363645495283],[-96.682466295258749,40.784327965713551],[-96.682419334751742,40.785678144391724],[-96.682372371059813,40.787028322708274],[-96.680595981898989,40.786992612228659],[-96.678819595925745,40.786956874429052],[-96.677043213142511,40.786921109309581],[-96.675266833551746,40.786885316870396],[-96.675313940912389,40.785535145322363],[-96.673537600433065,40.785499327258975],[-96.67358474051322,40.784149157044325],[-96.671808439144854,40.78411331335937],[-96.670032140975735,40.784077442357706],[-96.668255846008293,40.784041544039475],[-96.666479554244987,40.784005618404834],[-96.666526834772682,40.782655454622017],[-96.664750582126388,40.782619503372764],[-96.664703265688189,40.783969665453903],[-96.662926980340401,40.783933685186838],[-96.661150698203997,40.783897677603797],[-96.661198086462377,40.782547518929874],[-96.659421843449564,40.782511485736528],[-96.659469264401665,40.781161328405652],[-96.657693060511903,40.781125269604658],[-96.657740514152877,40.779775113617987],[-96.657787964575888,40.778424957268761],[-96.656011835710643,40.778388874570695],[-96.65605931881548,40.777038719566789],[-96.656106798700407,40.775688564200237],[-96.656154275365708,40.774338408471088],[-96.654378257411153,40.774302303590012],[-96.654425766749043,40.772952149207185],[-96.65447327286536,40.771601994461705],[-96.656249219038372,40.771638095924963],[-96.656296686046232,40.770287939107995],[-96.654520775760346,40.770251839353556],[-96.654568275434258,40.768901683882746],[-96.656344149835448,40.768937781928443],[-96.656391610406246,40.767587624386316],[-96.656439067758896,40.766237466481613],[-96.65648652189364,40.764887308214341],[-96.656533972810735,40.763537149584508],[-96.656581420510406,40.762186990592106],[-96.658357118741691,40.762223052800373],[-96.660132820187727,40.762259087713709],[-96.660085444233914,40.763609250119032],[-96.661861184765542,40.763645259441844],[-96.661908524846055,40.762295095332],[-96.663684232714274,40.762331075655084],[-96.663636928507316,40.763681241468163],[-96.665412675456778,40.763717196197867],[-96.665459943789941,40.762367028682831],[-96.667235658070652,40.762402954415094],[-96.66901137555395,40.762438852851737],[-96.668964178969119,40.763789023766797],[-96.667188425611528,40.763753123630792],[-96.667141189949547,40.765103292484326],[-96.668916979183848,40.765139194319758],[-96.668869776197923,40.766489364510647],[-96.668822570011073,40.767839534339437],[-96.67059843420725,40.767875412273014],[-96.67055126070349,40.769225583438065],[-96.672327163982899,40.769261435767618],[-96.67228002316709,40.770611608267757],[-96.670504084000768,40.770575754241065],[-96.670456904098813,40.77192592468203],[-96.670409720997398,40.773276094760938],[-96.670362534696281,40.774626264477789],[-96.670315345195178,40.775976433832582],[-96.672091427933452,40.776012294648446],[-96.67386751386951,40.776048128155338],[-96.67382039296659,40.777398300541712],[-96.673773268868089,40.778748472566136],[-96.673726141573752,40.780098644228616],[-96.675502338411093,40.780134455511266],[-96.675549429801023,40.778784282153765],[-96.677325593927378,40.77882006442956],[-96.67727853844211,40.780170239480796],[-96.677231479765609,40.781520414170203],[-96.679007718895193,40.781556172518989],[-96.678960692936997,40.78290634853915],[-96.678913663789515,40.784256524197545]],[[-96.657835411781178,40.777074800556974],[-96.659611507964343,40.77711085423806],[-96.659658916054852,40.775760695457222],[-96.657882855769031,40.77572464348264],[-96.657835411781178,40.777074800556974]]],[[[-96.698406656970548,40.785998294131254],[-96.69845329423049,40.784648100300068],[-96.698499928327621,40.783297906107862],[-96.700276241477937,40.783333338348051],[-96.700229643295913,40.784683534217407],[-96.700183041953537,40.786033729725808],[-96.698406656970548,40.785998294131254]]],[[[-96.693124266020632,40.78454163463563],[-96.693077521009485,40.785891823427434],[-96.691301148693185,40.78585627855324],[-96.689524779549672,40.785820706359488],[-96.687748413581318,40.785785106846312],[-96.68779526634151,40.784434923105515],[-96.687842115924312,40.783084739003293],[-96.689618410062891,40.783120335146606],[-96.691394707376162,40.783155903973096],[-96.693171007861707,40.783191445482593],[-96.694947311517083,40.783226959674998],[-96.69672361833986,40.783262446550125],[-96.696676948327834,40.784612639063901],[-96.694900605590405,40.784577150509037],[-96.693124266020632,40.78454163463563]]],[[[-96.665507208918086,40.761016860805597],[-96.665554470841442,40.759666692566149],[-96.667330113381368,40.759702614897307],[-96.66728288732719,40.761052784837275],[-96.665507208918086,40.761016860805597]]],[[[-96.656723744307399,40.758136511439652],[-96.658499334934831,40.758172568526994],[-96.658451932751447,40.759522730313932],[-96.65667630625849,40.759486671519689],[-96.656723744307399,40.758136511439652]]],[[[-96.658404527353824,40.760872891738394],[-96.658451932751447,40.759522730313932],[-96.660227562458658,40.759558761815839],[-96.660180192929218,40.76090892494598],[-96.658404527353824,40.760872891738394]]],[[[-96.654853205848923,40.760800743442466],[-96.654900682982202,40.759450585433257],[-96.65667630625849,40.759486671519689],[-96.656628864992911,40.760836831237164],[-96.654853205848923,40.760800743442466]]]]}},
{"type":"Feature","properties":{"band":60},"geometry":{"type":"MultiPolygon","coordinates":[[[[-96.714301597984871,40.789016647618851],[-96.714255274567549,40.79036685541714],[-96.714208948008348,40.791717062854993],[-96.714162618307043,40.793067269932386],[-96.714116285463376,40.794417476649329],[-96.714069949477107,40.795767683005792],[-96.714023610348008,40.797117889001804],[-96.715800311134345,40.797153092036041],[-96.715754004803784,40.79850329933776],[-96.715707695332341,40.799853506279071],[-96.713930922660296,40.799818299912388],[-96.713884574101215,40.80116850482694],[-96.713838222398323,40.802518709380998],[-96.712061380974902,40.802483472344726],[-96.712014990176854,40.803833674870553],[-96.711968596232055,40.805183877035802],[-96.713745509560169,40.805219117407646],[-96.713699148424411,40.806569320880193],[-96.711922199140318,40.806534078840471],[-96.711875798901346,40.807884280284554],[-96.710098816806266,40.807849009234978],[-96.710052377459235,40.809199208649162],[-96.708275362553678,40.809163908587195],[-96.7082288840937,40.810514105970057],[-96.710005934962069,40.81054940770268],[-96.709959489314542,40.811899606395549],[-96.708182402480929,40.811864302992184],[-96.708135917715097,40.813214499653569],[-96.706358798067086,40.813179167232612],[-96.704581681574808,40.813143807464982],[-96.704628238275262,40.811793614149074],[-96.702851160908097,40.811758228709607],[-96.702897750415161,40.810408036707436],[-96.702944336762087,40.809057844344331],[-96.701167334481397,40.809022434911505],[-96.701213953627885,40.807672243863237],[-96.701260569612316,40.806322052453972],[-96.701307182434931,40.804971860683729],[-96.699530291186704,40.804936428939513],[-96.699576936799602,40.803586238485153],[-96.701353792095972,40.803621668552495],[-96.70140039859568,40.802271476060291],[-96.699623579248751,40.80223604766973],[-96.699670218534365,40.800885856493281],[-96.699716854656714,40.799535664955819],[-96.699763487616025,40.798185473057316],[-96.697986779265563,40.798150022364844],[-96.698033445001528,40.796799831783147],[-96.698080107572522,40.795449640840374],[-96.699856744046528,40.795485088177266],[-96.699903367518203,40.794134895195754],[-96.698126766978788,40.794099449536517],[-96.698173423220553,40.792749257871598],[-96.698220076298071,40.791399065845638],[-96.699996604975624,40.791434508149699],[-96.700043218961866,40.790084314085185],[-96.700089829786748,40.788734119659708],[-96.698313372961337,40.788698680710532],[-96.696536919299447,40.788663214438643],[-96.694760468803509,40.788627720844204],[-96.692984021475951,40.788592199927336],[-96.692937266953095,40.789942387635435],[-96.691160786872459,40.789906837713694],[-96.69111399325223,40.791257023377895],[-96.689337480419027,40.791221444448801],[-96.68938430996532,40.789871260468544],[-96.687607836234093,40.789835655900085],[-96.68583136568121,40.789800024008485],[-96.684054898309142,40.789764364793889],[-96.682278434120263,40.789728678256409],[-96.680501973117046,40.789692964396217],[-96.680454963944072,40.791043139937422],[-96.678678470204318,40.791007397062955],[-96.678725515301878,40.789657223213439],[-96.676949060677245,40.789621454708218],[-96.67517260924555,40.789585658880704],[-96.675219722996204,40.788235488056507],[-96.673443310681321,40.788199666602331],[-96.67349045715585,40.786849497111632],[-96.671714083957269,40.786813650033459],[-96.671761263150813,40.785463481877436],[-96.669984929068036,40.785427609177894],[-96.668208598187221,40.785391709160521],[-96.666432270510739,40.785355781825409],[-96.666479554244987,40.784005618404834],[-96.668255846008293,40.784041544039475],[-96.670032140975735,40.784077442357706],[-96.671808439144854,40.78411331335937],[-96.67358474051322,40.784149157044325],[-96.673537600433065,40.785499327258975],[-96.675313940912389,40.785535145322363],[-96.675266833551746,40.786885316870396],[-96.677043213142511,40.786921109309581],[-96.678819595925745,40.786956874429052],[-96.680595981898989,40.786992612228659],[-96.682372371059813,40.787028322708274],[-96.682419334751742,40.785678144391724],[-96.682466295258749,40.784327965713551],[-96.684242615771581,40.784363645495283],[-96.686018939466635,40.784399297959325],[-96.686065824962867,40.783049115543285],[-96.686112707279534,40.78169893276575],[-96.684336455408399,40.781663283676593],[-96.682560206719003,40.781627607272313],[-96.682513252581089,40.782977786673747],[-96.680736971165615,40.782942081264515],[-96.680689977930584,40.784292258614251],[-96.678913663789515,40.784256524197545],[-96.678960692936997,40.78290634853915],[-96.679007718895193,40.781556172518989],[-96.677231479765609,40.781520414170203],[-96.67727853844211,40.780170239480796],[-96.677325593927378,40.77882006442956],[-96.679101761244709,40.778855819393414],[-96.679054741664345,40.780205996137063],[-96.680830948075368,40.780241725479947],[-96.680877931750572,40.778891547045134],[-96.682654105442566,40.778927247384608],[-96.684430282318246,40.778962920411686],[-96.684383370454071,40.780313102224916],[-96.686159586416892,40.780348749626732],[-96.686206462375168,40.778998566126226],[-96.68798264561093,40.779034184528093],[-96.68793580555878,40.780384369714575],[-96.687888962329993,40.781734554539639],[-96.687842115924312,40.783084739003293],[-96.68779526634151,40.784434923105515],[-96.687748413581318,40.785785106846312],[-96.689524779549672,40.785820706359488],[-96.691301148693185,40.78585627855324],[-96.693077521009485,40.785891823427434],[-96.693124266020632,40.78454163463563],[-96.694900605590405,40.784577150509037],[-96.696676948327834,40.784612639063901],[-96.69672361833986,40.783262446550125],[-96.694947311517083,40.783226959674998],[-96.693171007861707,40.783191445482593],[-96.691394707376162,40.783155903973096],[-96.689618410062891,40.783120335146606],[-96.68966522055733,40.781770148998142],[-96.68971202787732,40.78041996248831],[-96.691488253370053,40.780455527947801],[-96.691535021609212,40.779105339393233],[-96.693311214366886,40.779140875856221],[-96.695087410293638,40.779176385005961],[-96.69686360938708,40.779211866842324],[-96.698639811644767,40.779247321365141],[-96.698686433093201,40.777897125728906],[-96.700462602607288,40.777932551261195],[-96.700416017064271,40.77928274857431],[-96.702192225643159,40.77931814846967],[-96.702238775280534,40.777967949480967],[-96.70401495111048,40.778003320388081],[-96.70579113009471,40.7780386639824],[-96.707567312230793,40.778073980263791],[-96.707520870311825,40.779424184271491],[-96.709297091503942,40.779459474910219],[-96.709250682344376,40.780809680227769],[-96.711026942593008,40.780844945221176],[-96.710980566197691,40.782195151847375],[-96.71093418665707,40.783545358113017],[-96.712710521877128,40.783580599126509],[-96.714486860240271,40.783615812821331],[-96.714440549388016,40.784966022061354],[-96.714394235394863,40.786316230940933],[-96.714347918260572,40.787666439460111],[-96.714301597984871,40.789016647618851]],[[-96.709157854582543,40.783510089781025],[-96.709204270037304,40.78215988518469],[-96.707427977024665,40.782124591204926],[-96.70738152565599,40.783474794130626],[-96.70733507113691,40.784824996695633],[-96.709111435979821,40.784860294016717],[-96.709157854582543,40.783510089781025]],[[-96.700229643295913,40.784683534217407],[-96.700276241477937,40.783333338348051],[-96.698499928327621,40.783297906107862],[-96.69845329423049,40.784648100300068],[-96.698406656970548,40.785998294131254],[-96.700183041953537,40.786033729725808],[-96.700229643295913,40.784683534217407]]],[[[-96.66915294610844,40.758388337934157],[-96.670928559182883,40.7584242039812],[-96.670881408065085,40.759774377680337],[-96.669105759123383,40.75973850993541],[-96.66915294610844,40.758388337934157]]],[[[-96.67386751386951,40.776048128155338],[-96.672091427933452,40.776012294648446],[-96.670315345195178,40.775976433832582],[-96.670362534696281,40.774626264477789],[-96.672138581537922,40.774662123596258],[-96.673914631577091,40.774697955407056],[-96.67386751386951,40.776048128155338]]],[[[-96.65433074485145,40.77565245761015],[-96.656106798700407,40.775688564200237],[-96.65605931881548,40.777038719566789],[-96.654283229069662,40.777002611267612],[-96.65433074485145,40.77565245761015]]],[[[-96.675643603000921,40.776083934353146],[-96.675596517997548,40.777434108434392],[-96.67382039296659,40.777398300541712],[-96.67386751386951,40.776048128155338],[-96.675643603000921,40.776083934353146]]],[[[-96.664703265688189,40.783969665453903],[-96.664655946041051,40.785319827172728],[-96.662879624780587,40.785283845202635],[-96.662926980340401,40.783933685186838],[-96.664703265688189,40.783969665453903]]]]}}
]
}
