{
"type": "FeatureCollection",
"name": "s40th-briarpark__tue_2000",
"crs": { "type": "name", "properties": { "name": "urn:ogc:def:crs:OGC:1.3:CRS84" } },
"features": [
{"type":"Feature","properties":{"band":15},"geometry":{"type":"MultiPolygon","coordinates":[[[[-96.667566195625525,40.752951759765644],[-96.667518985579434,40.754301931516196],[-96.669294487868001,40.754337819758064],[-96.669247310480515,40.755687992845466],[-96.66747177233222,40.755652102904648],[-96.667424555883628,40.757002273930986],[-96.669200129894065,40.757038165570833],[-96.670975707103693,40.757074029920084],[-96.670928559182883,40.7584242039812],[-96.66915294610844,40.758388337934157],[-96.669105759123383,40.75973850993541],[-96.669058568938638,40.761088681574606],[-96.66901137555395,40.762438852851737],[-96.667235658070652,40.762402954415094],[-96.665459943789941,40.762367028682831],[-96.665412675456778,40.763717196197867],[-96.663636928507316,40.763681241468163],[-96.663684232714274,40.762331075655084],[-96.661908524846055,40.762295095332],[-96.661861184765542,40.763645259441844],[-96.660085444233914,40.763609250119032],[-96.660132820187727,40.762259087713709],[-96.658357118741691,40.762223052800373],[-96.658404527353824,40.760872891738394],[-96.660180192929218,40.76090892494598],[-96.660227562458658,40.759558761815839],[-96.658451932751447,40.759522730313932],[-96.658499334934831,40.758172568526994],[-96.656723744307399,40.758136511439652],[-96.654948156896396,40.758100427061414],[-96.654995627591731,40.756750268326975],[-96.655043095068464,40.755400109229946],[-96.65681861075619,40.755436190192007],[-96.656866039156583,40.754086029024393],[-96.656913464341272,40.752735867494273],[-96.658688911530888,40.752771917754686],[-96.658736297646755,40.751421754155487],[-96.660511712195742,40.751457775424733],[-96.660559059247632,40.750107609757912],[-96.66233444115548,40.750143602038513],[-96.662381749148253,40.748793434305476],[-96.662429053933607,40.747443266210148],[-96.66420436735298,40.747479227802117],[-96.664157098414492,40.748829397599927],[-96.664109826271002,40.750179567035524],[-96.665885214591754,40.750215504748816],[-96.665837975094973,40.751565675523523],[-96.667613402470735,40.751601587652971],[-96.667566195625525,40.752951759765644]],[[-96.66728288732719,40.761052784837275],[-96.667330113381368,40.759702614897307],[-96.665554470841442,40.759666692566149],[-96.665507208918086,40.761016860805597],[-96.66728288732719,40.761052784837275]]],[[[-96.658404527353824,40.760872891738394],[-96.656628864992911,40.760836831237164],[-96.65667630625849,40.759486671519689],[-96.658451932751447,40.759522730313932],[-96.658404527353824,40.760872891738394]]]]}},
{"type":"Feature","properties":{"band":30},"geometry":{"type":"Polygon","coordinates":[[[-96.656628864992911,40.760836831237164],[-96.656581420510406,40.762186990592106],[-96.658357118741691,40.762223052800373],[-96.658404527353824,40.760872891738394],[-96.656628864992911,40.760836831237164]]]}}
]
}
