{
"type": "FeatureCollection",
"name": "unl-east-campus__tue_2000",
"crs": { "type": "name", "properties": { "name": "urn:ogc:def:crs:OGC:1.3:CRS84" } },
"features": [
{"type":"Feature","properties":{"band":15},"geometry":{"type":"Polygon","coordinates":[[[-96.686388300279077,40.824940278081478],[-96.686341352083915,40.826290450976664],[-96.686294400703787,40.827640623510227],[-96.686247446138466,40.828990795682181],[-96.684469932755775,40.828955114854089],[-96.684422939008812,40.830305284975921],[-96.682645392818088,40.830269575097581],[-96.680867849817943,40.830233837857605],[-96.68082078088635,40.831584004236788],[-96.679043205081328,40.83154823794289],[-96.678996096956155,40.832898402267737],[-96.677218488346767,40.832862606917423],[-96.675440882935732,40.832826784203306],[-96.673663280725521,40.832790934125562],[-96.673616061397638,40.834141093003034],[-96.671838426388902,40.834105213864056],[-96.670060794586121,40.834069307360409],[-96.66828316599171,40.834033373492247],[-96.668235835448442,40.83538352691032],[-96.666458174061376,40.835347563976107],[-96.664680515887795,40.835311573676378],[-96.664727918437748,40.833961423662956],[-96.662950299483086,40.833925407702111],[-96.661172683746528,40.833889364377335],[-96.661220155081608,40.832539217411131],[-96.65944257856566,40.832503148429339],[-96.659490082678019,40.831153002807277],[-96.657712545382168,40.831116908171111],[-96.657760082266947,40.82976676389432],[-96.657807615927027,40.82841661925481],[-96.659585081235463,40.828452710475155],[-96.66136254976594,40.828488774337004],[-96.661410008221239,40.827138625920462],[-96.661457463457225,40.825788477141344],[-96.663234863228624,40.825824510234213],[-96.665012266216664,40.825860515970888],[-96.665059646262009,40.824510363420345],[-96.665107023093384,40.823160210507375],[-96.666884357325742,40.823196185482793],[-96.668661694769355,40.823232133104334],[-96.670439035421822,40.823268053371848],[-96.67221637928067,40.823303946285193],[-96.672263608971733,40.821953786208127],[-96.674040920052278,40.821989650069973],[-96.673993726343497,40.823339811844221],[-96.67577107660783,40.823375650048803],[-96.675723915682497,40.824725813156952],[-96.67750130513113,40.824761625701591],[-96.679278697776667,40.824797410890213],[-96.679325786731354,40.823447244394011],[-96.681103146585656,40.82348300053436],[-96.681150196362879,40.822132831984277],[-96.681197242948556,40.8207826630724],[-96.68124428634296,40.819432493798715],[-96.683021541445839,40.819468217512068],[-96.684798799737322,40.819503913874129],[-96.684751828300449,40.82085408652771],[-96.684704853677133,40.822204258819617],[-96.684657875867174,40.823554430749851],[-96.686435245289516,40.823590104824703],[-96.686388300279077,40.824940278081478]]]}},
{"type":"Feature","properties":{"band":30},"geometry":{"type":"MultiPolygon","coordinates":[[[[-96.711690166468557,40.813285082454939],[-96.711643750489912,40.814635282096027],[-96.711597331362597,40.815985481376472],[-96.711550909086398,40.81733568029631],[-96.711504483661031,40.818685878855511],[-96.711458055086268,40.820036077054077],[-96.711411623361883,40.821386274892006],[-96.709634281551033,40.821350987146346],[-96.709587810691815,40.822701182953637],[-96.707810436048547,40.822665866182014],[-96.706033064560259,40.822630522054531],[-96.705986518574392,40.823980714157152],[-96.704209114256855,40.823945341000034],[-96.70416252912419,40.825295531067809],[-96.702385091977888,40.825260128878561],[-96.702338467693551,40.826610316910049],[-96.700560997718981,40.826574885686128],[-96.698783530909878,40.82653942710305],[-96.698736831475742,40.827889611418819],[-96.696959331841526,40.827854123797415],[-96.69518183537788,40.827818608815846],[-96.695228606797812,40.82646842785995],[-96.695275375044943,40.825118246542793],[-96.693497953736951,40.825082707564867],[-96.691720535603949,40.825047141229646],[-96.691673695376863,40.826397319181886],[-96.689896244431651,40.826361723805086],[-96.68984936503486,40.827711899711453],[-96.68980248245775,40.829062075256353],[-96.688024962706606,40.829026449149637],[-96.687978040952245,40.830376622647151],[-96.686200488387684,40.830340967492496],[-96.686153527451197,40.831691138941181],[-96.684375942073714,40.831655454736072],[-96.684328941950241,40.833005624134508],[-96.682551323760336,40.832969910876415],[-96.680773708761507,40.832934170254106],[-96.680726633443143,40.834284335909594],[-96.67894898563506,40.834248566230656],[-96.67717134102314,40.834212769186486],[-96.67539369960987,40.834176944777234],[-96.673616061397638,40.834141093003034],[-96.673663280725521,40.832790934125562],[-96.675440882935732,40.832826784203306],[-96.677218488346767,40.832862606917423],[-96.678996096956155,40.832898402267737],[-96.679043205081328,40.83154823794289],[-96.68082078088635,40.831584004236788],[-96.680867849817943,40.830233837857605],[-96.682645392818088,40.830269575097581],[-96.684422939008812,40.830305284975921],[-96.684469932755775,40.828955114854089],[-96.686247446138466,40.828990795682181],[-96.686294400703787,40.827640623510227],[-96.686341352083915,40.826290450976664],[-96.686388300279077,40.824940278081478],[-96.686435245289516,40.823590104824703],[-96.684657875867174,40.823554430749851],[-96.684704853677133,40.822204258819617],[-96.684751828300449,40.82085408652771],[-96.684798799737322,40.819503913874129],[-96.683021541445839,40.819468217512068],[-96.68124428634296,40.819432493798715],[-96.681197242948556,40.8207826630724],[-96.681150196362879,40.822132831984277],[-96.681103146585656,40.82348300053436],[-96.679325786731354,40.823447244394011],[-96.679278697776667,40.824797410890213],[-96.67750130513113,40.824761625701591],[-96.675723915682497,40.824725813156952],[-96.67577107660783,40.823375650048803],[-96.675818234334088,40.822025486578653],[-96.674040920052278,40.821989650069973],[-96.674088110559765,40.820639487933654],[-96.674135297866229,40.819289325435257],[-96.675912540190311,40.819325158552346],[-96.675959688320788,40.817974993996202],[-96.677736897867774,40.818010798068173],[-96.67778400682711,40.816660631455711],[-96.679561183596491,40.816696406485057],[-96.681338363558851,40.816732154165997],[-96.681385397380851,40.815381983806986],[-96.681432428012542,40.814031813086189],[-96.68320953922526,40.81406753003786],[-96.684986653625586,40.8141032196434],[-96.686763771211105,40.814138881902686],[-96.686810690752637,40.812788705753256],[-96.688587775553728,40.812824338979759],[-96.690364863534882,40.81285994486101],[-96.692141954693696,40.812895523396875],[-96.693919049027713,40.812931074587198],[-96.695696146534516,40.812966598431849],[-96.695742883067297,40.811616413502243],[-96.697519947778446,40.811651908321231],[-96.699297015657237,40.811687375795536],[-96.699343677092614,40.810337187146473],[-96.70112071217261,40.810372625598781],[-96.702897750415161,40.810408036707436],[-96.702944336762087,40.809057844344331],[-96.70472134220266,40.809093226434648],[-96.706498350800672,40.809128581182314],[-96.706451836378122,40.81047877689322],[-96.7082288840937,40.810514105970057],[-96.708182402480929,40.811864302992184],[-96.709959489314542,40.811899606395549],[-96.709913040516398,40.813249804727718],[-96.711690166468557,40.813285082454939]],[[-96.69354475479922,40.823732527568175],[-96.693591552686755,40.822382347210151],[-96.691814206526132,40.822346784240928],[-96.691767372653615,40.823696962915982],[-96.69354475479922,40.823732527568175]]],[[[-96.67221637928067,40.823303946285193],[-96.670439035421822,40.823268053371848],[-96.668661694769355,40.823232133104334],[-96.668708996424215,40.82188197642553],[-96.670486301094897,40.821917894993277],[-96.672263608971733,40.821953786208127],[-96.67221637928067,40.823303946285193]]],[[[-96.661457463457225,40.825788477141344],[-96.661410008221239,40.827138625920462],[-96.66136254976594,40.828488774337004],[-96.659585081235463,40.828452710475155],[-96.657807615927027,40.82841661925481],[-96.657760082266947,40.82976676389432],[-96.657712545382168,40.831116908171111],[-96.659490082678019,40.831153002807277],[-96.65944257856566,40.832503148429339],[-96.661220155081608,40.832539217411131],[-96.661172683746528,40.833889364377335],[-96.662950299483086,40.833925407702111],[-96.664727918437748,40.833961423662956],[-96.664680515887795,40.835311573676378],[-96.666458174061376,40.835347563976107],[-96.668235835448442,40.83538352691032],[-96.668188501694118,40.836733679966066],[-96.669966202298397,40.836769617235063],[-96.669918901341362,40.838119771628989],[-96.66814116472851,40.838083832659457],[-96.666363431327184,40.838047866321673],[-96.664585701139856,40.838011872615795],[-96.66280797416897,40.837975851541948],[-96.662855419158873,40.836625703957885],[-96.661077731414451,40.836589657221914],[-96.661125209190899,40.835239510980941],[-96.65934756067243,40.835203438585495],[-96.659395071230549,40.833853293688755],[-96.657617461937562,40.833817195636527],[-96.657665005272463,40.832467052085192],[-96.655887435204448,40.832430928378812],[-96.655935011311257,40.831080786174056],[-96.655982584190696,40.829730643606489],[-96.654205089341588,40.829694495959153],[-96.654252694985871,40.828344354739265],[-96.654300297400837,40.826994213156517],[-96.656077720268428,40.827030357383002],[-96.656125283467233,40.825680213727104],[-96.6579026735741,40.825716328887651],[-96.65795019756159,40.824366183160009],[-96.659727554907235,40.824402269257149],[-96.66150491547414,40.824438327999673],[-96.661552364272239,40.823088178495425],[-96.663329692074726,40.823124208178207],[-96.665107023093384,40.823160210507375],[-96.665059646262009,40.824510363420345],[-96.665012266216664,40.825860515970888],[-96.663234863228624,40.825824510234213],[-96.661457463457225,40.825788477141344]]],[[[-96.671838426388902,40.834105213864056],[-96.673616061397638,40.834141093003034],[-96.673568838866245,40.835491251518405],[-96.671791167853328,40.835455370681608],[-96.670013500046565,40.835419462478875],[-96.668235835448442,40.83538352691032],[-96.66828316599171,40.834033373492247],[-96.670060794586121,40.834069307360409],[-96.671838426388902,40.834105213864056]]]]}},
{"type":"Feature","properties":{"band":45},"geometry":{"type":"MultiPolygon","coordinates":[[[[-96.706684376943286,40.803727794730797],[-96.706637875139279,40.805077991884851],[-96.708414779019179,40.805113314274266],[-96.708368310016169,40.806463512739299],[-96.710145253003418,40.806498809460123],[-96.710098816806266,40.807849009234978],[-96.711875798901346,40.807884280284554],[-96.71182939551494,40.809234481368051],[-96.713606416718321,40.809269726743736],[-96.713560046147506,40.81061992913471],[-96.713513672431191,40.811970131165154],[-96.713467295569131,40.813320332835069],[-96.715244427815691,40.813355555867965],[-96.715198083778503,40.814705758844319],[-96.715151736597505,40.816055961460187],[-96.715105386272469,40.817406163715553],[-96.713328146106079,40.817370935681481],[-96.713281756658631,40.818721135909158],[-96.713235364064204,40.820071335776277],[-96.711458055086268,40.820036077054077],[-96.711504483661031,40.818685878855511],[-96.711550909086398,40.81733568029631],[-96.711597331362597,40.815985481376472],[-96.711643750489912,40.814635282096027],[-96.711690166468557,40.813285082454939],[-96.709913040516398,40.813249804727718],[-96.709959489314542,40.811899606395549],[-96.708182402480929,40.811864302992184],[-96.7082288840937,40.810514105970057],[-96.706451836378122,40.81047877689322],[-96.706498350800672,40.809128581182314],[-96.70472134220266,40.809093226434648],[-96.702944336762087,40.809057844344331],[-96.702897750415161,40.810408036707436],[-96.70112071217261,40.810372625598781],[-96.699343677092614,40.810337187146473],[-96.699297015657237,40.811687375795536],[-96.697519947778446,40.811651908321231],[-96.695742883067297,40.811616413502243],[-96.695696146534516,40.812966598431849],[-96.693919049027713,40.812931074587198],[-96.692141954693696,40.812895523396875],[-96.690364863534882,40.81285994486101],[-96.688587775553728,40.812824338979759],[-96.686810690752637,40.812788705753256],[-96.686763771211105,40.814138881902686],[-96.684986653625586,40.8141032196434],[-96.68320953922526,40.81406753003786],[-96.681432428012542,40.814031813086189],[-96.681479455454166,40.812681642003632],[-96.683256530700419,40.812717357265051],[-96.685033609134067,40.812753045181637],[-96.685080561457582,40.811402870358251],[-96.686857607111648,40.811438529242267],[-96.686904520288408,40.810088352369732],[-96.688681533162409,40.810123982223701],[-96.68872840719726,40.808773803303446],[-96.690505387290727,40.808809404129853],[-96.690458549216018,40.81015958473499],[-96.692235568446762,40.810195159903472],[-96.692282370561102,40.808844977614754],[-96.694059357005955,40.808880523757978],[-96.695836346622826,40.808916042559417],[-96.69761333940933,40.80895153401891],[-96.697660030473898,40.807601346326052],[-96.699436990468641,40.80763680876511],[-96.701213953627885,40.807672243863237],[-96.701260569612316,40.806322052453972],[-96.703037499976645,40.806357458535324],[-96.703084076844718,40.805007265089444],[-96.704860974413648,40.805042642156543],[-96.704907512170251,40.803692446675463],[-96.706684376943286,40.803727794730797]]],[[[-96.706033064560259,40.822630522054531],[-96.707810436048547,40.822665866182014],[-96.707763926049594,40.824016059957259],[-96.707717412895391,40.825366253371712],[-96.70593996943083,40.825330905898909],[-96.705986518574392,40.823980714157152],[-96.706033064560259,40.822630522054531]]],[[[-96.696912593243781,40.829204306072683],[-96.695135060784949,40.82916878941046],[-96.693357531499359,40.829133245386892],[-96.693310717735756,40.830483423938198],[-96.691533155628704,40.830447850870144],[-96.691486302689555,40.831798027376713],[-96.689708707761554,40.831762425261651],[-96.687931116014624,40.831726795783091],[-96.686153527451197,40.831691138941181],[-96.686200488387684,40.830340967492496],[-96.687978040952245,40.830376622647151],[-96.688024962706606,40.829026449149637],[-96.68980248245775,40.829062075256353],[-96.68984936503486,40.827711899711453],[-96.689896244431651,40.826361723805086],[-96.691673695376863,40.826397319181886],[-96.691720535603949,40.825047141229646],[-96.693497953736951,40.825082707564867],[-96.695275375044943,40.825118246542793],[-96.695228606797812,40.82646842785995],[-96.69518183537788,40.827818608815846],[-96.696959331841526,40.827854123797415],[-96.696912593243781,40.829204306072683]]],[[[-96.679561183596491,40.816696406485057],[-96.679608253389574,40.815346237817728],[-96.681385397380851,40.815381983806986],[-96.681338363558851,40.816732154165997],[-96.679561183596491,40.816696406485057]]],[[[-96.675912540190311,40.819325158552346],[-96.674135297866229,40.819289325435257],[-96.674088110559765,40.820639487933654],[-96.674040920052278,40.821989650069973],[-96.672263608971733,40.821953786208127],[-96.670486301094897,40.821917894993277],[-96.668708996424215,40.82188197642553],[-96.668661694769355,40.823232133104334],[-96.666884357325742,40.823196185482793],[-96.665107023093384,40.823160210507375],[-96.66515439671106,40.821810057231978],[-96.665201767115278,40.820459903594191],[-96.666979029387491,40.820495875164966],[-96.668756294870491,40.820531819384449],[-96.668803590108411,40.819181661981098],[-96.668850882138258,40.817831504215469],[-96.668898170960247,40.816481346087599],[-96.670675331728162,40.816517257856916],[-96.670722581372956,40.81516709766737],[-96.672499709376183,40.815202980390843],[-96.674276840581896,40.815238835767758],[-96.674229662877039,40.816588999352298],[-96.676006833253155,40.816624829078073],[-96.676053974987653,40.815274663797972],[-96.677831112591008,40.815310464481342],[-96.67778400682711,40.816660631455711],[-96.677736897867774,40.818010798068173],[-96.675959688320788,40.817974993996202],[-96.675912540190311,40.819325158552346]]],[[[-96.691767372653615,40.823696962915982],[-96.691814206526132,40.822346784240928],[-96.693591552686755,40.822382347210151],[-96.69354475479922,40.823732527568175],[-96.691767372653615,40.823696962915982]]],[[[-96.684375942073714,40.831655454736072],[-96.686153527451197,40.831691138941181],[-96.686106563328778,40.833041310028229],[-96.684328941950241,40.833005624134508],[-96.684375942073714,40.831655454736072]]],[[[-96.680726633443143,40.834284335909594],[-96.680679554931046,40.835634501203224],[-96.678901871117773,40.835598729831659],[-96.677124190500919,40.83556293109357],[-96.675346513082928,40.835527104989097],[-96.673568838866245,40.835491251518405],[-96.673616061397638,40.834141093003034],[-96.67539369960987,40.834176944777234],[-96.67717134102314,40.834212769186486],[-96.67894898563506,40.834248566230656],[-96.680726633443143,40.834284335909594]]],[[[-96.673993726343497,40.823339811844221],[-96.674040920052278,40.821989650069973],[-96.675818234334088,40.822025486578653],[-96.67577107660783,40.823375650048803],[-96.673993726343497,40.823339811844221]]],[[[-96.671743906111544,40.836805527136967],[-96.669966202298397,40.836769617235063],[-96.670013500046565,40.835419462478875],[-96.671791167853328,40.835455370681608],[-96.673568838866245,40.835491251518405],[-96.673521613131115,40.836841409671628],[-96.675299323354693,40.836877264838904],[-96.675252130424894,40.838227424326632],[-96.673474384192005,40.838191567462715],[-96.671696641163336,40.838155683230113],[-96.671743906111544,40.836805527136967]]]]}},
{"type":"Feature","properties":{"band":60},"geometry":{"type":"MultiPolygon","coordinates":[[[[-96.70341002647902,40.795555900863029],[-96.701633383682832,40.795520508184879],[-96.70167997121969,40.794170313526962],[-96.701726555596906,40.792820118508111],[-96.703503126525376,40.792855507836144],[-96.70345657808079,40.794205704530022],[-96.705233188099086,40.794241068204798],[-96.705186672432632,40.795591266211616],[-96.70341002647902,40.795555900863029]]],[[[-96.704954046770368,40.802342250833547],[-96.706730875593266,40.802377597215965],[-96.706684376943286,40.803727794730797],[-96.704907512170251,40.803692446675463],[-96.704860974413648,40.805042642156543],[-96.703084076844718,40.805007265089444],[-96.703037499976645,40.806357458535324],[-96.701260569612316,40.806322052453972],[-96.701213953627885,40.807672243863237],[-96.699436990468641,40.80763680876511],[-96.697660030473898,40.807601346326052],[-96.697706718371535,40.806251158272062],[-96.699483642409803,40.806286619032832],[-96.699530291186704,40.804936428939513],[-96.697753403102496,40.804900969856966],[-96.697800084667008,40.803550781080737],[-96.699576936799602,40.803586238485153],[-96.699623579248751,40.80223604766973],[-96.699670218534365,40.800885856493281],[-96.699716854656714,40.799535664955819],[-96.699763487616025,40.798185473057316],[-96.701540199129283,40.798220896417888],[-96.70158679298612,40.796870702481854],[-96.703363471719797,40.796906096835194],[-96.703316913802894,40.798256292446453],[-96.70509363163444,40.798291661142841],[-96.705047106502235,40.79964185806724],[-96.705000578214296,40.800992054630811],[-96.704954046770368,40.802342250833547]]],[[[-96.706684376943286,40.803727794730797],[-96.70846124487035,40.803763115448533],[-96.708414779019179,40.805113314274266],[-96.706637875139279,40.805077991884851],[-96.706684376943286,40.803727794730797]]],[[[-96.708368310016169,40.806463512739299],[-96.708414779019179,40.805113314274266],[-96.710191686050919,40.805148609324633],[-96.710145253003418,40.806498809460123],[-96.708368310016169,40.806463512739299]]],[[[-96.710145253003418,40.806498809460123],[-96.711922199140318,40.806534078840471],[-96.711875798901346,40.807884280284554],[-96.710098816806266,40.807849009234978],[-96.710145253003418,40.806498809460123]]],[[[-96.69761333940933,40.80895153401891],[-96.695836346622826,40.808916042559417],[-96.694059357005955,40.808880523757978],[-96.694106119987609,40.807530339425711],[-96.695883073646073,40.807565856546205],[-96.697660030473898,40.807601346326052],[-96.69761333940933,40.80895153401891]]],[[[-96.690458549216018,40.81015958473499],[-96.690505387290727,40.808809404129853],[-96.692282370561102,40.808844977614754],[-96.692235568446762,40.810195159903472],[-96.690458549216018,40.81015958473499]]],[[[-96.686153527451197,40.831691138941181],[-96.687931116014624,40.831726795783091],[-96.687884187893502,40.833076968557457],[-96.686106563328778,40.833041310028229],[-96.686153527451197,40.831691138941181]]],[[[-96.685871694918916,40.839792160038698],[-96.685824711675679,40.841142328955797],[-96.685777725244776,40.842492497511216],[-96.685730735625981,40.843842665704948],[-96.683952826151256,40.843806966299873],[-96.683905797321287,40.845157132442694],[-96.683858765300485,40.846507298223742],[-96.683811730088621,40.847857463643031],[-96.685589747639654,40.847893168115974],[-96.685636746823647,40.846543001007333],[-96.687414731535469,40.846578676413486],[-96.687367768379588,40.847928845210198],[-96.687320802037263,40.849279013645244],[-96.685542745266773,40.849243334862905],[-96.683764691685411,40.849207628700526],[-96.683717650090614,40.850557793396248],[-96.685495739704734,40.850593501248113],[-96.685448730953325,40.851943667271605],[-96.68540171901229,40.853293832933367],[-96.683623557325348,40.853258121702318],[-96.683576506154353,40.854608285312629],[-96.683529451790804,40.855958448561168],[-96.681751221214057,40.8559227065643],[-96.679972993832564,40.855886937181225],[-96.680020120280403,40.854536777316099],[-96.680067243530814,40.853186617089058],[-96.680114363584011,40.85183645650006],[-96.680161480440276,40.850486295549132],[-96.678383400408947,40.850450505554171],[-96.678430550100529,40.849100345934694],[-96.680208594099838,40.849136134236289],[-96.680255704562938,40.847785972561525],[-96.678477696593205,40.847750185953231],[-96.678524839887231,40.846400025609789],[-96.678571979982877,40.845049864904382],[-96.678619116880355,40.843699703836982],[-96.678666250579937,40.842349542407632],[-96.676888389901777,40.842313735198921],[-96.67693555642083,40.840963575101874],[-96.678713381081835,40.840999380616324],[-96.678760508386333,40.839649218463066],[-96.680538300229813,40.839684994912936],[-96.68058538832463,40.838334830704902],[-96.678807632493644,40.838299055947871],[-96.677029879859589,40.838263253821736],[-96.675252130424894,40.838227424326632],[-96.675299323354693,40.836877264838904],[-96.673521613131115,40.836841409671628],[-96.673568838866245,40.835491251518405],[-96.675346513082928,40.835527104989097],[-96.677124190500919,40.83556293109357],[-96.678901871117773,40.835598729831659],[-96.678854753404039,40.836948893070733],[-96.680632473224975,40.836984666134995],[-96.680679554931046,40.835634501203224],[-96.680726633443143,40.834284335909594],[-96.680773708761507,40.832934170254106],[-96.682551323760336,40.832969910876415],[-96.684328941950241,40.833005624134508],[-96.686106563328778,40.833041310028229],[-96.686059596020158,40.834391480753638],[-96.684281938638151,40.834355793171234],[-96.684234932137173,40.835705961846244],[-96.684187922447066,40.837056130159517],[-96.685965651843404,40.8370918211195],[-96.687743384426639,40.837127484711097],[-96.687696443569038,40.838477656039117],[-96.6876494995267,40.839827827005543],[-96.685871694918916,40.839792160038698]]],[[[-96.686857607111648,40.811438529242267],[-96.685080561457582,40.811402870358251],[-96.685033609134067,40.812753045181637],[-96.683256530700419,40.812717357265051],[-96.681479455454166,40.812681642003632],[-96.681432428012542,40.814031813086189],[-96.681385397380851,40.815381983806986],[-96.679608253389574,40.815346237817728],[-96.679561183596491,40.816696406485057],[-96.67778400682711,40.816660631455711],[-96.677831112591008,40.815310464481342],[-96.676053974987653,40.815274663797972],[-96.676006833253155,40.816624829078073],[-96.674229662877039,40.816588999352298],[-96.674276840581896,40.815238835767758],[-96.672499709376183,40.815202980390843],[-96.670722581372956,40.81516709766737],[-96.670675331728162,40.816517257856916],[-96.668898170960247,40.816481346087599],[-96.668945456574647,40.81513118759748],[-96.667168334983685,40.815095250181322],[-96.667215653357644,40.813745093029617],[-96.665438570943152,40.813709129969276],[-96.665485922071809,40.812358974157142],[-96.667262968522067,40.812394935515599],[-96.667310280477196,40.811044777639282],[-96.669087294174687,40.811080709953671],[-96.669040018181619,40.812430869530509],[-96.67081707104802,40.812466776201738],[-96.670864311078802,40.811116614925666],[-96.672641331187094,40.811152492555117],[-96.674418354497121,40.811188342841895],[-96.676195381006465,40.811224165785845],[-96.67797241071267,40.811259961386824],[-96.678019503697357,40.809909792964888],[-96.678066593487841,40.808559624181051],[-96.679843554468732,40.808595389053593],[-96.681620518641154,40.808631126585468],[-96.683397486002633,40.808666836776531],[-96.685174456550783,40.808702519626642],[-96.686951430283131,40.808738175135666],[-96.686904520288408,40.810088352369732],[-96.686857607111648,40.811438529242267]]],[[[-96.683529451790804,40.855958448561168],[-96.68530768556036,40.855994163171687],[-96.685260664048968,40.85734432774823],[-96.68348239423446,40.85730861144787],[-96.683529451790804,40.855958448561168]]],[[[-96.681657030816453,40.858623028593591],[-96.681609930824152,40.859973189065386],[-96.67983159530192,40.859937414604843],[-96.679784456061867,40.861287573022125],[-96.678006087686512,40.861251769477732],[-96.678053262978125,40.859901612754363],[-96.67810043506887,40.858551455668973],[-96.67814760395899,40.857201298221533],[-96.679925864187027,40.857237096684393],[-96.681704127613003,40.857272867759882],[-96.68348239423446,40.85730861144787],[-96.683435333485065,40.858658773972778],[-96.681657030816453,40.858623028593591]]],[[[-96.668235835448442,40.83538352691032],[-96.670013500046565,40.835419462478875],[-96.669966202298397,40.836769617235063],[-96.668188501694118,40.836733679966066],[-96.668235835448442,40.83538352691032]]],[[[-96.675204934293305,40.839577583452289],[-96.673427152048632,40.83954172489166],[-96.673379916700782,40.840891881958463],[-96.67160210164667,40.840855994329779],[-96.671554827077671,40.842206149336292],[-96.669776979214561,40.842170232637059],[-96.667999134561313,40.842134288565546],[-96.666221293120344,40.842098317121909],[-96.664443454894112,40.842062318306297],[-96.664490873526219,40.840712170105284],[-96.664538288941387,40.839362021541781],[-96.662760525960195,40.839325998763471],[-96.662713074532306,40.840676145622432],[-96.660935278757776,40.840640093769167],[-96.660982766198146,40.839289948616035],[-96.65920500965764,40.839253871099643],[-96.659252529886231,40.837903727290936],[-96.657474812579252,40.837867624114075],[-96.65752236559122,40.836517481650972],[-96.659300046891076,40.836553583119567],[-96.65934756067243,40.835203438585495],[-96.661125209190899,40.835239510980941],[-96.661077731414451,40.836589657221914],[-96.662855419158873,40.836625703957885],[-96.66280797416897,40.837975851541948],[-96.664585701139856,40.838011872615795],[-96.666363431327184,40.838047866321673],[-96.66814116472851,40.838083832659457],[-96.669918901341362,40.838119771628989],[-96.669966202298397,40.836769617235063],[-96.671743906111544,40.836805527136967],[-96.671696641163336,40.838155683230113],[-96.673474384192005,40.838191567462715],[-96.675252130424894,40.838227424326632],[-96.675204934293305,40.839577583452289]]],[[[-96.67511053242373,40.842277900617361],[-96.673332678148213,40.842242038663095],[-96.673379916700782,40.840891881958463],[-96.675157734959669,40.840927742215861],[-96.67511053242373,40.842277900617361]]],[[[-96.671554827077671,40.842206149336292],[-96.673332678148213,40.842242038663095],[-96.673285436390657,40.843592195005584],[-96.671507549301296,40.843556303980556],[-96.671554827077671,40.842206149336292]]],[[[-96.66188441575251,40.813637121814651],[-96.660107342981249,40.813601076720651],[-96.660059880742068,40.814951227056802],[-96.660012415283376,40.816301377030371],[-96.658235273797587,40.8162653011778],[-96.658187769148569,40.817615449081522],[-96.656410594914675,40.817579344173701],[-96.654633423905679,40.817543211918014],[-96.652856256124011,40.817507052314639],[-96.652903868683211,40.816156909540439],[-96.65468100049506,40.816193067432692],[-96.656458135533995,40.816229197978529],[-96.656505672928702,40.81487905142064],[-96.65655320709898,40.813528904500011],[-96.656600738045128,40.812178757216678],[-96.658377768412407,40.812214855290712],[-96.660154802001145,40.812250926021925],[-96.661931838808911,40.812286969410152],[-96.66188441575251,40.813637121814651]]],[[[-96.663424508056281,40.820423904672268],[-96.665201767115278,40.820459903594191],[-96.66515439671106,40.821810057231978],[-96.665107023093384,40.823160210507375],[-96.663329692074726,40.823124208178207],[-96.663377101673447,40.821774056606465],[-96.663424508056281,40.820423904672268]]]]}}
]
}
