{
"type": "FeatureCollection",
"name": "unl-east-campus__sat_1700",
"crs": { "type": "name", "properties": { "name": "urn:ogc:def:crs:OGC:1.3:CRS84" } },
"features": [
{"type":"Feature","properties":{"band":15},"geometry":{"type":"Polygon","coordinates":[[[-96.673946529433195,40.824689973256412],[-96.675723915682497,40.824725813156952],[-96.675676751557816,40.82607597590308],[-96.677454176994075,40.826111790142463],[-96.677407045659891,40.827461954221377],[-96.67735991112832,40.828812117938341],[-96.679137411744819,40.828847908207507],[-96.679090310010793,40.830198073256149],[-96.679043205081328,40.83154823794289],[-96.677265632471986,40.831512444286368],[-96.675488063060797,40.831476623267356],[-96.675440882935732,40.832826784203306],[-96.673663280725521,40.832790934125562],[-96.673616061397638,40.834141093003034],[-96.671838426388902,40.834105213864056],[-96.670060794586121,40.834069307360409],[-96.66828316599171,40.834033373492247],[-96.668235835448442,40.83538352691032],[-96.666458174061376,40.835347563976107],[-96.6665055406081,40.833997412259713],[-96.664727918437748,40.833961423662956],[-96.662950299483086,40.833925407702111],[-96.662997734817878,40.832575259030435],[-96.661220155081608,40.832539217411131],[-96.661267623196366,40.831189070082353],[-96.663045166934779,40.831225109996218],[-96.663092595834058,40.829874960599476],[-96.663140021515972,40.828524810840221],[-96.663187443980732,40.82717466071847],[-96.664964882957122,40.827210668159005],[-96.665012266216664,40.825860515970888],[-96.665059646262009,40.824510363420345],[-96.665107023093384,40.823160210507375],[-96.666884357325742,40.823196185482793],[-96.668661694769355,40.823232133104334],[-96.670439035421822,40.823268053371848],[-96.67221637928067,40.823303946285193],[-96.672169146385656,40.824654106000111],[-96.673946529433195,40.824689973256412]]]}},
{"type":"Feature","properties":{"band":30},"geometry":{"type":"MultiPolygon","coordinates":[[[[-96.704441992523471,40.817194385247404],[-96.702664771273874,40.817158993108826],[-96.702618165962619,40.81850918330624],[-96.70257155748979,40.81985937314267],[-96.700794267446184,40.819823950301291],[-96.70074761983021,40.821174138100375],[-96.700700969049763,40.822524325538396],[-96.700654315104558,40.823874512615376],[-96.698876920274671,40.823839057388099],[-96.698830227176103,40.825189242426141],[-96.69705279952548,40.825153758163268],[-96.695275375044943,40.825118246542793],[-96.693497953736951,40.825082707564867],[-96.691720535603949,40.825047141229646],[-96.691673695376863,40.826397319181886],[-96.689896244431651,40.826361723805086],[-96.688118796666515,40.826326101069967],[-96.686341352083915,40.826290450976664],[-96.684563910686279,40.826254773525335],[-96.68451692331486,40.827604944370549],[-96.682739449113555,40.827569237871678],[-96.682786472476039,40.826219068716107],[-96.681009037455638,40.826183336549128],[-96.680961978102346,40.827533504013772],[-96.680914915556528,40.828883671116607],[-96.680867849817943,40.830233837857605],[-96.68082078088635,40.831584004236788],[-96.680773708761507,40.832934170254106],[-96.680726633443143,40.834284335909594],[-96.67894898563506,40.834248566230656],[-96.67717134102314,40.834212769186486],[-96.67539369960987,40.834176944777234],[-96.675346513082928,40.835527104989097],[-96.673568838866245,40.835491251518405],[-96.673521613131115,40.836841409671628],[-96.671743906111544,40.836805527136967],[-96.671791167853328,40.835455370681608],[-96.670013500046565,40.835419462478875],[-96.670060794586121,40.834069307360409],[-96.671838426388902,40.834105213864056],[-96.673616061397638,40.834141093003034],[-96.673663280725521,40.832790934125562],[-96.675440882935732,40.832826784203306],[-96.675488063060797,40.831476623267356],[-96.677265632471986,40.831512444286368],[-96.679043205081328,40.83154823794289],[-96.679090310010793,40.830198073256149],[-96.679137411744819,40.828847908207507],[-96.67735991112832,40.828812117938341],[-96.677407045659891,40.827461954221377],[-96.677454176994075,40.826111790142463],[-96.675676751557816,40.82607597590308],[-96.675723915682497,40.824725813156952],[-96.673946529433195,40.824689973256412],[-96.672169146385656,40.824654106000111],[-96.67221637928067,40.823303946285193],[-96.670439035421822,40.823268053371848],[-96.670486301094897,40.821917894993277],[-96.672263608971733,40.821953786208127],[-96.672310835459058,40.820603625768925],[-96.674088110559765,40.820639487933654],[-96.674040920052278,40.821989650069973],[-96.673993726343497,40.823339811844221],[-96.67577107660783,40.823375650048803],[-96.677548430071269,40.823411460898775],[-96.677595551814761,40.822061295734017],[-96.67937287249184,40.822097077535943],[-96.679325786731354,40.823447244394011],[-96.681103146585656,40.82348300053436],[-96.681150196362879,40.822132831984277],[-96.682927523425462,40.822168559078875],[-96.684704853677133,40.822204258819617],[-96.686482187115473,40.822239931206312],[-96.686529125757232,40.82088975722634],[-96.688306426398,40.820925400572108],[-96.688353325876378,40.819575224543819],[-96.69013059371909,40.819610838851162],[-96.691907864740642,40.819646425806653],[-96.693685138938648,40.819681985410135],[-96.695462416310619,40.819717517661495],[-96.695509168697541,40.818367334538031],[-96.69555591791314,40.817017151053328],[-96.695602663957672,40.815666967207399],[-96.697379836574058,40.815702467066124],[-96.697426543476908,40.814352281178977],[-96.699203683290605,40.814387752010461],[-96.699157012358839,40.815737939576294],[-96.699110338261121,40.81708812678103],[-96.700887553185623,40.817123573619988],[-96.700934191309571,40.815773384737795],[-96.700980826269998,40.81442319549457],[-96.702757972412655,40.814458611631132],[-96.704535121716177,40.814494000420019],[-96.704581681574808,40.813143807464982],[-96.706358798067086,40.813179167232612],[-96.706312274178089,40.814529361861091],[-96.706265747133131,40.815879556128756],[-96.706219216931942,40.817229750035587],[-96.704441992523471,40.817194385247404]],[[-96.69354475479922,40.823732527568175],[-96.693591552686755,40.822382347210151],[-96.691814206526132,40.822346784240928],[-96.691767372653615,40.823696962915982],[-96.69354475479922,40.823732527568175]]],[[[-96.661410008221239,40.827138625920462],[-96.663187443980732,40.82717466071847],[-96.663140021515972,40.828524810840221],[-96.663092595834058,40.829874960599476],[-96.661315088091058,40.829838922390955],[-96.66136254976594,40.828488774337004],[-96.661410008221239,40.827138625920462]]]]}},
{"type":"Feature","properties":{"band":45},"geometry":{"type":"MultiPolygon","coordinates":[[[[-96.711875798901346,40.807884280284554],[-96.71182939551494,40.809234481368051],[-96.713606416718321,40.809269726743736],[-96.713560046147506,40.81061992913471],[-96.713513672431191,40.811970131165154],[-96.711736579298787,40.811934882453244],[-96.711690166468557,40.813285082454939],[-96.713467295569131,40.813320332835069],[-96.713420915561088,40.814670534144433],[-96.713374532406817,40.816020735093232],[-96.713328146106079,40.817370935681481],[-96.711550909086398,40.81733568029631],[-96.711504483661031,40.818685878855511],[-96.709727213812812,40.818650594449601],[-96.70968074925797,40.820000790978334],[-96.707903446581724,40.819965477549175],[-96.707856942892505,40.821315672045991],[-96.70607960738873,40.821280329591076],[-96.706033064560259,40.822630522054531],[-96.704255696229424,40.82259515057136],[-96.702478331058444,40.822559751732591],[-96.702431713099443,40.823909940486068],[-96.702385091977888,40.825260128878561],[-96.700607657994382,40.825224699331287],[-96.700560997718981,40.826574885686128],[-96.698783530909878,40.82653942710305],[-96.69700606726866,40.826503941160951],[-96.696959331841526,40.827854123797415],[-96.69518183537788,40.827818608815846],[-96.695135060784949,40.82916878941046],[-96.693357531499359,40.829133245386892],[-96.693310717735756,40.830483423938198],[-96.691533155628704,40.830447850870144],[-96.691486302689555,40.831798027376713],[-96.689708707761554,40.831762425261651],[-96.687931116014624,40.831726795783091],[-96.686153527451197,40.831691138941181],[-96.686106563328778,40.833041310028229],[-96.684328941950241,40.833005624134508],[-96.682551323760336,40.832969910876415],[-96.680773708761507,40.832934170254106],[-96.68082078088635,40.831584004236788],[-96.680867849817943,40.830233837857605],[-96.680914915556528,40.828883671116607],[-96.680961978102346,40.827533504013772],[-96.681009037455638,40.826183336549128],[-96.682786472476039,40.826219068716107],[-96.682739449113555,40.827569237871678],[-96.68451692331486,40.827604944370549],[-96.684563910686279,40.826254773525335],[-96.686341352083915,40.826290450976664],[-96.688118796666515,40.826326101069967],[-96.689896244431651,40.826361723805086],[-96.691673695376863,40.826397319181886],[-96.691720535603949,40.825047141229646],[-96.693497953736951,40.825082707564867],[-96.695275375044943,40.825118246542793],[-96.69705279952548,40.825153758163268],[-96.698830227176103,40.825189242426141],[-96.698876920274671,40.823839057388099],[-96.700654315104558,40.823874512615376],[-96.700700969049763,40.822524325538396],[-96.70074761983021,40.821174138100375],[-96.700794267446184,40.819823950301291],[-96.70257155748979,40.81985937314267],[-96.702618165962619,40.81850918330624],[-96.702664771273874,40.817158993108826],[-96.704441992523471,40.817194385247404],[-96.706219216931942,40.817229750035587],[-96.706265747133131,40.815879556128756],[-96.706312274178089,40.814529361861091],[-96.706358798067086,40.813179167232612],[-96.704581681574808,40.813143807464982],[-96.704535121716177,40.814494000420019],[-96.702757972412655,40.814458611631132],[-96.700980826269998,40.81442319549457],[-96.700934191309571,40.815773384737795],[-96.700887553185623,40.817123573619988],[-96.699110338261121,40.81708812678103],[-96.699157012358839,40.815737939576294],[-96.699203683290605,40.814387752010461],[-96.697426543476908,40.814352281178977],[-96.697379836574058,40.815702467066124],[-96.695602663957672,40.815666967207399],[-96.69555591791314,40.817017151053328],[-96.695509168697541,40.818367334538031],[-96.695462416310619,40.819717517661495],[-96.693685138938648,40.819681985410135],[-96.691907864740642,40.819646425806653],[-96.69013059371909,40.819610838851162],[-96.688353325876378,40.819575224543819],[-96.688306426398,40.820925400572108],[-96.686529125757232,40.82088975722634],[-96.686482187115473,40.822239931206312],[-96.684704853677133,40.822204258819617],[-96.682927523425462,40.822168559078875],[-96.681150196362879,40.822132831984277],[-96.681103146585656,40.82348300053436],[-96.679325786731354,40.823447244394011],[-96.67937287249184,40.822097077535943],[-96.677595551814761,40.822061295734017],[-96.677548430071269,40.823411460898775],[-96.67577107660783,40.823375650048803],[-96.673993726343497,40.823339811844221],[-96.674040920052278,40.821989650069973],[-96.674088110559765,40.820639487933654],[-96.672310835459058,40.820603625768925],[-96.672263608971733,40.821953786208127],[-96.670486301094897,40.821917894993277],[-96.670439035421822,40.823268053371848],[-96.668661694769355,40.823232133104334],[-96.666884357325742,40.823196185482793],[-96.665107023093384,40.823160210507375],[-96.66515439671106,40.821810057231978],[-96.665201767115278,40.820459903594191],[-96.666979029387491,40.820495875164966],[-96.668756294870491,40.820531819384449],[-96.668803590108411,40.819181661981098],[-96.668850882138258,40.817831504215469],[-96.668898170960247,40.816481346087599],[-96.670675331728162,40.816517257856916],[-96.670722581372956,40.81516709766737],[-96.672499709376183,40.815202980390843],[-96.674276840581896,40.815238835767758],[-96.674229662877039,40.816588999352298],[-96.676006833253155,40.816624829078073],[-96.676053974987653,40.815274663797972],[-96.677831112591008,40.815310464481342],[-96.67778400682711,40.816660631455711],[-96.679561183596491,40.816696406485057],[-96.681338363558851,40.816732154165997],[-96.681385397380851,40.815381983806986],[-96.681432428012542,40.814031813086189],[-96.68320953922526,40.81406753003786],[-96.684986653625586,40.8141032196434],[-96.684939694931913,40.815453393743546],[-96.686716848486824,40.815489057690563],[-96.686763771211105,40.814138881902686],[-96.688540891979386,40.814174516815577],[-96.68849400522474,40.815524694289891],[-96.690271165143216,40.815560303541375],[-96.692048328239807,40.815595885444885],[-96.692095143054487,40.814245704601561],[-96.693872273356419,40.814281257474377],[-96.693919049027713,40.812931074587198],[-96.695696146534516,40.812966598431849],[-96.695742883067297,40.811616413502243],[-96.697519947778446,40.811651908321231],[-96.697566645177588,40.810301721350633],[-96.69761333940933,40.80895153401891],[-96.699390335362992,40.808986998136319],[-96.699436990468641,40.80763680876511],[-96.701213953627885,40.807672243863237],[-96.701260569612316,40.806322052453972],[-96.703037499976645,40.806357458535324],[-96.703084076844718,40.805007265089444],[-96.704860974413648,40.805042642156543],[-96.704907512170251,40.803692446675463],[-96.706684376943286,40.803727794730797],[-96.706637875139279,40.805077991884851],[-96.708414779019179,40.805113314274266],[-96.708368310016169,40.806463512739299],[-96.710145253003418,40.806498809460123],[-96.710098816806266,40.807849009234978],[-96.711875798901346,40.807884280284554]]],[[[-96.693591552686755,40.822382347210151],[-96.69354475479922,40.823732527568175],[-96.691767372653615,40.823696962915982],[-96.691814206526132,40.822346784240928],[-96.693591552686755,40.822382347210151]]],[[[-96.678854753404039,40.836948893070733],[-96.678807632493644,40.838299055947871],[-96.677029879859589,40.838263253821736],[-96.675252130424894,40.838227424326632],[-96.675204934293305,40.839577583452289],[-96.673427152048632,40.83954172489166],[-96.673379916700782,40.840891881958463],[-96.67160210164667,40.840855994329779],[-96.669824289799692,40.840820079329973],[-96.669776979214561,40.842170232637059],[-96.667999134561313,40.842134288565546],[-96.666221293120344,40.842098317121909],[-96.666173907288936,40.843448466663794],[-96.664396033044852,40.843412466144791],[-96.66434860797817,40.844762613620787],[-96.662570700931482,40.844726584023896],[-96.662618162018205,40.843376438252655],[-96.660840294211397,40.843340382987513],[-96.660792797104889,40.844690527052734],[-96.660745296775843,40.846040670755293],[-96.658967360149816,40.846004584702591],[-96.659014896500864,40.84465444270743],[-96.657236999121807,40.844618330988105],[-96.657189426749042,40.845968471274581],[-96.655411496575937,40.845932330471427],[-96.655363884951569,40.847282468685052],[-96.653585921984899,40.84724629879554],[-96.653538271104054,40.848596434934876],[-96.65176027534433,40.848560235956505],[-96.649982282820076,40.84852400960083],[-96.648204293533752,40.848487755867993],[-96.6464263074878,40.848451474758136],[-96.644648324684667,40.848415166271415],[-96.644696155692316,40.847065038708564],[-96.646474102470592,40.847101345477405],[-96.646521894210821,40.845751215833459],[-96.644743983454987,40.845714910782441],[-96.64296607594386,40.845678578357273],[-96.643013936481523,40.844328451786893],[-96.641236068237077,40.84429209370807],[-96.641188171679943,40.845642218558105],[-96.639410270665635,40.845605831385093],[-96.637632372903397,40.84556941683838],[-96.637680341498765,40.844219295432886],[-96.635902483009758,40.844182855236816],[-96.634124627777453,40.844146387668623],[-96.632346775804265,40.844109892728461],[-96.630568927092639,40.844073370416453],[-96.628791081645034,40.844036820732761],[-96.628839227065114,40.84268670759738],[-96.627061420898983,40.842650132272759],[-96.627109599065477,40.84130002050405],[-96.628887369219015,40.841336594098124],[-96.628935508106963,40.839986480234977],[-96.63071324551602,40.840023024730925],[-96.63249098618833,40.840059541859077],[-96.634268730121448,40.840096031619261],[-96.634220699265484,40.841446150666044],[-96.634172665150899,40.842796269349172],[-96.635950484367171,40.842832735191926],[-96.635998482468139,40.84148261478343],[-96.636046477312931,40.840132494011343],[-96.637824227760362,40.84016892903518],[-96.637872183340221,40.83881880617556],[-96.639649901031916,40.838855212108363],[-96.641427621974415,40.838891590673931],[-96.641379738413278,40.840241716977566],[-96.643157498613874,40.840278069895795],[-96.643205346165288,40.838927941872122],[-96.644983073602091,40.838964265702785],[-96.646760804282408,40.839000562165765],[-96.646808576572553,40.83765043034267],[-96.64685634562187,40.836300298156438],[-96.648634007529594,40.836336563819444],[-96.648681737335181,40.83498642955405],[-96.650459366477605,40.835022666137007],[-96.652236998855457,40.835058875355742],[-96.652284653420963,40.833708737299325],[-96.652332304753742,40.832358598879978],[-96.650554744375924,40.832322393087821],[-96.648777187233037,40.832286159934021],[-96.646999633327511,40.832249899418713],[-96.645222082661817,40.832213611542066],[-96.643444535238359,40.832177296304188],[-96.641666991059594,40.832140953705256],[-96.639889450127939,40.832104583745405],[-96.638111912445851,40.832068186424785],[-96.638159848509986,40.83071806138414],[-96.636382350074257,40.830681638426391],[-96.6346048548927,40.830645188109465],[-96.63282736296776,40.830608710433488],[-96.63104987430188,40.830572205398603],[-96.62927238889749,40.830535673004967],[-96.627494906757022,40.830499113252706],[-96.625717427882932,40.830462526141993],[-96.623939952277638,40.830425911672954],[-96.623988173018375,40.829075800092646],[-96.622210736674234,40.829039159999226],[-96.622162479943583,40.830389269845739],[-96.620385010883197,40.830352600660476],[-96.620433303603505,40.829002492549058],[-96.618655873808649,40.828965797742299],[-96.616878447292066,40.828929075579097],[-96.61510102405623,40.828892326059595],[-96.613323604103556,40.828855549183942],[-96.613275167427133,40.830205650342087],[-96.611497714771659,40.830168844368878],[-96.611546187436488,40.828818744952272],[-96.609768774057471,40.82878191336475],[-96.607991363968907,40.828745054421518],[-96.608039905316858,40.827394958127229],[-96.608088443372139,40.826044861468304],[-96.609865781492232,40.826081716923483],[-96.609817279419957,40.827431815326406],[-96.611594656813281,40.827468645171159],[-96.613372037494386,40.827505447661345],[-96.613420467599866,40.826155345774296],[-96.615197815582533,40.826192119169654],[-96.615149421460842,40.827542222796808],[-96.616926808710218,40.82757897057742],[-96.61697516684788,40.826228865211434],[-96.618752521393446,40.826265583899499],[-96.620529879216818,40.826302275233708],[-96.620578162110306,40.824952166029803],[-96.622355487226656,40.824988828275117],[-96.622307240315521,40.826338939213898],[-96.624084604687141,40.82637557583994],[-96.624132815615695,40.82502546316757],[-96.625910147274936,40.825062070707013],[-96.627687482201992,40.82509865089331],[-96.629464820394418,40.825135203726326],[-96.631242161849741,40.825171729205877],[-96.633019506565574,40.825208227331856],[-96.634796854539431,40.825244698104093],[-96.636574205768923,40.825281141522446],[-96.636526246725651,40.826631266293745],[-96.638303637192934,40.826667684081336],[-96.638351560251593,40.825317557586793],[-96.64012891798501,40.825353946296964],[-96.641906278966729,40.825390307652818],[-96.641954126809537,40.824040177352344],[-96.643731455054194,40.824076509634445],[-96.643779263670893,40.822726377251421],[-96.645556559178004,40.82276268046229],[-96.647333857925616,40.822798956320973],[-96.6491111599113,40.822835204827356],[-96.649063459237567,40.824185342360323],[-96.649015755327966,40.825535479530231],[-96.650793132514679,40.825571704112356],[-96.652570512935085,40.825607901339303],[-96.652618144876598,40.824257760742427],[-96.652665773587088,40.82290761978264],[-96.65271339906684,40.821557478459972],[-96.654490674772532,40.821593643197176],[-96.654443085272348,40.822943786231249],[-96.656220400185916,40.822979925326969],[-96.65799771832539,40.823016037069671],[-96.659775039688299,40.823052121459213],[-96.659822521248358,40.821701973298666],[-96.661599809851737,40.821738028628644],[-96.663377101673447,40.821774056606465],[-96.663329692074726,40.823124208178207],[-96.665107023093384,40.823160210507375],[-96.665059646262009,40.824510363420345],[-96.665012266216664,40.825860515970888],[-96.664964882957122,40.827210668159005],[-96.663187443980732,40.82717466071847],[-96.661410008221239,40.827138625920462],[-96.66136254976594,40.828488774337004],[-96.661315088091058,40.829838922390955],[-96.663092595834058,40.829874960599476],[-96.663045166934779,40.831225109996218],[-96.661267623196366,40.831189070082353],[-96.661220155081608,40.832539217411131],[-96.65944257856566,40.832503148429339],[-96.659490082678019,40.831153002807277],[-96.657712545382168,40.831116908171111],[-96.657760082266947,40.82976676389432],[-96.655982584190696,40.829730643606489],[-96.655935011311257,40.831080786174056],[-96.655887435204448,40.832430928378812],[-96.655839855870013,40.833781070220773],[-96.655792273307711,40.835131211699931],[-96.657569915377223,40.835167338825123],[-96.65934756067243,40.835203438585495],[-96.661125209190899,40.835239510980941],[-96.661172683746528,40.833889364377335],[-96.662950299483086,40.833925407702111],[-96.664727918437748,40.833961423662956],[-96.6665055406081,40.833997412259713],[-96.666458174061376,40.835347563976107],[-96.668235835448442,40.83538352691032],[-96.66828316599171,40.834033373492247],[-96.670060794586121,40.834069307360409],[-96.670013500046565,40.835419462478875],[-96.671791167853328,40.835455370681608],[-96.671743906111544,40.836805527136967],[-96.673521613131115,40.836841409671628],[-96.673568838866245,40.835491251518405],[-96.675346513082928,40.835527104989097],[-96.67539369960987,40.834176944777234],[-96.67717134102314,40.834212769186486],[-96.67894898563506,40.834248566230656],[-96.680726633443143,40.834284335909594],[-96.680679554931046,40.835634501203224],[-96.678901871117773,40.835598729831659],[-96.678854753404039,40.836948893070733]]],[[[-96.673379916700782,40.840891881958463],[-96.675157734959669,40.840927742215861],[-96.67511053242373,40.842277900617361],[-96.673332678148213,40.842242038663095],[-96.673379916700782,40.840891881958463]]],[[[-96.625283618001475,40.842613529578031],[-96.62523540055156,40.843963639250894],[-96.623457564910581,40.843927007453026],[-96.623505818375037,40.842576899513354],[-96.621728022022111,40.842540242078861],[-96.619950228945129,40.842503557274689],[-96.619901903452345,40.843853661744099],[-96.618124077639962,40.843816947833325],[-96.61817243914652,40.842466845101015],[-96.618220797372246,40.841116742004388],[-96.619998551159512,40.841153452441063],[-96.621776308224909,40.841190135509521],[-96.623554068565994,40.841226791209593],[-96.625331832180336,40.84126341954115],[-96.625283618001475,40.842613529578031]]]]}},
{"type":"Feature","properties":{"band":60},"geometry":{"type":"MultiPolygon","coordinates":[[[[-96.70167997121969,40.794170313526962],[-96.70345657808079,40.794205704530022],[-96.70341002647902,40.795555900863029],[-96.701633383682832,40.795520508184879],[-96.70158679298612,40.796870702481854],[-96.703363471719797,40.796906096835194],[-96.703316913802894,40.798256292446453],[-96.703270352728069,40.799606487696856],[-96.703223788495094,40.800956682586339],[-96.703177221103715,40.802306877114944],[-96.703130650553661,40.803657071282643],[-96.704907512170251,40.803692446675463],[-96.704860974413648,40.805042642156543],[-96.703084076844718,40.805007265089444],[-96.703037499976645,40.806357458535324],[-96.701260569612316,40.806322052453972],[-96.701213953627885,40.807672243863237],[-96.699436990468641,40.80763680876511],[-96.699390335362992,40.808986998136319],[-96.69761333940933,40.80895153401891],[-96.697566645177588,40.810301721350633],[-96.697519947778446,40.811651908321231],[-96.695742883067297,40.811616413502243],[-96.695696146534516,40.812966598431849],[-96.693919049027713,40.812931074587198],[-96.692141954693696,40.812895523396875],[-96.692188763157716,40.811545341830836],[-96.692235568446762,40.810195159903472],[-96.690458549216018,40.81015958473499],[-96.690505387290727,40.808809404129853],[-96.690552222188529,40.807459223163335],[-96.692329169500965,40.807494794964704],[-96.692375965266578,40.806144611953329],[-96.692422757858225,40.804794428580628],[-96.692469547276133,40.803444244846609],[-96.69251633352053,40.802094060751287],[-96.692563116591671,40.800743876294653],[-96.692609896489827,40.79939369147673],[-96.692656673215211,40.798043506297518],[-96.694433372062718,40.798079038984802],[-96.69448010967686,40.796728851762609],[-96.694526844121143,40.795378664179204],[-96.69457357539585,40.794028476234594],[-96.694620303501182,40.79267828792878],[-96.692843748393955,40.792642761967848],[-96.692796984357201,40.793992948592177],[-96.69102039649033,40.793957393622307],[-96.691067196458263,40.792607208680757],[-96.689290647696566,40.792571628067655],[-96.687514102111251,40.792536020128694],[-96.685737559704791,40.792500384863985],[-96.683961020479614,40.792464722273678],[-96.682184484438125,40.79242903235793],[-96.682231460872146,40.79107885548801],[-96.684007960986094,40.791114543714578],[-96.684054898309142,40.789764364793889],[-96.68583136568121,40.789800024008485],[-96.685784464283515,40.791150204617004],[-96.687560970761965,40.791185838195119],[-96.689337480419027,40.791221444448801],[-96.69111399325223,40.791257023377895],[-96.691160786872459,40.789906837713694],[-96.691207577319204,40.788556651688189],[-96.692984021475951,40.788592199927336],[-96.692937266953095,40.789942387635435],[-96.69471375020477,40.789977910233581],[-96.696490236625095,40.79001340550802],[-96.696536919299447,40.788663214438643],[-96.698313372961337,40.788698680710532],[-96.698266726211585,40.790048873458609],[-96.700043218961866,40.790084314085185],[-96.699996604975624,40.791434508149699],[-96.701773136814751,40.791469923128339],[-96.701726555596906,40.792820118508111],[-96.70167997121969,40.794170313526962]]],[[[-96.708368310016169,40.806463512739299],[-96.708414779019179,40.805113314274266],[-96.710191686050919,40.805148609324633],[-96.710145253003418,40.806498809460123],[-96.708368310016169,40.806463512739299]]],[[[-96.711922199140318,40.806534078840471],[-96.711875798901346,40.807884280284554],[-96.710098816806266,40.807849009234978],[-96.710145253003418,40.806498809460123],[-96.711922199140318,40.806534078840471]]],[[[-96.713513672431191,40.811970131165154],[-96.713467295569131,40.813320332835069],[-96.711690166468557,40.813285082454939],[-96.711736579298787,40.811934882453244],[-96.713513672431191,40.811970131165154]]],[[[-96.715244427815691,40.813355555867965],[-96.715198083778503,40.814705758844319],[-96.713420915561088,40.814670534144433],[-96.713467295569131,40.813320332835069],[-96.715244427815691,40.813355555867965]]],[[[-96.70416252912419,40.825295531067809],[-96.702385091977888,40.825260128878561],[-96.702431713099443,40.823909940486068],[-96.702478331058444,40.822559751732591],[-96.704255696229424,40.82259515057136],[-96.704209114256855,40.823945341000034],[-96.70416252912419,40.825295531067809]]],[[[-96.702385091977888,40.825260128878561],[-96.702338467693551,40.826610316910049],[-96.700560997718981,40.826574885686128],[-96.700607657994382,40.825224699331287],[-96.702385091977888,40.825260128878561]]],[[[-96.678678470204318,40.791007397062955],[-96.678631421915995,40.792357570550664],[-96.676854895440215,40.79232179865943],[-96.676901979655327,40.79097162686476],[-96.678678470204318,40.791007397062955]]],[[[-96.686763771211105,40.814138881902686],[-96.686716848486824,40.815489057690563],[-96.684939694931913,40.815453393743546],[-96.684986653625586,40.8141032196434],[-96.686763771211105,40.814138881902686]]],[[[-96.674276840581896,40.815238835767758],[-96.672499709376183,40.815202980390843],[-96.672546919848628,40.813852818141036],[-96.674324015086682,40.813888671821168],[-96.674276840581896,40.815238835767758]]],[[[-96.679608253389574,40.815346237817728],[-96.681385397380851,40.815381983806986],[-96.681338363558851,40.816732154165997],[-96.679561183596491,40.816696406485057],[-96.67778400682711,40.816660631455711],[-96.677831112591008,40.815310464481342],[-96.679608253389574,40.815346237817728]]],[[[-96.676053974987653,40.815274663797972],[-96.676006833253155,40.816624829078073],[-96.674229662877039,40.816588999352298],[-96.674276840581896,40.815238835767758],[-96.676053974987653,40.815274663797972]]],[[[-96.66515439671106,40.821810057231978],[-96.665107023093384,40.823160210507375],[-96.663329692074726,40.823124208178207],[-96.663377101673447,40.821774056606465],[-96.663424508056281,40.820423904672268],[-96.665201767115278,40.820459903594191],[-96.66515439671106,40.821810057231978]]],[[[-96.657617461937562,40.833817195636527],[-96.657569915377223,40.835167338825123],[-96.655792273307711,40.835131211699931],[-96.655839855870013,40.833781070220773],[-96.657617461937562,40.833817195636527]]],[[[-96.67160210164667,40.840855994329779],[-96.671554827077671,40.842206149336292],[-96.669776979214561,40.842170232637059],[-96.669824289799692,40.840820079329973],[-96.67160210164667,40.840855994329779]]],[[[-96.673332678148213,40.842242038663095],[-96.673285436390657,40.843592195005584],[-96.671507549301296,40.843556303980556],[-96.671554827077671,40.842206149336292],[-96.673332678148213,40.842242038663095]]],[[[-96.667999134561313,40.842134288565546],[-96.667951784747984,40.843484439809522],[-96.666173907288936,40.843448466663794],[-96.666221293120344,40.842098317121909],[-96.667999134561313,40.842134288565546]]],[[[-96.662618162018205,40.843376438252655],[-96.662570700931482,40.844726584023896],[-96.660792797104889,40.844690527052734],[-96.660840294211397,40.843340382987513],[-96.662618162018205,40.843376438252655]]],[[[-96.658919820573558,40.84735472633502],[-96.658872277771792,40.848704867604724],[-96.658824731744318,40.85005500851171],[-96.657046690263698,40.850018889957212],[-96.656999104978752,40.851369028792476],[-96.655221030695316,40.851332881148693],[-96.655173406148023,40.852683017910806],[-96.656951516465128,40.852719167264922],[-96.656903924722599,40.85406930537453],[-96.658682074304991,40.854105429056141],[-96.660460227114129,40.854141525354684],[-96.660412704220292,40.855491666518517],[-96.662190896293012,40.855527737140463],[-96.662238383147525,40.854177594270034],[-96.664016542402777,40.85421363580204],[-96.663969091587816,40.855563780377757],[-96.663921637553187,40.856913924590913],[-96.665699872109897,40.856949942147509],[-96.665652450900055,40.858300087702226],[-96.663874180298663,40.858264068441507],[-96.662095912917422,40.858228021793416],[-96.662048416395876,40.859578163575932],[-96.660270116190603,40.859542087833837],[-96.658491819210596,40.859505984703368],[-96.656713525458315,40.859469854184667],[-96.654935234936204,40.859433696277875],[-96.654887590997035,40.860783830862545],[-96.653109267659431,40.860747643855788],[-96.651330947557142,40.860711429459933],[-96.651378663592212,40.859361298300627],[-96.651426376389807,40.858011166778255],[-96.649648131617937,40.857974928422628],[-96.647869890085758,40.857938662680787],[-96.647917671731236,40.856588534225615],[-96.649695877220978,40.856624798251694],[-96.649743619584598,40.85527466771763],[-96.647965450134876,40.855238405407285],[-96.648013225296879,40.853888276225753],[-96.648060997217527,40.852538146681063],[-96.646282903081598,40.852501860421029],[-96.646330707793553,40.851151732229958],[-96.646378509262206,40.849801603675658],[-96.6464263074878,40.848451474758136],[-96.648204293533752,40.848487755867993],[-96.649982282820076,40.84852400960083],[-96.65176027534433,40.848560235956505],[-96.653538271104054,40.848596434934876],[-96.653585921984899,40.84724629879554],[-96.655363884951569,40.847282468685052],[-96.655411496575937,40.845932330471427],[-96.657189426749042,40.845968471274581],[-96.657236999121807,40.844618330988105],[-96.659014896500864,40.84465444270743],[-96.658967360149816,40.846004584702591],[-96.660745296775843,40.846040670755293],[-96.660697793223989,40.847390814095213],[-96.658919820573558,40.84735472633502]]],[[[-96.66434860797817,40.844762613620787],[-96.664301179693823,40.846112760734265],[-96.662523236624651,40.846076729432582],[-96.662570700931482,40.844726584023896],[-96.66434860797817,40.844762613620787]]],[[[-96.672812842486891,40.857093738510244],[-96.672765565458249,40.858443890868571],[-96.670987282000695,40.858407981158749],[-96.671034595075,40.857057830499386],[-96.672812842486891,40.857093738510244]]],[[[-96.643827069044661,40.821376244505181],[-96.645604328573469,40.821412545998157],[-96.645556559178004,40.82276268046229],[-96.643779263670893,40.822726377251421],[-96.643827069044661,40.821376244505181]]],[[[-96.643731455054194,40.824076509634445],[-96.641954126809537,40.824040177352344],[-96.642001971406714,40.82269004668855],[-96.643779263670893,40.822726377251421],[-96.643731455054194,40.824076509634445]]],[[[-96.636526246725651,40.826631266293745],[-96.636574205768923,40.825281141522446],[-96.634796854539431,40.825244698104093],[-96.633019506565574,40.825208227331856],[-96.631242161849741,40.825171729205877],[-96.629464820394418,40.825135203726326],[-96.627687482201992,40.82509865089331],[-96.625910147274936,40.825062070707013],[-96.624132815615695,40.82502546316757],[-96.624084604687141,40.82637557583994],[-96.622307240315521,40.826338939213898],[-96.622355487226656,40.824988828275117],[-96.620578162110306,40.824952166029803],[-96.620529879216818,40.826302275233708],[-96.618752521393446,40.826265583899499],[-96.61697516684788,40.826228865211434],[-96.616926808710218,40.82757897057742],[-96.615149421460842,40.827542222796808],[-96.615197815582533,40.826192119169654],[-96.613420467599866,40.826155345774296],[-96.613372037494386,40.827505447661345],[-96.611594656813281,40.827468645171159],[-96.609817279419957,40.827431815326406],[-96.609865781492232,40.826081716923483],[-96.608088443372139,40.826044861468304],[-96.608039905316858,40.827394958127229],[-96.607991363968907,40.828745054421518],[-96.609768774057471,40.82878191336475],[-96.611546187436488,40.828818744952272],[-96.611497714771659,40.830168844368878],[-96.613275167427133,40.830205650342087],[-96.613323604103556,40.828855549183942],[-96.61510102405623,40.828892326059595],[-96.616878447292066,40.828929075579097],[-96.618655873808649,40.828965797742299],[-96.620433303603505,40.829002492549058],[-96.620385010883197,40.830352600660476],[-96.622162479943583,40.830389269845739],[-96.622210736674234,40.829039159999226],[-96.623988173018375,40.829075800092646],[-96.623939952277638,40.830425911672954],[-96.625717427882932,40.830462526141993],[-96.627494906757022,40.830499113252706],[-96.62927238889749,40.830535673004967],[-96.63104987430188,40.830572205398603],[-96.63282736296776,40.830608710433488],[-96.6346048548927,40.830645188109465],[-96.634556846840098,40.831995309701774],[-96.63450883553061,40.833345430930457],[-96.632731271615526,40.833308949802202],[-96.630953710960014,40.833272441312438],[-96.630905624396206,40.834622558723702],[-96.629128031004441,40.834586021143778],[-96.629176153566462,40.833235905461343],[-96.627398599437356,40.833199342249046],[-96.62735044087735,40.834549456201358],[-96.625572854017378,40.834512863896592],[-96.623795270426982,40.834476244229634],[-96.62384350098219,40.833126133741452],[-96.62206595666099,40.833089488446433],[-96.620288415613985,40.833052815790793],[-96.620240113064582,40.83440292280968],[-96.618462539297468,40.834366221056989],[-96.618510877843576,40.83301611577469],[-96.616733343352237,40.832979388398265],[-96.614955812142384,40.832942633661666],[-96.61317828421646,40.83290585156503],[-96.611400759576881,40.832869042108506],[-96.609623238226106,40.832832205292242],[-96.60784572016658,40.832795341116373],[-96.606068205400717,40.832758449581078],[-96.604290693930963,40.832721530686477],[-96.604339317143172,40.831371438978614],[-96.602561844963958,40.831334494473012],[-96.602610500867456,40.829984404148441],[-96.600833067978286,40.829947434034494],[-96.600881756568171,40.828597345094337],[-96.599104362968532,40.828560349374712],[-96.59915308423993,40.827210261820163],[-96.600930441855382,40.827247255789239],[-96.600979123840219,40.825897166119212],[-96.601027802522893,40.824547076084279],[-96.602805091479183,40.824584039201419],[-96.602853730882828,40.823233947052515],[-96.601076477903689,40.823196985684412],[-96.599299228226172,40.823159996966488],[-96.59934793627977,40.821809907951959],[-96.599396641029543,40.820459818572459],[-96.6011738187606,40.820496803789965],[-96.602950999792796,40.820533761660243],[-96.602999629299603,40.819183668416855],[-96.603048255507971,40.817833574808638],[-96.601271146412984,40.817796620435935],[-96.599494040618637,40.81775963871857],[-96.597716938127348,40.817722629656721],[-96.597668204017566,40.819072718014816],[-96.595891068865143,40.819035679856],[-96.595939838941561,40.817685593250516],[-96.594162743063677,40.817648529500119],[-96.594211545796099,40.816298444283383],[-96.59426034521843,40.814948358701479],[-96.594309141330896,40.813598272754433],[-96.596086129324263,40.813635331243518],[-96.596134886170489,40.812285243177698],[-96.596183639709821,40.810935154746801],[-96.597960559098979,40.810972182390941],[-96.598009273379645,40.809622091842783],[-96.599786160120743,40.809659090398135],[-96.599737481792374,40.811009182697205],[-96.601514407787533,40.81104615566543],[-96.60146576211234,40.812396249349256],[-96.603242727362087,40.812433196727689],[-96.605019695908993,40.812470116766512],[-96.605068269673495,40.811120019587165],[-96.603291337082055,40.811083101295466],[-96.603339943505105,40.809733005498458],[-96.605116840143495,40.809769922043124],[-96.605165407319262,40.808419824134376],[-96.606942271301023,40.8084567115962],[-96.606893740076117,40.80980681125061],[-96.606845205559409,40.811156910540404],[-96.608622144737382,40.811193774155022],[-96.610399087204982,40.811230610430847],[-96.610350621308442,40.81258071284374],[-96.612127603019701,40.81261752352259],[-96.61390458801597,40.812654306861091],[-96.613952981999276,40.811304200965616],[-96.615729934321124,40.81134095522426],[-96.617506889922851,40.811377682143558],[-96.617458567853788,40.812727791516444],[-96.619235562690463,40.812764492833004],[-96.619283848802027,40.811414381723345],[-96.621060810956223,40.811451053963488],[-96.622837776382994,40.81148769886385],[-96.62461474507991,40.81152431642424],[-96.626391717044555,40.811560906644573],[-96.628168692274471,40.811597469524663],[-96.629945670767228,40.811634005064391],[-96.631722652520409,40.811670513263593],[-96.631674618118382,40.81302063649445],[-96.631626580458132,40.81437075936163],[-96.629849526784014,40.814334247706903],[-96.629801449901137,40.815684368482536],[-96.628024363524048,40.815647827755555],[-96.626247280410553,40.815611259684317],[-96.624470200563096,40.815574664268986],[-96.624518385336827,40.814224548684713],[-96.622741344720964,40.814187927658445],[-96.620964307375758,40.814151279289661],[-96.619187273303623,40.814114603578496],[-96.617410242507006,40.814077900525085],[-96.617361913882291,40.815428009169494],[-96.615584850401518,40.815391277035822],[-96.615633214988364,40.81404117012962],[-96.613856190750084,40.814004412392194],[-96.61207916979464,40.813967627312977],[-96.610302152124461,40.813930814892117],[-96.610253679652786,40.815280916575972],[-96.612030733284328,40.815317730738904],[-96.611982293488509,40.816667833800395],[-96.613759386369608,40.816704622361243],[-96.61371097925452,40.818054726799197],[-96.611933850406928,40.818017936497419],[-96.611885404039342,40.819368038829971],[-96.611836954385467,40.820718140798057],[-96.613614155173309,40.820754934581878],[-96.613565738206717,40.822105037926612],[-96.613517317955768,40.823455140906937],[-96.615294593978206,40.823491910822256],[-96.617071873282796,40.823528653386596],[-96.617120221580535,40.822178546927745],[-96.618897468187868,40.822215260403631],[-96.620674718072223,40.822251946529533],[-96.622451971231186,40.822288605305303],[-96.624229227662326,40.822325236730791],[-96.624277428780928,40.820975122966409],[-96.626054652506227,40.82101172530939],[-96.626006487363185,40.822361840805861],[-96.627783750331318,40.822398417530366],[-96.629561016564324,40.822434966904147],[-96.629609109755521,40.82108484794739],[-96.631386343274642,40.82112136824211],[-96.631338286059744,40.822471488927093],[-96.633115558815149,40.822507983599024],[-96.634892834828108,40.8225444509198],[-96.636670114096191,40.822580890889292],[-96.636622161559018,40.82393101638764],[-96.638399480059519,40.823967430728793],[-96.640176801810497,40.824003817717077],[-96.641954126809537,40.824040177352344],[-96.641906278966729,40.825390307652818],[-96.64012891798501,40.825353946296964],[-96.638351560251593,40.825317557586793],[-96.638303637192934,40.826667684081336],[-96.636526246725651,40.826631266293745]],[[-96.606116792620668,40.831408356126353],[-96.606165376544766,40.830058262306899],[-96.604387937057083,40.830021346905944],[-96.604339317143172,40.831371438978614],[-96.606116792620668,40.831408356126353]]],[[[-96.652236998855457,40.835058875355742],[-96.650459366477605,40.835022666137007],[-96.648681737335181,40.83498642955405],[-96.648634007529594,40.836336563819444],[-96.64685634562187,40.836300298156438],[-96.646904111430644,40.834950165607012],[-96.646951873999114,40.833600032694441],[-96.646999633327511,40.832249899418713],[-96.648777187233037,40.832286159934021],[-96.650554744375924,40.832322393087821],[-96.652332304753742,40.832358598879978],[-96.652284653420963,40.833708737299325],[-96.652236998855457,40.835058875355742]]],[[[-96.643348869344948,40.834877555621254],[-96.643396703914121,40.833527426144364],[-96.641619123737797,40.833491081825713],[-96.641571253168635,40.834841209582827],[-96.639793640239958,40.834804836180894],[-96.639841546808853,40.833454710144871],[-96.638063973129718,40.833418311101937],[-96.638111912445851,40.832068186424785],[-96.639889450127939,40.832104583745405],[-96.641666991059594,40.832140953705256],[-96.643444535238359,40.832177296304188],[-96.645222082661817,40.832213611542066],[-96.645174287335365,40.833563743100655],[-96.645126488766422,40.834913874296035],[-96.643348869344948,40.834877555621254]]],[[[-96.643205346165288,40.838927941872122],[-96.643157498613874,40.840278069895795],[-96.641379738413278,40.840241716977566],[-96.641427621974415,40.838891590673931],[-96.639649901031916,40.838855212108363],[-96.637872183340221,40.83881880617556],[-96.637824227760362,40.84016892903518],[-96.636046477312931,40.840132494011343],[-96.635998482468139,40.84148261478343],[-96.635950484367171,40.842832735191926],[-96.634172665150899,40.842796269349172],[-96.634220699265484,40.841446150666044],[-96.634268730121448,40.840096031619261],[-96.63249098618833,40.840059541859077],[-96.63071324551602,40.840023024730925],[-96.628935508106963,40.839986480234977],[-96.628887369219015,40.841336594098124],[-96.627109599065477,40.84130002050405],[-96.627061420898983,40.842650132272759],[-96.628839227065114,40.84268670759738],[-96.628791081645034,40.844036820732761],[-96.630568927092639,40.844073370416453],[-96.632346775804265,40.844109892728461],[-96.634124627777453,40.844146387668623],[-96.635902483009758,40.844182855236816],[-96.637680341498765,40.844219295432886],[-96.637632372903397,40.84556941683838],[-96.639410270665635,40.845605831385093],[-96.641188171679943,40.845642218558105],[-96.641236068237077,40.84429209370807],[-96.643013936481523,40.844328451786893],[-96.64296607594386,40.845678578357273],[-96.644743983454987,40.845714910782441],[-96.646521894210821,40.845751215833459],[-96.646474102470592,40.847101345477405],[-96.644696155692316,40.847065038708564],[-96.644648324684667,40.848415166271415],[-96.642870345126752,40.848378830407967],[-96.642918212159032,40.847028704564302],[-96.641140271873169,40.846992343044732],[-96.641092368816544,40.848342467167917],[-96.641044462509782,40.84969259092771],[-96.639266453423133,40.849656198589408],[-96.639314395756443,40.848306076551467],[-96.637536425948923,40.848269658558692],[-96.637584401053545,40.846919537880311],[-96.635806470524614,40.84688309423575],[-96.635758459396399,40.848233213189779],[-96.635710445010716,40.849583331780181],[-96.633932445689837,40.849546857309555],[-96.633980496101316,40.84819674044487],[-96.632202536066103,40.848160240324084],[-96.630424579293219,40.848123712827601],[-96.628646625785095,40.84808715795554],[-96.626868675544173,40.848050575708072],[-96.625090728572872,40.848013966085304],[-96.623312784873661,40.847977329087428],[-96.623361048160135,40.846627222240066],[-96.62158314375705,40.846590559601893],[-96.621534844448945,40.847940664714557],[-96.619756907301209,40.847903972966847],[-96.617978973432855,40.847867253844441],[-96.618027344783386,40.84651715220506],[-96.616249450217708,40.846480407446684],[-96.614471558936046,40.846443635315211],[-96.612693670940828,40.846406835810761],[-96.612742147064239,40.845056739026461],[-96.610964298375578,40.845019913891591],[-96.611012807225549,40.843669818485083],[-96.609234997842904,40.843632967722449],[-96.607457191753539,40.843596089589873],[-96.607408610873904,40.844946181507879],[-96.607360026698331,40.846296273061135],[-96.607311439226535,40.847646364249655],[-96.607262848458276,40.848996455073433],[-96.607214254393298,40.85034654553246],[-96.607165657031359,40.85169663562673],[-96.607117056372203,40.853046725356229],[-96.607068452415533,40.854396814720978],[-96.605290361438023,40.854359895247079],[-96.605339001426188,40.853009807629036],[-96.605387638114451,40.85165971964615],[-96.603609622497174,40.85162277628816],[-96.601831610182018,40.851585805552908],[-96.60005360117141,40.851548807440551],[-96.598275595467783,40.851511781951245],[-96.596497593073579,40.851474729085105],[-96.596546406591543,40.850124649489523],[-96.596595216797894,40.84877456952875],[-96.598373147143803,40.848811618888917],[-96.598421918018317,40.847461536810101],[-96.600199815652402,40.847498557044482],[-96.600248547199968,40.846148472849052],[-96.602026412121702,40.846185463960126],[-96.602075104347179,40.844835377649538],[-96.603852936556066,40.844872339639821],[-96.603901589464328,40.843522251215525],[-96.603950239072006,40.842172162426351],[-96.605728002555793,40.842209093550927],[-96.60577661285383,40.840859002649559],[-96.605825219854239,40.839508911383398],[-96.607602914619207,40.839545811647582],[-96.609380612679118,40.83958268454586],[-96.611158314031513,40.839619530078089],[-96.611206809719718,40.83826943321327],[-96.611255302118082,40.836919335983914],[-96.613032934752084,40.83695615066592],[-96.6148105706732,40.836992937984171],[-96.616588209879012,40.837029697938505],[-96.616539825490449,40.838379800389887],[-96.618317503982283,40.838416534718263],[-96.618365852367077,40.837066430528779],[-96.618414197472049,40.835716325975028],[-96.620191807238314,40.835753029464378],[-96.620143498134922,40.837103135754859],[-96.62192114718016,40.837139813616588],[-96.623698799500332,40.837176464113817],[-96.623747036599781,40.835826354353756],[-96.625524656190095,40.835862975753493],[-96.625476455092993,40.837213087246411],[-96.625428250725832,40.838563198375326],[-96.627205945593602,40.838599795874757],[-96.627254113955729,40.837249683014228],[-96.629031776086066,40.837286251417105],[-96.629079905177719,40.835936136462365],[-96.630857534570154,40.835972675771202],[-96.632635167225075,40.836009187716101],[-96.632587110139895,40.837359306127475],[-96.634364782058483,40.837395792434677],[-96.636142457234939,40.837432251376377],[-96.637920135666846,40.837468682952419],[-96.637968084740464,40.836118559365765],[-96.639745730420998,40.836154961853495],[-96.639697817351745,40.837505087162654],[-96.641475502287207,40.837541464006947],[-96.643253190470787,40.83757781348514],[-96.643301031530569,40.836227684734851],[-96.645078686954733,40.836264005128186],[-96.64685634562187,40.836300298156438],[-96.646808576572553,40.83765043034267],[-96.646760804282408,40.839000562165765],[-96.644983073602091,40.838964265702785],[-96.643205346165288,40.838927941872122]],[[-96.621728022022111,40.842540242078861],[-96.623505818375037,40.842576899513354],[-96.623457564910581,40.843927007453026],[-96.62523540055156,40.843963639250894],[-96.625283618001475,40.842613529578031],[-96.625331832180336,40.84126341954115],[-96.623554068565994,40.841226791209593],[-96.621776308224909,40.841190135509521],[-96.619998551159512,40.841153452441063],[-96.618220797372246,40.841116742004388],[-96.61817243914652,40.842466845101015],[-96.618124077639962,40.843816947833325],[-96.619901903452345,40.843853661744099],[-96.619950228945129,40.842503557274689],[-96.621728022022111,40.842540242078861]]],[[[-96.633403637390742,40.814407243673088],[-96.63345163908906,40.813057119079424],[-96.635228663315516,40.813093574322281],[-96.635276625798269,40.811743447639849],[-96.637053617318074,40.811779873816626],[-96.637005690795334,40.813130002222898],[-96.636957761021677,40.8144801302657],[-96.635180697579401,40.814443700641171],[-96.633403637390742,40.814407243673088]]],[[[-96.636957761021677,40.8144801302657],[-96.638734827715112,40.814516532546548],[-96.638686930655396,40.815866661948576],[-96.638639030346681,40.817216790987182],[-96.636861891720557,40.817180385260869],[-96.636909827996831,40.815830257945031],[-96.636957761021677,40.8144801302657]]],[[[-96.638159848509986,40.83071806138414],[-96.638111912445851,40.832068186424785],[-96.636334378015761,40.832031761743522],[-96.636382350074257,40.830681638426391],[-96.638159848509986,40.83071806138414]]]]}}
]
}
